{"type": "FeatureCollection", "features": [{"type": "Feature", "properties": {"title": "Tanah Longsor, Aribaya, Pagentan", "lokasi": "Aribaya, Pagentan", "waktu": "Sabtu, 01 Januari 2022", "dampak": "1 Rumah Rusak Ringan a.n nurdiyanto narwan", "tahun": "2022"}, "geometry": {"type": "Point", "coordinates": [109.7538133, -7.3346617]}}, {"type": "Feature", "properties": {"title": "Tanah Longsor, Kertosari, Kalibening", "lokasi": "Kertosari, Kalibening", "waktu": "Selasa, 11 Januari 2022", "dampak": "1 rumah Rusak Ringan : tembok bangunan dapur 2,5 meter x 4 meter dan tembok kamar mandi milik Sdr Tarmo, yang di taksir sekira Rp 5.000.000,- (lima juta rupiah)", "tahun": "2022"}, "geometry": {"type": "Point", "coordinates": [109.672551, -7.218212]}}, {"type": "Feature", "properties": {"title": "Tanah Longsor, Kalibening, Kalibening", "lokasi": "Kalibening, Kalibening", "waktu": "Selasa, 11 Januari 2022", "dampak": "2 rumah terancam a.n Kamal", "tahun": "2022"}, "geometry": {"type": "Point", "coordinates": [109.635046, -7.217948]}}, {"type": "Feature", "properties": {"title": "Tanah Longsor, Binangun, Karangkobar", "lokasi": "Binangun, Karangkobar", "waktu": "Senin, 10 Januari 2022", "dampak": "longsor menutup Sepertiga badan jalan, Jalur Kecamatan Karangkobar - Kalibening", "tahun": "2022"}, "geometry": {"type": "Point", "coordinates": [109.712981, -7.257236]}}, {"type": "Feature", "properties": {"title": "Tanah Longsor , Asinan, Kalibening", "lokasi": "Asinan, Kalibening", "waktu": "Selasa, 11 Januari 2022", "dampak": "1 rumah terancam a.n Misrun Miswardi", "tahun": "2022"}, "geometry": {"type": "Point", "coordinates": [109.65689, -7.27162]}}, {"type": "Feature", "properties": {"title": "Tanah Longsor, Gununglangit Kalibening", "lokasi": "Gununglangit Kalibening", "waktu": "Selasa, 11 Januari 2022", "dampak": "1 Rumah Rusak Ringan", "tahun": "2022"}, "geometry": {"type": "Point", "coordinates": [109.629442, -7.209834]}}, {"type": "Feature", "properties": {"title": "Tanah Longsor, Penusupan Pejawaran", "lokasi": "Penusupan Pejawaran", "waktu": "Selasa, 11 Januari 2022", "dampak": "1 rumah mengalami rusak sedang dan belum bisa di bongkar di karenakan saja lahan dan rumah itu saja yang di miliki oleh Bpk. Suprih", "tahun": "2022"}, "geometry": {"type": "Point", "coordinates": [109.800065, -7.246568]}}, {"type": "Feature", "properties": {"title": "Tanah Longsor, Majatengah Kalibening", "lokasi": "Majatengah Kalibening", "waktu": "Selasa, 11 Januari 2022", "dampak": "1 rumah rusak ringan, diperkirakan kerugian materil Rp. 2.500.000,00", "tahun": "2022"}, "geometry": {"type": "Point", "coordinates": [109.64814, -7.222251]}}, {"type": "Feature", "properties": {"title": "Tanah Longsor, Limbangan, Pagentan", "lokasi": "Limbangan, Pagentan", "waktu": "Minggu, 16 Januari 2022", "dampak": "Ruaas Jalan Kabupaten Banjarnegara Pagentan via pelipiran tertutup", "tahun": "2022"}, "geometry": {"type": "Point", "coordinates": [109.774739, -7.363563]}}, {"type": "Feature", "properties": {"title": "Tanah Longsor, Majatengah, Kalibening", "lokasi": "Majatengah, Kalibening", "waktu": "Rabu, 19 Januari 2022", "dampak": "", "tahun": "2022"}, "geometry": {"type": "Point", "coordinates": [109.643462, -7.221641]}}, {"type": "Feature", "properties": {"title": "Tanah Longsor, Kaliurip, Madukara", "lokasi": "Kaliurip, Madukara", "waktu": "Minggu, 23 Januari 2022", "dampak": "Jalur penghubung Desa Kaliurip - Desa Pakelen Tertutup Rumpun Bambu", "tahun": "2022"}, "geometry": {"type": "Point", "coordinates": [109.746454, -7.382445]}}, {"type": "Feature", "properties": {"title": "Tanah Longsor, Pingit Lor, Pandanarum", "lokasi": "Pingit Lor, Pandanarum", "waktu": "Sabtu, 22 Januari 2022", "dampak": "1 rumah rusak ringan a.n Bapak Tarmin dan akses jalan desa ambles", "tahun": "2022"}, "geometry": {"type": "Point", "coordinates": [109.554542, -7.249212]}}, {"type": "Feature", "properties": {"title": "Tanah Longsor, Beji, Pandanarum", "lokasi": "Beji, Pandanarum", "waktu": "Selasa, 11 Januari 2022", "dampak": "- 1 (Satu) rumah terdampak rusak pada bagian dinding belakang dan talud pengaman rumah ambruk kategori rusak sedang (60 %)\n - Pemilik rumah atas nama : Mundori (50 Th) Rt 02 Rw 01\n - Kondisi rumah saat ini belum diperbaiki secara permanen, namun talud pengaman rumah sudah diperbaiki.", "tahun": "2022"}, "geometry": {"type": "Point", "coordinates": [109.603951, -7.252993]}}, {"type": "Feature", "properties": {"title": "Tanah Longsor, Pringamba, Pandanarum", "lokasi": "Pringamba, Pandanarum", "waktu": "Selasa, 11 Januari 2022", "dampak": "- 1 (Satu) unit rumah terdampak mengalami retak-retak pada bagian dinding dan kolom kategori rusak ringan (30 %). - Pemilik rumah atas nama : Sukisno (50 Th) Rt 01 Rw 05 - Kondisi rumah hingga kini belum diperbaiki dan terancam karena talud pengaman rumah belum diperbaiki.", "tahun": "2022"}, "geometry": {"type": "Point", "coordinates": [109.601042, -7.243883]}}, {"type": "Feature", "properties": {"title": "Tanah Longsor, Desa Sijeruk, Kec. Banjarmangu", "lokasi": "Desa Sijeruk, Kec. Banjarmangu", "waktu": "Kamis, 27 Januari 2022", "dampak": "- 1 rumah rusak ringan\n \nRumah terdampak Atas nama:\nBahri umur 36 Tahun 3 Anggota Keluarga", "tahun": "2022"}, "geometry": {"type": "Point", "coordinates": [109.711175, -7.318803]}}, {"type": "Feature", "properties": {"title": "Tanah Longsor, Desa  Bakal, Kec Batur", "lokasi": "Desa  Bakal, Kec Batur", "waktu": "Kamis, 3 Februari 2022", "dampak": "- Longsor mengancam rumah bagian dapur yang tepat di tepi  tebing - +  1 meter", "tahun": "2022"}, "geometry": {"type": "Point", "coordinates": [109.876507, -7.218785]}}, {"type": "Feature", "properties": {"title": "Tanah Longsor, Desa Kalilunjar, Kec Banjarmangu", "lokasi": "Desa Kalilunjar, Kec Banjarmangu", "waktu": "Kamis, 3 Februari 2022", "dampak": "- Bangunan rumah mengalami kerusakan 5 % (bagian KM/WC retak, dan tembok rumah bagian belakang sebelah selatan retak)\n- Bp. Sugeng Edi Prabowo (1 KK, 3 jiwa)", "tahun": "2022"}, "geometry": {"type": "Point", "coordinates": [109.715278, -7.335556]}}, {"type": "Feature", "properties": {"title": "Tanah Longsor, Desa Beji\nKec.Banjarmangu", "lokasi": "Desa Beji\nKec.Banjarmangu", "waktu": "Sabtu, 5 Februari 2022", "dampak": "mengakibatkan ruas jalan gemantung anjlok setinggi kurang lebih 2 meter", "tahun": "2022"}, "geometry": {"type": "Point", "coordinates": [109.676222, -7.308663]}}, {"type": "Feature", "properties": {"title": "Tanah Longsor, Kel. Wangon Kec. Banjarnegara", "lokasi": "Kel. Wangon Kec. Banjarnegara", "waktu": "Rabu, 9 Februari 2022", "dampak": "Longsor terjadi menutup jalan", "tahun": "2022"}, "geometry": {"type": "Point", "coordinates": [109.678103, -7.408402]}}, {"type": "Feature", "properties": {"title": "Tanah Longsor, Kelurahan  Wangon Kec Banjarnegara", "lokasi": "Kelurahan  Wangon Kec Banjarnegara", "waktu": "Rabu, 9 Februari 2022", "dampak": "- Longsor menutupi seluruh bagian jalan \n- Lumpur mengenai 3 pekarangan rumah  milik warga  \nkolam ikan milik Bp. Muslihun alamat Rt 03 Rw 04 dsn. Sayangan, Ds. Twelagiri Pagedongan. Longsor menutup akses jalan  dan menimpa 4 rumah warga an An. Hadi Suwarno umur 73 th pejerjaan Tani agama islam, M. Iskak umur 55 th pekerjaan swasta Rt 2 rw 4 Kel. wangon kec. Banjarnegara, Agus Aryanto umur 47 th pekerjaan pedagang ibu Syam, umur65 th pekerjaan Irt, Iksan Nudin umur 60 th pekerjaan tani.", "tahun": "2022"}, "geometry": {"type": "Point", "coordinates": [109.678067, -7.408214]}}, {"type": "Feature", "properties": {"title": "Tanah Longsor, Desa Tunggara, kec.Sigaluh", "lokasi": "Desa Tunggara, kec.Sigaluh", "waktu": "Rabu, 9 Februari 2022", "dampak": "mendampak rusak rinnga Masjid Al Iman dan merusak Pagar keliling tempat wudu masjid", "tahun": "2022"}, "geometry": {"type": "Point", "coordinates": [109.831667, -7.423056]}}, {"type": "Feature", "properties": {"title": "Tanah Longsor, Desa Karangsari Kec Punggelan", "lokasi": "Desa Karangsari Kec Punggelan", "waktu": "Rabu, 9 Februari 2022", "dampak": "material longsor menutupi akses jalan Desa di dusun Klontong Desa Karangsari.Kec Punggelan", "tahun": "2022"}, "geometry": {"type": "Point", "coordinates": [109.568056, -7.340278]}}, {"type": "Feature", "properties": {"title": "Tanah Longsor, Desa Sidengok Kec.Pejawaran", "lokasi": "Desa Sidengok Kec.Pejawaran", "waktu": "Jumat, 11 Februari 2022", "dampak": "1 rumah terdampak, bagian Dapur Rumah a.n Bpk Darno(70thun) 2 KK 5 Jiwa Ambruk", "tahun": "2022"}, "geometry": {"type": "Point", "coordinates": [109.827641, -7.243306]}}, {"type": "Feature", "properties": {"title": "Tanah Longsor, Desa Pekasiran Kec. Batur", "lokasi": "Desa Pekasiran Kec. Batur", "waktu": "Senin, 14 Maret 2022", "dampak": "1 rumah rusak", "tahun": "2022"}, "geometry": {"type": "Point", "coordinates": [109.852318, -7.206312]}}, {"type": "Feature", "properties": {"title": "Tanah Longsor, Desa Kalipelus Kec Purwonegoro", "lokasi": "Desa Kalipelus Kec Purwonegoro", "waktu": "Minggu, 13 Februari 2022", "dampak": "ruas jalan desa rusak", "tahun": "2022"}, "geometry": {"type": "Point", "coordinates": [109.572554, -7.420922]}}, {"type": "Feature", "properties": {"title": "Tanah Longsor, Desa Petir Kec. Purwanegara", "lokasi": "Desa Petir Kec. Purwanegara", "waktu": "Senin, 14 Februari 2022", "dampak": "1 rumah rusak ringan a.n bpk Mad nasr", "tahun": "2022"}, "geometry": {"type": "Point", "coordinates": [109.579239, -7.504249]}}, {"type": "Feature", "properties": {"title": "Tanah Longsor, Desa Gumelem Kulon Kec. Susukan", "lokasi": "Desa Gumelem Kulon Kec. Susukan", "waktu": "Senin, 14 Februari 2022", "dampak": "- Kerusakan : Tembok Belakang rumah jebol menimpa tempat tidur dan perabotan rumah tangga.\n- Kategori Kerusakan : Rusak Ringan ( 20%) (Untuk membantu perbaikan rumah perlu diusulkan Bansos)\"\n\"- Kerugian matriil\nDitaksir 5 jt rupiah", "tahun": "2022"}, "geometry": {"type": "Point", "coordinates": [109.421451, -7.522056]}}, {"type": "Feature", "properties": {"title": "Tanah Longsor, Desa Bakal Kec Batur", "lokasi": "Desa Bakal Kec Batur", "waktu": "Senin, 14 Februari 2022", "dampak": "2 rumah rusak ringan", "tahun": "2022"}, "geometry": {"type": "Point", "coordinates": [109.888245, -7.21998]}}, {"type": "Feature", "properties": {"title": "Tanah Longsor, Desa Sipedang Kecamatan Banjarmangu", "lokasi": "Desa Sipedang Kecamatan Banjarmangu", "waktu": "Senin, 21 Februari 2022", "dampak": "Talud dengan ketinggian 4,5 meter dan panjang 5 meter merusak 1/3 bahu jalan", "tahun": "2022"}, "geometry": {"type": "Point", "coordinates": [109.64933, -7.31115]}}, {"type": "Feature", "properties": {"title": "Tanah Longsor, Desa Karanganyar Kec. Madukara", "lokasi": "Desa Karanganyar Kec. Madukara", "waktu": "Senin, 07 Maret 2022", "dampak": "2 rumah rusak ringan \nBangunan rumah ( bagian dapur )milik bpk Tuslam Marjani 65th terbawa longsor. Material longsor mengenai tembok dinding rumah bpk yugo ( kondisi tembok aman ) dan menutup jalan penghubung ke makam desa Karanganyar", "tahun": "2022"}, "geometry": {"type": "Point", "coordinates": [109.729461, -7.361076]}}, {"type": "Feature", "properties": {"title": "Tanah Longsor, Desa Rakitan Kec. Madukara", "lokasi": "Desa Rakitan Kec. Madukara", "waktu": "Senin, 07 Maret 2022", "dampak": "1 rumah milik bpk Basrun 48 th 4 jiwa terancam longsor.\nMaterial longsor mengenai perkebunan dibelakang rumah", "tahun": "2022"}, "geometry": {"type": "Point", "coordinates": [109.702694, -7.359056]}}, {"type": "Feature", "properties": {"title": "Tanah Longsor, Desa Gumelem Wetan Kec. Susukan", "lokasi": "Desa Gumelem Wetan Kec. Susukan", "waktu": "Minggu, 06 Maret 2022", "dampak": "1 rumah terancam a.n Ahmad Jaeni", "tahun": "2022"}, "geometry": {"type": "Point", "coordinates": [109.419911, -7.516677]}}, {"type": "Feature", "properties": {"title": "Tanah Longsor, Desa Gumelem Wetan Kec. Susukan", "lokasi": "Desa Gumelem Wetan Kec. Susukan", "waktu": "Minggu, 06 Maret 2022", "dampak": "1 rumah rusak ringan a.n Pak Paryono. rusak pada bagian dapur", "tahun": "2022"}, "geometry": {"type": "Point", "coordinates": [109.417198, -7.508763]}}, {"type": "Feature", "properties": {"title": "Tanah Longsor, Desa Tempuran Kec. Wanayasa", "lokasi": "Desa Tempuran Kec. Wanayasa", "waktu": "Selasa, 08 Maret 2022", "dampak": "1 rumah rusak sedang a.n Ahkmad Maskuri : dinding garasi rumah sebelah barat ambruk.\nkerugian sekitar Rp.25 jt", "tahun": "2022"}, "geometry": {"type": "Point", "coordinates": [109.741294, -7.238136]}}, {"type": "Feature", "properties": {"title": "Tanah Longsor, Desa Biting Kec. Pejawaran", "lokasi": "Desa Biting Kec. Pejawaran", "waktu": "Selasa, 08 Maret 2022", "dampak": "1 (satu) rumah rusak ringan milik bapak sobron", "tahun": "2022"}, "geometry": {"type": "Point", "coordinates": [109.784706, -7.253646]}}, {"type": "Feature", "properties": {"title": "Tanah Longsor, Desa Biting Kec. Pejawaran", "lokasi": "Desa Biting Kec. Pejawaran", "waktu": "Selasa, 08 Maret 2022", "dampak": "1 rumah rusak ringan a.n Ripto\n1 rumah yang terancam milik Ny. Suwanto", "tahun": "2022"}, "geometry": {"type": "Point", "coordinates": [109.779429, -7.26681]}}, {"type": "Feature", "properties": {"title": "Tanah Longsor, Desa Plumbungan Kec. Pagentan", "lokasi": "Desa Plumbungan Kec. Pagentan", "waktu": "Rabu, 09 Maret 2022", "dampak": "2 rumah terancam a.n Bpk Kartoyo dan Bpk. Mistar", "tahun": "2022"}, "geometry": {"type": "Point", "coordinates": [109.78933, -7.29084]}}, {"type": "Feature", "properties": {"title": "Tanah Longsor, Desa Penusupan Kec. Pejawaran", "lokasi": "Desa Penusupan Kec. Pejawaran", "waktu": "Rabu, 09 Maret 2022", "dampak": "mengancam rumah atas nama Kk. Haryono (5 jiwa)", "tahun": "2022"}, "geometry": {"type": "Point", "coordinates": [109.795511, -7.247733]}}, {"type": "Feature", "properties": {"title": "Tanah Longsor, Desa Gembol Kec Pejawaran", "lokasi": "Desa Gembol Kec Pejawaran", "waktu": "Kamis, 10 Maret 2022", "dampak": "1 Unit Rumah Terancam. a.n Milik Bpk Wahono 57 Tahuh (3kk 8Jiwa)", "tahun": "2022"}, "geometry": {"type": "Point", "coordinates": [109.859485, -7.222969]}}, {"type": "Feature", "properties": {"title": "Tanah Longsor, Desa Kalilunjar Kec. Banjarmangu", "lokasi": "Desa Kalilunjar Kec. Banjarmangu", "waktu": "Sabtu, 12 Maret 2022", "dampak": "1 unit rumah rusak ringan An.Tusiah", "tahun": "2022"}, "geometry": {"type": "Point", "coordinates": [109.77234, -7.265819]}}, {"type": "Feature", "properties": {"title": "Tanah Longsor, Desa Sijeruk Kec. Banjarmangu", "lokasi": "Desa Sijeruk Kec. Banjarmangu", "waktu": "Jumat, 11 Maret 2022", "dampak": "1 rumah rusak terancam a.n Bapak Salim Susanto Umur 45 Tahun (4 jiwa)", "tahun": "2022"}, "geometry": {"type": "Point", "coordinates": [109.711722, -7.318044]}}, {"type": "Feature", "properties": {"title": "Tanah Longsor, Desa Metawana Kecamatan Pagentan", "lokasi": "Desa Metawana Kecamatan Pagentan", "waktu": "Minggu, 13 Maret 2022", "dampak": "1 rumah rusak : Rumah milik Bapak Panut umur 38 Tahun dibagian dapur mengalami kerusakan setelah tembok dibagian tersebut mengalami ambruk.", "tahun": "2022"}, "geometry": {"type": "Point", "coordinates": [109.793196, -7.318815]}}, {"type": "Feature", "properties": {"title": "Tanah Longsor, Desa Biting Kec Pejawaran", "lokasi": "Desa Biting Kec Pejawaran", "waktu": "Minggu, 13 Maret 2022", "dampak": "1 rumah rusak ringan \na.n milik bapak sunarwan terdampak rusak ringan pondasi samping", "tahun": "2022"}, "geometry": {"type": "Point", "coordinates": [109.785068, -7.255415]}}, {"type": "Feature", "properties": {"title": "Tanah Longsor, Desa Kalitlaga, Kec. Pagentan", "lokasi": "Desa Kalitlaga, Kec. Pagentan", "waktu": "Minggu, 13 Maret 2022", "dampak": "1 rumah rusak ringan dan 1 kandang kambing milik Bapak Slamet Prio 1 KK 4 Jiwa \n\nserta 1 ruas jalan penghubung menuju Dusun Klesem sementara hanya dapat dilalui kendaraan roda dua.", "tahun": "2022"}, "geometry": {"type": "Point", "coordinates": [109.793352, -7.305821]}}, {"type": "Feature", "properties": {"title": "Tanah Longsor, Desa Darmayasa Kec. Pejawaran", "lokasi": "Desa Darmayasa Kec. Pejawaran", "waktu": "Senin, 14 Maret 2022", "dampak": "1 rumah rusak ringan atas nama Bpk Muktiono dengan kondisi retak dan rusak dibagian belakang rumah dan mengenai kandang kambing 2 ekor kambing mati", "tahun": "2022"}, "geometry": {"type": "Point", "coordinates": [109.800547, -7.280265]}}, {"type": "Feature", "properties": {"title": "Tanah Longsor, Desa Lebakwangi Kec. Pagedongan", "lokasi": "Desa Lebakwangi Kec. Pagedongan", "waktu": "Selasa, 15 Maret 2022", "dampak": "\" - 1 Unit Rumah Milik  Bpk.Bengat(50 Tahun)(6 Jiwa)mengalami rusak berat//Logistik permakanan untuk kerja bhakti.\n-Akses menuju jalan pemukiman tertutup oleh material longsoran. \"\n\"-Bpk Salim(50 thn/5 Jiwa)//Logistik Permakanan\n-Bpk Waluyo(45 thn/4 jiwa)//Logistik Permakanan\n-Bpk Wahid(30 thn/3 Jiwa)//Logistik Permakanan \"", "tahun": "2022"}, "geometry": {"type": "Point", "coordinates": [109.660149, -7.459256]}}, {"type": "Feature", "properties": {"title": "Tanah Longsor, Desa Lebakwangi Kec. Pagedongan", "lokasi": "Desa Lebakwangi Kec. Pagedongan", "waktu": "Selasa, 15 Maret 2022", "dampak": "\" 2 Unit Rumah Rusak Sedang\n- a.n milik Bpk.Kalik(73 thn/4Jiwa) mengalami rusak sedang pada bagian atas\ndapur//Logistik Permakanan Untuk Kerja bhakti & Logistik non permakanan \n-a.n Milik Bpk.mutakim(50 thn/4 jiwa)\nMengalami rusak sedang pada bagian dapur//Logistik permakanan Untuk Kerja Bhakti \n\n1 Unit mushola mengalami rusak sedang pada bagian halaman mushola dan dalam mushola. \"\n\"TERANCAM\n-Bpk jefri (38 thn 4jiwa)//Logistik Permakanan\n-Bpk Sukirno (68 Thn3 jiwa)//Logistik Permakanan\"", "tahun": "2022"}, "geometry": {"type": "Point", "coordinates": [109.658434, -7.462038]}}, {"type": "Feature", "properties": {"title": "Tanah Longsor, Desa Glempang, Kec. Mandiraja", "lokasi": "Desa Glempang, Kec. Mandiraja", "waktu": "Selasa, 15 Maret 2022", "dampak": "3 Unit Rumah terancam atas nama :\n\u2022KK Misni 47 Th ( 3 Jiwa )\n\u2022KK Karsono ( 3 Jiwa )\n\u2022KK Sartinah ( 3 Jiwa )", "tahun": "2022"}, "geometry": {"type": "Point", "coordinates": [109.4764143, -7.5066375]}}, {"type": "Feature", "properties": {"title": "Tanah Longsor, Desa Kaliwungu Kec. Mandiraja", "lokasi": "Desa Kaliwungu Kec. Mandiraja", "waktu": "Selasa, 15 Maret 2022", "dampak": "- 1 Unit Rumah rusak ringan yang dihuni oleh 2 KK 7 Jiwa. \n- KK Basiran ( 4 Jiwa )\n- KK Wawan ( 3 Jiwa )", "tahun": "2022"}, "geometry": {"type": "Point", "coordinates": [109.508478, -7.498971]}}, {"type": "Feature", "properties": {"title": "Tanah Longsor, Desa Gemuruh Kec.Bawang", "lokasi": "Desa Gemuruh Kec.Bawang", "waktu": "Selasa, 15 Maret 2022", "dampak": "1 Unit Rumah Milik Suwito sukanta mengalami rusak ringan.", "tahun": "2022"}, "geometry": {"type": "Point", "coordinates": [109.643425, -7.402243]}}, {"type": "Feature", "properties": {"title": "Tanah Longsor, Desa Gumelem Kulon Kec. Susukan", "lokasi": "Desa Gumelem Kulon Kec. Susukan", "waktu": "Selasa, 15 Maret 2022", "dampak": "- 1 Unit Rumah terancam atas nama :\n\u2022KK Warso Sugito 45 Th ( 7 Jiwa )", "tahun": "2022"}, "geometry": {"type": "Point", "coordinates": [109.423029, -7.531555]}}, {"type": "Feature", "properties": {"title": "Tanah Longsor, Desa Duren Kec.Pagedongan", "lokasi": "Desa Duren Kec.Pagedongan", "waktu": "Selasa, 15 Maret 2022", "dampak": "- 1 Rumah Rusak Ringan\n- 3 Rumah Terancam\nKet : \n-Slamet Arifin(4 Jiwa)\n-Ngationo(4 Jiwa) Ket.(Pak Slamet&Pak ngationo 1 rumah 2 kk)\n-Kiman Toharudin(3 Jiwa)\n-Kamar mandi milik bpk sugeng pamuji(3 jiwa) Jebol terkena material longsoran", "tahun": "2022"}, "geometry": {"type": "Point", "coordinates": [109.668271, -7.48964]}}, {"type": "Feature", "properties": {"title": "Tanah Longsor, Desa Petir Kec.Purwanegara", "lokasi": "Desa Petir Kec.Purwanegara", "waktu": "Selasa, 15 Maret 2022", "dampak": "- 1 Unit Rumah milik Bpk.Kaswanto (73 thn/4Jiwa) Rt 04/Rw 05 mengalami rusak pada bagian atap Dan dinding jebol bagian dapur kebutuhanLogistik Permakanan Untuk Kerja bhakti & Logistik non permakanan \n\n-1 Unit Rumah Milik Bpk.Amad Sukarso(50 thn/4 jiwa)\nMengalami rusak sedang pada bagian Dinding kamar jebol.Kebutuhan Logistik permakanan Untuk Kerja Bhakti Dan teriplek\n\n- 1 Kandang ternak milik Bpk.Supriyadi Rt 04 / Rw 05 rusak pada dinding bagian belakang", "tahun": "2022"}, "geometry": {"type": "Point", "coordinates": [109.577911, -7.506447]}}, {"type": "Feature", "properties": {"title": "Tanah Longsor, Desa Kebutuhjurang Kec. Pagedongan", "lokasi": "Desa Kebutuhjurang Kec. Pagedongan", "waktu": "Selasa, 15 Maret 2022", "dampak": "-misdam (4 Jiwa)\n-waryanto(4 Jiwa) Ket.(Pak misdam &Pak waryanto 1 rumah 2 kk)rumah bagian belakang amblas dan mengancam rumah yang berada dibawahnya.(Logistik permakanan)", "tahun": "2022"}, "geometry": {"type": "Point", "coordinates": [109.674119, -7.491834]}}, {"type": "Feature", "properties": {"title": "Tanah Longsor, Desa Kebutuhjurang Kec. Pagedongan", "lokasi": "Desa Kebutuhjurang Kec. Pagedongan", "waktu": "Selasa, 15 Maret 2022", "dampak": "1 rumah terancam \n-Badrudin Badri(4 Jiwa)Tebing samping rumah longsor di depan rumah tidak ada kerusakan bagian bangunan", "tahun": "2022"}, "geometry": {"type": "Point", "coordinates": [109.665085, -7.492635]}}, {"type": "Feature", "properties": {"title": "Tanah Longsor, Desa Kebutuhjurang Kec. Pagedongan", "lokasi": "Desa Kebutuhjurang Kec. Pagedongan", "waktu": "Selasa, 15 Maret 2022", "dampak": "1 rumah rusak sedang\n-Raswandi (4 Jiwa)Dapur milik korban ambruk dan amblas sehingga dapur dibongkar", "tahun": "2022"}, "geometry": {"type": "Point", "coordinates": [109.695029, -7.48427]}}, {"type": "Feature", "properties": {"title": "Tanah Longsor, Desa Kebutuhduwur Kec. Pagedongan", "lokasi": "Desa Kebutuhduwur Kec. Pagedongan", "waktu": "Selasa, 15 Maret 2022", "dampak": "\"1 rumah rusak sedang\nSirom Sugi Pratikno(4 Jiwa)Rumah bagian ruang tamu dan ruang keluarga dengan diameter 6x9 Ambruk sehingga di kategorikan rusak sedang\"\n\n2 rumah terancam\n\"Jasrudin(5 jiwa)*Letak dapur berada di atas bibir longsoran-+ 40cm\nSukisno(3Jiwa) Letak dapur berada di atas bibir longsoran-+ 1,5 Meter\"", "tahun": "2022"}, "geometry": {"type": "Point", "coordinates": [109.674119, -7.491834]}}, {"type": "Feature", "properties": {"title": "Tanah Longsor, Desa Kebutuhduwur Kec. Pagedongan", "lokasi": "Desa Kebutuhduwur Kec. Pagedongan", "waktu": "Selasa, 15 Maret 2022", "dampak": "2 Rumah terancam\n\"Wiryono(5 Jiwa) letak Pondasi rumah berada diatas bibir longsor -+1,5Meter\nBujono(3 Jiwa)Letak Pondasi rumah sudah dibibir longsoran\"", "tahun": "2022"}, "geometry": {"type": "Point", "coordinates": [109.6903824, -7.4533294]}}, {"type": "Feature", "properties": {"title": "Tanah Longsor, Desa Pakelen Kec Madukara", "lokasi": "Desa Pakelen Kec Madukara", "waktu": "Selasa, 15 Maret 2022", "dampak": "1 Rumah terancam atas nama Alim Saefudin Dusun Gondang RT 01 RW 01 Desa Pakelen Kec. Madukara", "tahun": "2022"}, "geometry": {"type": "Point", "coordinates": [109.736045, -7.345304]}}, {"type": "Feature", "properties": {"title": "Tanah Longsor, Desa Pasuruhan Kec karangkobar", "lokasi": "Desa Pasuruhan Kec karangkobar", "waktu": "Selasa, 15 Maret 2022", "dampak": "1 Infrastruktur Jalan terancam", "tahun": "2022"}, "geometry": {"type": "Point", "coordinates": [109.683871, -7.267718]}}, {"type": "Feature", "properties": {"title": "Tanah Longsor, Desa Pasuruhan Kec karangkobar", "lokasi": "Desa Pasuruhan Kec karangkobar", "waktu": "Senin, 14 Maret 2022", "dampak": "Mengakibatkan jalan amblas jalan kabupaten turut Desa Pasuruan Kecamatan Karangkobar sepanjang +- 30 m mengalami rusak dan tidak bisa di lalui kr 4", "tahun": "2022"}, "geometry": {"type": "Point", "coordinates": [109.686622, -7.264838]}}, {"type": "Feature", "properties": {"title": "Tanah Longsor, Desa Sirkandi Kec. Purwareja Klampok", "lokasi": "Desa Sirkandi Kec. Purwareja Klampok", "waktu": "Selasa, 15 Maret 2022", "dampak": "1 Rumah Rusak ringan bagian Tembok kamar atas Nama :Bpk \nSarn", "tahun": "2022"}, "geometry": {"type": "Point", "coordinates": [109.451667, -7.522225]}}, {"type": "Feature", "properties": {"title": "Tanah Longsor, Desa Kaliajir, Kecamatan Purwanegara", "lokasi": "Desa Kaliajir, Kecamatan Purwanegara", "waktu": "Selasa, 15 Maret 2022", "dampak": "jalan tdk bisa di lalui roda 4. Tanah bergerak. Retak-retak di tengah jalan.Berimmbas ke beberapa rumah warga yang di atasnya.", "tahun": "2022"}, "geometry": {"type": "Point", "coordinates": [109.576555, -7.48885]}}, {"type": "Feature", "properties": {"title": "Tanah Longsor, Desa Panawaren Kec. Sigaluh", "lokasi": "Desa Panawaren Kec. Sigaluh", "waktu": "Rabu, 16 Maret 2022", "dampak": "1 Unit rumah terancam dan 1 ruas jalan kabupaten", "tahun": "2022"}, "geometry": {"type": "Point", "coordinates": [109.814498, -7.444921]}}, {"type": "Feature", "properties": {"title": "Tanah Longsor, Desa Giritirta Kec. Pejawaran", "lokasi": "Desa Giritirta Kec. Pejawaran", "waktu": "Selasa, 08 Maret 2022", "dampak": "kerusakan saluran irigasi dan mengancam 9 rumah warga yang berada di bawah", "tahun": "2022"}, "geometry": {"type": "Point", "coordinates": [109.782222, -7.244167]}}, {"type": "Feature", "properties": {"title": "Tanah Longsor, Desa Lebakwangi Kec. Pagedongan", "lokasi": "Desa Lebakwangi Kec. Pagedongan", "waktu": "Rabu, 16 Maret 2022", "dampak": "- Data Rumah Terdampak :\n1. Rumah Bapak Mutakim ( Mengungsi tentatif ) \n2. Mushola\n- Data Rumah Terancam :\n1. Rumah Bpk Jefri\n2. Rumah Bapak Sukirno\n3. Rumah Bapak Kalik", "tahun": "2022"}, "geometry": {"type": "Point", "coordinates": [109.66071, -7.459202]}}, {"type": "Feature", "properties": {"title": "Tanah Longsor, Desa Gunungjati, Kecamatan Pagedongan", "lokasi": "Desa Gunung Jati, Kecamatan Pagedongan", "waktu": "Selasa, 15 Maret 2022", "dampak": "1 Rumah atas nama Saryanto (54th/ 3 jiwa) mengalami rusak sedang\n2. Satu rumah Mengalami rusak sedang dan terancam\n3. Terjadi retakan tanah di atas tebing dengan panjang 6 m. Pada tebing setinggi 15 m\n2. Retak pada pndasi, dinding bangunan rumah runtuh, dan kamar mandi karena pondasi yang bergeser.\n4. Tiang listrik miring karena ada pergeseran tiang akibat pergerakan tanah \n- Anggota keluarga sebagai berikut :\n1. Nengad (57 Th, Kakak Saryanto)\n2. Kartinah (44 Th, Istri Saryanto)\n3. Bani Fitriani (17 Th, Anak Saryanto)\n- Tanah dan bangunan masih sering bergerak, terutama saat hujan deras\n\nRumah Terancam atas nama :\n1. KK Pak Jamali (60 Th, 4 Jiwa)\n2. Kk Pak Muarji (75 Th, 2 Jiwa)", "tahun": "2022"}, "geometry": {"type": "Point", "coordinates": [109.674089, -7.4514183]}}, {"type": "Feature", "properties": {"title": "Tanah Longsor, Desa Gunungjati Kec. Pagedongan", "lokasi": "Desa Gunungjati Kec. Pagedongan", "waktu": "Rabu, 16 Maret 2022", "dampak": "1 rumah rusak", "tahun": "2022"}, "geometry": {"type": "Point", "coordinates": [109.672964, -7.458701]}}, {"type": "Feature", "properties": {"title": "Tanah Longsor, Desa Duren Kec. Pagedongan", "lokasi": "Desa Duren Kec. Pagedongan", "waktu": "Rabu, 16 Maret 2022", "dampak": "1 Rumah Rusak ringan bagian atap teras atas Nama :Bpk Jatno dan Pintu Rollong door milik Ibu Parmiyah yang beralamatkan di Dusun Duren Rt 01 Rw 02\nDesa Duren\nKec. Pagedongan\n2. Matrial longsor menutup jalan kampung", "tahun": "2022"}, "geometry": {"type": "Point", "coordinates": [109.655915, -7.483595]}}, {"type": "Feature", "properties": {"title": "Tanah Longsor, Desa Limbangan, Kec. Madukara (Jalan Kabupaten)", "lokasi": "Desa Limbangan, Kec. Madukara (Jalan Kabupaten)", "waktu": "Senin, 21 Maret 2022", "dampak": "- Jalan kabupaten penghubung Desa Limbangan ke Desa Clapar tertutup material tanah longsor.\n- Pada pukul 09:30 Wib jalan sudah terbuka bisa dilalui oleh KR 2 dan KR 4, namun masih terjadi pergerakan tanah dan longsor susulan.", "tahun": "2022"}, "geometry": {"type": "Point", "coordinates": [109.774699, -7.363495]}}, {"type": "Feature", "properties": {"title": "Tanah Longsor, Desa Merden, Kec. Purwanegara", "lokasi": "Desa Merden, Kec. Purwanegara", "waktu": "Sabtu, 19 Maret 2022", "dampak": "1 rumah rusak ringan a.n Bp. Nawireja 70 Th", "tahun": "2022"}, "geometry": {"type": "Point", "coordinates": [109.545883, -7.484138]}}, {"type": "Feature", "properties": {"title": "Tanah Longsor, Desa Singamerta Kec.Sigaluh", "lokasi": "Desa Singamerta Kec.Sigaluh", "waktu": "Sabtu, 19 Maret 2022", "dampak": "- 1 Unit Rumah Milik Bpk Khomedi (2kk 10jiwa) Terancam\n-Akses Jalan Desa Tertutup", "tahun": "2022"}, "geometry": {"type": "Point", "coordinates": [109.736752, -7.399694]}}, {"type": "Feature", "properties": {"title": "Tanah Longsor, Desa Darmayasa Kec. Pejawaran", "lokasi": "Desa Darmayasa Kec. Pejawaran", "waktu": "Selasa, 15 Maret 2022", "dampak": "ruas jalan kabupaten terancam", "tahun": "2022"}, "geometry": {"type": "Point", "coordinates": [109.800709, -7.267415]}}, {"type": "Feature", "properties": {"title": "Tanah Longsor, Desa Panawaren Kec. Sigaluh", "lokasi": "Desa Penawaren Kec. Sigaluh", "waktu": "Rabu, 16 Maret 2022", "dampak": "", "tahun": "2022"}, "geometry": {"type": "Point", "coordinates": [109.805973, -7.435876]}}, {"type": "Feature", "properties": {"title": "Tanah Longsor, Desa Petir Kec Purwanegara", "lokasi": "Desa Petir Kec Purwanegara", "waktu": "Selasa, 15 Maret 2022", "dampak": "jalan kabupaten tertimbun longsor", "tahun": "2022"}, "geometry": {"type": "Point", "coordinates": [109.589348, -7.48232]}}, {"type": "Feature", "properties": {"title": "Tanah Longsor, Desa Kebutuhjurang Kec. Pagedongan", "lokasi": "Desa Kebutuhjurang Kec. Pagedongan", "waktu": "Selasa, 15 Maret 2022", "dampak": "1 rumah terancam \n-Badriyah(4 Jiwa) Pekarangan rumah gugur dengan jarak -+2 meter", "tahun": "2022"}, "geometry": {"type": "Point", "coordinates": [109.674098, -7.492977]}}, {"type": "Feature", "properties": {"title": "Tanah Longsor, Desa Petir Kec Purwanegara", "lokasi": "Desa Petir Kec Purwanegara", "waktu": "Senin, 21 Maret 2022", "dampak": "-Tidak bisa dilewati oleh kendaraan roda 4\n- Mempersulit lalulintas akses utama jalan menuju Desa Petir", "tahun": "2022"}, "geometry": {"type": "Point", "coordinates": [109.587187, -7.475516]}}, {"type": "Feature", "properties": {"title": "Tanah Longsor, Desa Kaliajir,Kec.Purwanegara", "lokasi": "Desa Kaliajir,Kec.Purwanegara", "waktu": "Kamis, 17 Maret 2022", "dampak": "jalan kabupaten tertimpa longsor", "tahun": "2022"}, "geometry": {"type": "Point", "coordinates": [109.576246, -7.489295]}}, {"type": "Feature", "properties": {"title": "Tanah Longsor, Desa Gumelem Kulon Kec. Susukan", "lokasi": "Desa Gumelem Kulon Kec. Susukan", "waktu": "Jumat, 18 Maret 2022", "dampak": "1 rumah terancam\nKondisi pondasi rumah sebagian longsor, kondisi rumah bagian belakang terancam.", "tahun": "2022"}, "geometry": {"type": "Point", "coordinates": [109.404439, -7.530841]}}, {"type": "Feature", "properties": {"title": "Tanah Longsor, Desa Wanadri Kec. Bawang", "lokasi": "Desa Wanadri Kec. Bawang", "waktu": "Jumat, 18 Maret 2022", "dampak": "- 1 rumah terancam             - 1 kandang kambing rusak", "tahun": "2022"}, "geometry": {"type": "Point", "coordinates": [109.6203573, -7.4721526]}}, {"type": "Feature", "properties": {"title": "Tanah Longsor, Desa Wanadri Kec. Bawang", "lokasi": "Desa Wanadri Kec. Bawang", "waktu": "Jumat, 18 Maret 2022", "dampak": "mengancam 1 rumah", "tahun": "2022"}, "geometry": {"type": "Point", "coordinates": [109.61434, -7.49555]}}, {"type": "Feature", "properties": {"title": "Tanah Longsor, Desa Kebondalem Kec. Bawang", "lokasi": "Desa Kebondalem Kec. Bawang", "waktu": "Jumat, 18 Maret 2022", "dampak": "- jalan tidak dapat dilalui kendaraan roda 4", "tahun": "2022"}, "geometry": {"type": "Point", "coordinates": [109.619391, -7.4878399]}}, {"type": "Feature", "properties": {"title": "Tanah Longsor, Desa Dawuhan Kec.Madukara", "lokasi": "Desa Dawuhan Kec.Madukara", "waktu": "Senin, 21 Maret 2022", "dampak": "-1 Rumah rusak ringan : Bagian Dapur milik bapak Ramlan(2Jiwa)Terkena Longsoran.", "tahun": "2022"}, "geometry": {"type": "Point", "coordinates": [109.729887, -7.37366]}}, {"type": "Feature", "properties": {"title": "Tanah Longsor, Desa Asinan Kec. Kalibening", "lokasi": "Desa Asinan Kec. Kalibening", "waktu": "Senin, 21 Maret 2022", "dampak": "1 rumah rusak berat\n- Tn. Sukoyo siswo (70th) \n- Ny. Manisem (65th) \n Rt 01 Rw 02 \n\ud83d\udccd(-7.2663097,109.6521039)\nMengungsi dirumah Tn. Kisnanto\n\n\n8 rumah terancam\n- Tn. Warso (37th)\n- Ny. Misti Mistoyo (67)\nRt 01 Rw 02\n\ud83d\udccd(-7.2668787,109.6523198)\n\n- Tn. Hanto (32th)\n- Ny. Yatimah(33th)\n- Maelita(13th)\n- Bilqis(3th)\nRt 01 Rw 02\n\ud83d\udccd(-7.2669000,109.6522040)\n\n- Tn. Mislam samsudin\n- Tn. Misni\n-Tn. Ihsan juniawan\n-Tn.Minah\nRt 01 Rw 02\n\ud83d\udccd(-7.2670590, 109.6531460)\n\n- Ny. Sulastri\n- Tn. Nasirin\nRt 01 Rw 02\n\ud83d\udccd(-7.2671890, 109.6532330)\n\n- Tn. Tuheni\n- Tn. Tlompak\nRt 01 Rw 02\n\ud83d\udccd(-7.2672680, 109.6528070)\n\n- Tn. Jabidi (3 jiwa)\nRt 01 Rw 02\n\ud83d\udccd(-7.2674120, 109.6525200)\n\n- Tn. Juwardi (3 jiwa)\nRt 01 Rw 02\n\ud83d\udccd(-7.2673940, 109.6524170)\n\n- Tn. Ratmoko (4 jiwa)\nRt 01 Rw 02\n\ud83d\udccd(-7.2675380, 109.6524020)", "tahun": "2022"}, "geometry": {"type": "Point", "coordinates": [109.651991, -7.265156]}}, {"type": "Feature", "properties": {"title": "Tanah Longsor, Desa Glempang, Kec. Mandiraja", "lokasi": "Desa Glempang, Kec. Mandiraja", "waktu": "Minggu, 27 Maret 2022", "dampak": "- Longsor mengancam Tempat Ibadah (Masjid)\nSudah dilaksanakan kerja bakti oleh masyarakat setempat -+ 40% , masih kekurangan terpal dan karung untuk membuat talud darurat.\n- Tanah Longsor mengancam Rumah Warga, sudah dilakukan kerja bakti dan himbauan kepada masyarakat, Destana dan relawan gabungan melakukan pemantauan di pos pantau.", "tahun": "2022"}, "geometry": {"type": "Point", "coordinates": [109.478025, -7.498835]}}, {"type": "Feature", "properties": {"title": "Tanah Longsor, Desa Pandansari, Kec. Wanayasa", "lokasi": "Desa Pandansari, Kec. Wanayasa", "waktu": "Senin, 28 Maret 2022", "dampak": "1 Rumah Rusak Sedang, 2 rumah rusak ringan \na.n\n1. Salam Budi Santoso ( Rusak sedang)\n2. Sujari ( Rusak ringan)\n3. Barkah ( Rusak ringan)", "tahun": "2022"}, "geometry": {"type": "Point", "coordinates": [109.76477, -7.300967]}}, {"type": "Feature", "properties": {"title": "Tanah Longsor, Desa Sirkandi Kec.Pwj Klampok", "lokasi": "Desa Sirkandi Kec.Pwj Klampok", "waktu": "Rabu, 30 Maret 2022", "dampak": "1 rumah rusak ringan milik bapak Sutrisno 62(4 jiwa).", "tahun": "2022"}, "geometry": {"type": "Point", "coordinates": [109.449863, -7.519834]}}, {"type": "Feature", "properties": {"title": "Tanah Longsor, Desa Sirkandi Kec.Pwj Klampok", "lokasi": "Desa Sirkandi Kec.Pwj Klampok", "waktu": "Rabu, 30 Maret 2022", "dampak": "1 rumah rusak ringan (bagian dapur ambruk) milik bapak sirin 49 6 jiwa)", "tahun": "2022"}, "geometry": {"type": "Point", "coordinates": [109.449811, -7.519915]}}, {"type": "Feature", "properties": {"title": "Tanah Longsor, Desa Pandanarum Kec Pandanarum", "lokasi": "Desa Pandanarum Kec Pandanarum", "waktu": "Kamis, 31 Maret 2022", "dampak": "- Material menutup saluran air di Madrasah Ibtidaiyah (mi) Salam Desa Pandanarum kec Pandanarum.", "tahun": "2022"}, "geometry": {"type": "Point", "coordinates": [109.60399, -7.284398]}}, {"type": "Feature", "properties": {"title": "Tanah Longsor, Desa Sinduaji Kec. Pandanarum", "lokasi": "Desa Sinduaji Kec. Pandanarum", "waktu": "Jumat, 01 April 2022", "dampak": "2 rumah terancam", "tahun": "2022"}, "geometry": {"type": "Point", "coordinates": [109.591605, -7.27898]}}, {"type": "Feature", "properties": {"title": "Tanah Longsor, Desa Pagerpelah Kec. Karangkobar", "lokasi": "Desa Pagerpelah Kec. Karangkobar", "waktu": "Jumat, 01 April 2022", "dampak": "1 ruas jalan kabupaten rusak", "tahun": "2022"}, "geometry": {"type": "Point", "coordinates": [109.698257, -7.285502]}}, {"type": "Feature", "properties": {"title": "Tanah Longsor, Desa Sirukem Kec.kalibening", "lokasi": "Desa Sirukem Kec.kalibening", "waktu": "Jumat, 01 April 2022", "dampak": "1 Bangunan SD Terancam dan 1 rumah rusak ringan", "tahun": "2022"}, "geometry": {"type": "Point", "coordinates": [109.69912, -7.235414]}}, {"type": "Feature", "properties": {"title": "Tanah Longsor, Desa Pesangkalan Kec. Pagedongan", "lokasi": "Desa Pesangkalan Kec. Pagedongan", "waktu": "Jumat, 01 April 2022", "dampak": "1 Rumah rusak ringan pada bagian garasi", "tahun": "2022"}, "geometry": {"type": "Point", "coordinates": [109.723085, -7.449989]}}, {"type": "Feature", "properties": {"title": "Tanah Longsor, Desa Merden Kec. Purwanegara", "lokasi": "Desa Merden Kec. Purwanegara", "waktu": "Sabtu, 02 April 2022", "dampak": "- Talud dan tembok pekarangan rumah bagian samping longsor / ambruk menimpa dan menutup jalan pemukiman", "tahun": "2022"}, "geometry": {"type": "Point", "coordinates": [109.542674, -7.471705]}}, {"type": "Feature", "properties": {"title": "Tanah Longsor, Desa Somawangi Kec. Mandiraja", "lokasi": "Desa Somawangi Kec. Mandiraja", "waktu": "Sabtu, 02 April 2022", "dampak": "", "tahun": "2022"}, "geometry": {"type": "Point", "coordinates": [109.516881, -7.477618]}}, {"type": "Feature", "properties": {"title": "Tanah Longsor, Desa Mandiraja Kulon Kec.Mandiraja", "lokasi": "Desa Mandiraja Kulon Kec.Mandiraja", "waktu": "Sabtu, 02 April 2022", "dampak": "1. 1 rumah rusak bagian dapur dan mengancam bagian kamar kecil 3 Kk 7 jiwa\n- Muntari (75th) \n- Nurohman (39th) \n - Dedi Prastyo (23 th) \nJumlah penghuni rumah 7 orang\n\n2. Mengancam rumah \n- Suwarno (50th) \n- Yusup (38th) \nJumlah penghuni rumah 5 orang", "tahun": "2022"}, "geometry": {"type": "Point", "coordinates": [109.513749, -7.45184]}}, {"type": "Feature", "properties": {"title": "Tanah Longsor, Desa Penanggungan Kec. Wanayasa", "lokasi": "Desa Penanggungan Kec. Wanayasa", "waktu": "Sabtu, 02 April 2022", "dampak": "2 rumah rusak ringan", "tahun": "2022"}, "geometry": {"type": "Point", "coordinates": [109.78385, -7.199788]}}, {"type": "Feature", "properties": {"title": "Tanah Longsor, Desa Karanganyar Kec. Purwanegara", "lokasi": "Desa Karanganyar Kec. Purwanegara", "waktu": "Minggu, 03 April 2022", "dampak": "1 ruas jalan Desa rusak dan, 45 KK terancam kehilangan akses", "tahun": "2022"}, "geometry": {"type": "Point", "coordinates": [109.562169, -7.481731]}}, {"type": "Feature", "properties": {"title": "Tanah Longsor, Desa Gunungjati Kec. Pagedongan", "lokasi": "Desa Gunungjati Kec. Pagedongan", "waktu": "Minggu, 03 April 2022 (longsor susulan)", "dampak": "menutup/ mendampak jalan Kabupaten", "tahun": "lan)"}, "geometry": {"type": "Point", "coordinates": [109.673675, -7.451566]}}, {"type": "Feature", "properties": {"title": "Tanah Longsor, Desa Beji Kec.Pandanarum", "lokasi": "Desa Beji Kec.Pandanarum", "waktu": "Selasa, 05 April 2022", "dampak": "1. Jembatan Beji Serang, longsor sebelah utara bagian barat, yg mengakibatkan bagian jlurung tidak ada tumpuannya, sehingga berbahaya dilalui kendaraan roda 4 , dan 6.\n\n2. Talud kandang ayam Agus Beji lampeng jebol setinggi 7m.\n\n3. Talud depan rumah Bpk Kabul longsor setinggi 6 - 7 m lebih.", "tahun": "2022"}, "geometry": {"type": "Point", "coordinates": [109.602644, -7.248976]}}, {"type": "Feature", "properties": {"title": "Tanah Longsor, Desa Pasuruhan Kec. Karangkobar", "lokasi": "Desa Pasuruhan Kec. Karangkobar", "waktu": "Sabtu, 09 April 2022", "dampak": "1 Jembatan penghubung warga terancam putus", "tahun": "2022"}, "geometry": {"type": "Point", "coordinates": [109.676201, -7.271077]}}, {"type": "Feature", "properties": {"title": "Tanah Longsor, Desa Limbangan Kec. Madukara", "lokasi": "Desa Limbangan Kec. Madukara", "waktu": "Senin, 11 April 2022", "dampak": "ruas jalan kabupaten tertutup material longsor berupa batu", "tahun": "2022"}, "geometry": {"type": "Point", "coordinates": [109.7746614, -7.3635269]}}, {"type": "Feature", "properties": {"title": "Tanah Longsor, Desa Sumberejo Kec. Batur", "lokasi": "Desa Sumberejo Kec. Batur", "waktu": "Kamis, 14 April 2022", "dampak": "1 rumah rusak a.n Guris dengan taksiran nilai kerusakan 10 jt\n1 rumah terancam a.n Khusni\n1 ruas jalan desa terputus/ rusak berat", "tahun": "2022"}, "geometry": {"type": "Point", "coordinates": [109.833906, -7.208953]}}, {"type": "Feature", "properties": {"title": "Tanah Longsor, Desa Kalitlaga Kecamatan Pagentan", "lokasi": "Desa Kalitlaga Kecamatan Pagentan", "waktu": "Selasa, 19 April 2022", "dampak": "1 rumah rusak\n1 kandang kambing rusak\njalan penghubung menuju Dusun Klesem sementara hanya dapat dilalui kendaraan roda dua.", "tahun": "2022"}, "geometry": {"type": "Point", "coordinates": [109.793264, -7.305494]}}, {"type": "Feature", "properties": {"title": "Tanah Longsor, Desa Tapen Kec. Wanadadi", "lokasi": "Desa Tapen Kec. Wanadadi", "waktu": "Rabu, 20 April 2022", "dampak": "1 Rumah terancam atas nama Suparyo (70 Th) Dusun Tapen Jurang RT 02 RW 04 Desa Tapen Kec. Wanadadi", "tahun": "2022"}, "geometry": {"type": "Point", "coordinates": [109.596884, -7.398196]}}, {"type": "Feature", "properties": {"title": "Tanah Longsor, Desa Talunamba Kec. Madukara", "lokasi": "Desa Talunamba Kec. Madukara", "waktu": "Rabu, 20 April 2022", "dampak": "", "tahun": "2022"}, "geometry": {"type": "Point", "coordinates": [109.764157, -7.357239]}}, {"type": "Feature", "properties": {"title": "Tanah Longsor/ bergerak, Desa Gumingsir Kecamatan Pagentan", "lokasi": "Desa Gumingsir Kecamatan Pagentan", "waktu": "Jumat, 22 April 2022", "dampak": "21 Rumah dan 1 Masjid rusak ringan\nKet :\n\"Kerusakan pada bagian rumah dan perkebunan warga. Adapun rumah yang mengalami kerusakan:\n1.Masjid Baitul Muslimin\n2.Rumah Bapak Tuwarno\n3.Rumah Bapak Mulyono\n4.Rumah Bapak Mihedi\n5.Rumah Bapak Kardiman\n6.Rumah Bapak Darto\n7.Rumah Bapak Abdul Sutomo\n8.Rumah Bapak Amin Sutikno\n9.Rumah Bapak Tartono\n10.Rumah Ibu Ratem\n11.Rumah Bapak Parsono\n12.Rumah Bapak Budi Santoso\n13.Rumah Bapak Marno\n14.Rumah Bapak Sukarto\n15.Rumah Bapak Rudianto\n16.Rumah Bapak Tarso\n17.Rumah Bapak Suratno\n18.Rumah Bapak Senen\n19.Rumah Bapak Imam Sutikno\n20.Bapak Udin Yuli Suprapto\n21.Rumah Bapak Nur Solehan\n22.Rumah Bapak Marso\"", "tahun": "2022"}, "geometry": {"type": "Point", "coordinates": [109.7582181, -7.3219235]}}, {"type": "Feature", "properties": {"title": "Tanah Longsor, Desa Plorengan Kec. Kalibening", "lokasi": "Desa Plorengan Kec. Kalibening", "waktu": "Minggu, 01 Mei 2022", "dampak": "1 rumah rusak sedang\na.n Bp Muhyanto/53 th (6 jiwa)\n- Tembok Jebol\n-Alat dapur Rusak karena tertimpa material Longsor.", "tahun": "2022"}, "geometry": {"type": "Point", "coordinates": [109.668352, -7.1870161]}}, {"type": "Feature", "properties": {"title": "Tanah Longsor, Desa Pesangkalan Kec. Pagedongan", "lokasi": "Desa Pesangkalan Kec. Pagedongan", "waktu": "Kamis, 05 Mei 2022", "dampak": "1 ruas jalan tertutup longsor", "tahun": "2022"}, "geometry": {"type": "Point", "coordinates": [109.733925, -7.451496]}}, {"type": "Feature", "properties": {"title": "Tanah Longsor, Desa Lebakwangi Kec. Pagedongan", "lokasi": "Desa Lebakwangi Kec. Pagedongan", "waktu": "Jumat, 06 Mei 2022", "dampak": "1 ruas jalan desa Akses jalan warga Kemojing dan Desa Duren tertutup longsoran, tidak bisa dilalui KR 4", "tahun": "2022"}, "geometry": {"type": "Point", "coordinates": [109.661667, -7.474444]}}, {"type": "Feature", "properties": {"title": "Tanah Longsor, Desa . Lebakwangi Kec.Pagedongan", "lokasi": "Desa . Lebakwangi Kec.Pagedongan", "waktu": "Jumat, 06 Mei 2022", "dampak": "1 rusa jalan desa terancam Bahu jalan dan sebagian badan jalan akses menuju Dusun Panggung longsor", "tahun": "2022"}, "geometry": {"type": "Point", "coordinates": [109.6583675, -7.464547]}}, {"type": "Feature", "properties": {"title": "Tanah Longsor, Desa Gunungjati Kec.Pagedongan.", "lokasi": "Desa Gunungjati Kec.Pagedongan.", "waktu": "Rabu, 11 Mei 2022", "dampak": "1 unit rumah rusak sedang\nKet :\n Unit Rumah Milik Bapak Toni(52 Tahun) 2kk 5jiwa Pada Bagian Dapur,dan Kamar Mandi Ambruk.serta Dinding kamar dan Ruang Tamu Retak2.", "tahun": "2022"}, "geometry": {"type": "Point", "coordinates": [109.6736433, -7.4386138]}}, {"type": "Feature", "properties": {"title": "Tanah Longsor, Desa Kebutuh Jurang Kec.Pagedongan", "lokasi": "Desa Kebutuhjurang Kec.Pagedongan", "waktu": "Jumat, 13 Mei 2022", "dampak": "-1 Rumah Terdampak Milik Bpk.Mistoful (36 Tahun) Pada Bagian Garasi Mengalami Kerusakan.\n- Akses Ekonomi Dan Pendidikan (jalan desa) Tertutup Material Longsor", "tahun": "2022"}, "geometry": {"type": "Point", "coordinates": [109.694814, -7.471762]}}, {"type": "Feature", "properties": {"title": "Tanah Longsor, Desa Sirkandi Kec.Purwareja Klampok", "lokasi": "Desa Sirkandi Kec.Purwareja Klampok", "waktu": "Sabtu, 14 Mei 2022", "dampak": "1 Unit Rumah Milik Bapak Narsan /tidak di huni terancam, jika ada pergerakan", "tahun": "2022"}, "geometry": {"type": "Point", "coordinates": [109.44942, -7.493263]}}, {"type": "Feature", "properties": {"title": "Tanah Longsor, Desa Karekan Kecamatan Pagentan", "lokasi": "Desa Karekan Kecamatan Pagentan", "waktu": "Minggu, 15 Mei 2022", "dampak": "1 jembatan dusun rusak dan tidak bisa dilewati KR 4", "tahun": "2022"}, "geometry": {"type": "Point", "coordinates": [109.782343, -7.273408]}}, {"type": "Feature", "properties": {"title": "Tanah Longsor, Desa Karekan Kecamatan Pagentan", "lokasi": "Desa Karekan Kecamatan Pagentan", "waktu": "Kamis, 12 Mei 2022", "dampak": "Akibat tanah bergerak 1 bangunan SD N 3 Karekan mengalami ambruk dan retak- retak di bagian bangunan dan dari lokasi tanah bergerak menuju ke pemukiman warga sekitar 20 meter", "tahun": "2022"}, "geometry": {"type": "Point", "coordinates": [109.781031, -7.285241]}}, {"type": "Feature", "properties": {"title": "Tanah Longsor, Desa sinduaji kec.pandanarum", "lokasi": "Desa sinduaji kec.pandanarum", "waktu": "Rabu, 18 Mei 2022", "dampak": "1 rumah rusak sedang a.n Pemilik Bpk. Siswanto \nKet:\ndihuni 4 Jiwa Riswanto(30 thn) Satini (35 thn). Anak 1.Dodit (7 thn). 2.Ahyan (5 thn). kerugian pada kejadian ini di taksir -+ 20.000.000,-", "tahun": "2022"}, "geometry": {"type": "Point", "coordinates": [109.58596, -7.280469]}}, {"type": "Feature", "properties": {"title": "Tanah Longsor, Desa Kesenet Kec. Banjarmangu", "lokasi": "Desa Kesenet Kec. Banjarmangu", "waktu": "Kamis, 19 Mei 2022", "dampak": "Tebing tinggi -+ 10 m longsor\n 2 rumah terancam", "tahun": "2022"}, "geometry": {"type": "Point", "coordinates": [109.69003, -7.359513]}}, {"type": "Feature", "properties": {"title": "Tanah Longsor, Desa Sirkandi Kec.Purwareja Klampok", "lokasi": "Desa Sirkandi Kec.Purwareja Klampok", "waktu": "Kamis, 19 Mei 2022", "dampak": "1 rumah terancam", "tahun": "2022"}, "geometry": {"type": "Point", "coordinates": [109.4498665, -7.5191073]}}, {"type": "Feature", "properties": {"title": "Tanah Longsor, Desa Tanjungtirta Kec Punggelan", "lokasi": "Desa Tanjungtirta Kec Punggelan", "waktu": "Minggu, 15 Mei 2022", "dampak": "Talud Pengaman badan jalan longsor dengan lebar -+5 m Tinggi -+10\nmencancam pemukiman dan 1 masjid", "tahun": "2022"}, "geometry": {"type": "Point", "coordinates": [109.640617, -7.322817]}}, {"type": "Feature", "properties": {"title": "Tanah Longsor, Desa Penusupan kec. Pejawaran", "lokasi": "Desa Penusupan kec. Pejawaran", "waktu": "Rabu, 20 April 2022", "dampak": "- 1 (Satu) rumah mengalami rusak berat dan tidak bisa di huni kembali dan belum bisa di bongkar rumah atas nama Bpk. Suprih (50/5 Jiwa)", "tahun": "2022"}, "geometry": {"type": "Point", "coordinates": [109.8000759, -7.2465613]}}, {"type": "Feature", "properties": {"title": "Tanah Longsor, Kelurahan Sokanandi Kecamatan Banjarnegara", "lokasi": "Kelurahan Sokanandi Kecamatan Banjarnegara", "waktu": "Sabtu, 11 Juni 2022", "dampak": "1 Rumah Rusak ringan dan ! Rumah Terancam", "tahun": "2022"}, "geometry": {"type": "Point", "coordinates": [109.7171728, -7.3906406]}}, {"type": "Feature", "properties": {"title": "Tanah Longsor, Desa Wanadri Kec.Bawang", "lokasi": "Desa Wanadri Kec.Bawang", "waktu": "Kamis, 16 Juni 2022", "dampak": "1 Rumah Rusak Sedang\na.n Bapak Susanto", "tahun": "2022"}, "geometry": {"type": "Point", "coordinates": [109.606122, -7.485761]}}, {"type": "Feature", "properties": {"title": "Tanah Longsor, Desa Wanadri Kec.Bawang", "lokasi": "Desa Wanadri Kec.Bawang", "waktu": "Kamis, 16 Juni 2022", "dampak": "1. Jalan penghubung tidak dapat di lalui KR 2 dan 4\n2. Terjadi Antrian Kendaraan KR 2 dan", "tahun": "2022"}, "geometry": {"type": "Point", "coordinates": [109.614635, -7.482511]}}, {"type": "Feature", "properties": {"title": "Tanah Longsor, Desa Kaliajir kec.Purwanegara", "lokasi": "Desa Kaliajir kec.Purwanegara", "waktu": "Kamis, 16 Juni 2022", "dampak": "", "tahun": "2022"}, "geometry": {"type": "Point", "coordinates": [109.5764, -7.49195]}}, {"type": "Feature", "properties": {"title": "Tanah Longsor, Desa Petir Kec. Purwanegara", "lokasi": "Desa Petir Kec. Purwanegara", "waktu": "Kamis, 16 Juni 2022", "dampak": "1 Rumah Rusak Sedang", "tahun": "2022"}, "geometry": {"type": "Point", "coordinates": [109.599849, -7.493372]}}, {"type": "Feature", "properties": {"title": "Tanah Longsor, Desa Pekandangan Kec.Banjarmangu", "lokasi": "Desa Pekandangan Kec.Banjarmangu", "waktu": "Senin, 20 Juni 2022", "dampak": "1 Rumah Rusak Ringan\nNama Tn. JARWANTO ( 62 th / 1 KK / 7 jiwa )", "tahun": "2022"}, "geometry": {"type": "Point", "coordinates": [109.681351, -7.328595]}}, {"type": "Feature", "properties": {"title": "Tanah Longsor, Desa Pringamba Kecamatan Sigaluh", "lokasi": "Desa Pringamba Kecamatan Sigaluh", "waktu": "Kamis, 23 Juni 2022", "dampak": "Ruas jalan tertutup", "tahun": "2022"}, "geometry": {"type": "Point", "coordinates": [109.760744, -7.435128]}}, {"type": "Feature", "properties": {"title": "Tanah Longsor, Desa Lebakwangi Kec. Pagedongan", "lokasi": "Desa Lebakwangi Kec. Pagedongan", "waktu": "Jumat, 24 Juni 2022", "dampak": "-1 Rumah Terdampak Milik Bpk.Dulkheri(50 Tahun) Pada Bagian Dapur Mengalami Rusak Sedang. Anggota keluarga:\n1.Churyati (48thn)\n2. Sadana(88thn)\n3. Rasel prayugo(2thn)\n4. Anik Arifatun Nikmah(24thn)", "tahun": "2022"}, "geometry": {"type": "Point", "coordinates": [109.651716, -7.454075]}}, {"type": "Feature", "properties": {"title": "Tanah Longsor, Desa Danakerta kec.Punggelan", "lokasi": "Desa Danakerta kec.Punggelan", "waktu": "Jumat, 24 Juni 2022", "dampak": "1 rumah terancam atas nama bpk Tedi \nJumalah 5 jiwa", "tahun": "2022"}, "geometry": {"type": "Point", "coordinates": [109.5263341, -7.3466191]}}, {"type": "Feature", "properties": {"title": "Tanah Longsor, Desa Gumelem Wetan Kec. Susukan", "lokasi": "Desa Gumelem Wetan Kec. Susukan", "waktu": "Jumat, 24 Juni 2022", "dampak": "\u2022 Mengancam dan sedikit menimpa halaman dan tembok rumah", "tahun": "2022"}, "geometry": {"type": "Point", "coordinates": [109.429054, -7.52755]}}, {"type": "Feature", "properties": {"title": "Tanah Longsor, Desa Sirkandi, Kec. Purwareja Klampok", "lokasi": "Desa Sirkandi, Kec. Purwareja Klampok", "waktu": "Minggu, 26 Juni 2022", "dampak": "- 1 rumah, pemilik a.n Ibu Boyem rusak ringan dan masih terancam . \n- Jalan Dusun sebagai jalan lingkar tertimbun material longsor dan sudah dilakukan pembersihan oleh warga.", "tahun": "2022"}, "geometry": {"type": "Point", "coordinates": [109.450361, -7.518194]}}, {"type": "Feature", "properties": {"title": "Tanah Longsor, Desa Gumelem Kulon. Kec. Susukan", "lokasi": "Desa Gumelem Kulon. Kec. Susukan", "waktu": "Minggu, 26 Juni 2022", "dampak": "1 rumah a.n pemilik Barino terancam dan talud jalan longsor", "tahun": "2022"}, "geometry": {"type": "Point", "coordinates": [109.406417, -7.522139]}}, {"type": "Feature", "properties": {"title": "Tanah Longsor, Desa Kaliajir Kec. Purwanegara", "lokasi": "Desa Kaliajir Kec. Purwanegara", "waktu": "Minggu, 26 juni 2022", "dampak": "", "tahun": "2022"}, "geometry": {"type": "Point", "coordinates": [109.5746, -7.4923]}}, {"type": "Feature", "properties": {"title": "Tanah Longsor, Desa Petuguran Kec. Petuguran", "lokasi": "Desa Petuguran Kec. Petuguran", "waktu": "Kamis, 30 Juni 2022", "dampak": "Jalan Desa tertutup longsor. \nKerusakan yang terjadi bahu jalan sepanjang kurleb 7 meter longsor dengan kedalaman 5 meter.", "tahun": "2022"}, "geometry": {"type": "Point", "coordinates": [109.612107, -7.337235]}}, {"type": "Feature", "properties": {"title": "Tanah Longsor, Desa Jalatunda Kec. Mandiraja", "lokasi": "Desa Jalatunda Kec. Mandiraja", "waktu": "Jumat, 12 Agustus 2022", "dampak": "4 rumah warga terancam \n1.Rumah atas nama Salam (54 th) 1 KK 3 jiwa \n2. Rumah atas nama Sito (31 th) 1 KK 5 jiwa\n3. Rumah atas nama Poni (34 th) 1 KK 3 jiwa\n4. Rumah atas nama Alip (32 th) 1 KK 5 jiwa", "tahun": "2022"}, "geometry": {"type": "Point", "coordinates": [109.533727, -7.489006]}}, {"type": "Feature", "properties": {"title": "Tanah Longsor, Desa Jalatunda Kec. Mandiraja", "lokasi": "Desa Jalatunda Kec. Mandiraja", "waktu": "Jumat, 12 Agustus 2022", "dampak": "1 rumah warga terancam \nRumah atas nama Randim (40th /5 jiwa ) terancam", "tahun": "2022"}, "geometry": {"type": "Point", "coordinates": [109.529374, -7.498817]}}, {"type": "Feature", "properties": {"title": "Tanah Longsor, Desa Jalatunda Kec. Mandiraja", "lokasi": "Desa Jalatunda Kec. Mandiraja", "waktu": "Jumat, 12 Agustus 2022", "dampak": "1 rumah warga terancam \nRumah atas nama Sartim (32th 1 KK 4 jiwa) terancam", "tahun": "2022"}, "geometry": {"type": "Point", "coordinates": [109.53539, -7.496673]}}, {"type": "Feature", "properties": {"title": "Tanah Longsor, Desa Binangun Kec. Karangkobar", "lokasi": "Desa Binangun Kec. Karangkobar", "waktu": "Selasa, 16 Agustus 2022", "dampak": "1 rumah rusak sedang \na.n Rumah milik Bpk. Misono ( 4 jiwa) Rt 003 Rw 002\n \u25aaKerusakan : Dinding dapur,2 kamar dan atap rumah\n \u25aaKategori Kerusakan : Rusak Sedang (70%)", "tahun": "2022"}, "geometry": {"type": "Point", "coordinates": [109.710228, -7.247643]}}, {"type": "Feature", "properties": {"title": "Tanah Longsor, Dukuh Ngalian RT04 RW01", "lokasi": "Dukuh Ngalian RT04 RW01", "waktu": "Selasa, 16 Agustus 2022", "dampak": "-Terisolirnya rumah warga yang berjumlah 5 KK 15 JIWA", "tahun": "2022"}, "geometry": {"type": "Point", "coordinates": [109.673549, -7.2862339]}}, {"type": "Feature", "properties": {"title": "Tanah Longsor, Desa Petuguran Kec. Punggelan", "lokasi": "Desa Petuguran Kec. Punggelan", "waktu": "Kamis, 06 Oktober 2022", "dampak": "1 ruas jalan rusak berat dan tidak dapat dilewati", "tahun": "2022"}, "geometry": {"type": "Point", "coordinates": [109.606758, -7.331394]}}, {"type": "Feature", "properties": {"title": "Tanah Longsor, Desa Pegundungan Kec.Pejawaran", "lokasi": "Desa Pegundungan Kec.Pejawaran", "waktu": "Kamis, 06 Oktober 2022", "dampak": "2 rumah rusak", "tahun": "2022"}, "geometry": {"type": "Point", "coordinates": [109.823799, -7.258206]}}, {"type": "Feature", "properties": {"title": "Tanah Longsor, Desa sidengok Kec.Pejawaean", "lokasi": "Desa sidengok Kec.Pejawaran", "waktu": "Kamis, 06 Oktober 2022", "dampak": "- 2 Rumah terdampak\n- 1 sepeda motor tertimbun tanah\"\na.n dr. Yuwono mengalami longsor dan bangunan rumah menggantung di bagian dapur dan ruang keluarga Sementara 1 unit bangunan rumah terancam atas nama Suwarno ( 56 th /7 jiwa) dengan kerusakan pada bagian dapur dan kamar mandi amblas", "tahun": "2022"}, "geometry": {"type": "Point", "coordinates": [109.822375, -7.241246]}}, {"type": "Feature", "properties": {"title": "Tanah Longsor, Kelurahan Rejasa Kec. Madukara", "lokasi": "Kelurahan Rejasa Kec. Madukara", "waktu": "Sabtu, 08 Oktober 2022", "dampak": "Tembok futsal Surya Yuda yang di bangun pada tahun 2008 dan diresmikan tahun 2010 longsor dengan lebar +-10 m panjang -+18 m dari kejadian tersebut kerugian ditaksir -+ 50 tidak ada korban jiwa.", "tahun": "2022"}, "geometry": {"type": "Point", "coordinates": [109.690481, -7.388708]}}, {"type": "Feature", "properties": {"title": "Tanah Longsor, Desa Banjarmangu Kec. Banjarmangu", "lokasi": "Desa Banjarmangu Kec. Banjarmangu", "waktu": "Sabtu, 08 Oktober 2022", "dampak": "- Akses Jalan Desa Tertutup Material Longsor\n- Pondasi Bangunan menggantung", "tahun": "2022"}, "geometry": {"type": "Point", "coordinates": [109.687852, -7.361873]}}, {"type": "Feature", "properties": {"title": "Tanah Longsor, Desa Karanganyar\nKec. Purwanegara", "lokasi": "Desa Karanganyar\nKec. Purwanegara", "waktu": "Sabtu, 08 Oktober 2022", "dampak": "4 rumah terancam dan rusak", "tahun": "2022"}, "geometry": {"type": "Point", "coordinates": [109.559821, -7.468543]}}, {"type": "Feature", "properties": {"title": "Tanah Longsor, Desa karangsari Kec. Punggelan", "lokasi": "Desa karangsari Kec. Punggelan", "waktu": "Jumat, 07 Oktober 2022", "dampak": "1 Rumah An. Riswandi tembok depan rumah jebol terkena materi longsor (ruang tamu) dan merusak struktur bangunan (balok ruang tamu dan kuda\" beton ruang tengah) termasuk kategori rusak berat.\n2 rumah terancam", "tahun": "2022"}, "geometry": {"type": "Point", "coordinates": [109.575089, -7.348652]}}, {"type": "Feature", "properties": {"title": "Tanah Longsor, Desa Pandanarum, Kecamatan Pandanarum", "lokasi": "Desa Pandanarum, Kecamatan Pandanarum", "waktu": "Jumat, 07 Oktober 2022", "dampak": "- 1 rumah mengalami rusak berat atas nama :\nPak Parmin 40th (L)\nSarmini 32th (P)\nRangga Egi 14th (L)\nEva Setiawan 10th (L)\nSofia 8 th (P)\n\nTidak ada korban jiwa dalam kejadian ini, namun kerugian di taksir mencapai -+ Rp. 25.000.000,-\n\nData kerusakan : \n1.Tembok bagian belakang jebol\n2. Peralatan Dapur rusak\n3. Logistik permakanan ( gabah 5 karung)", "tahun": "2022"}, "geometry": {"type": "Point", "coordinates": [109.603652, -7.284941]}}, {"type": "Feature", "properties": {"title": "Tanah Longsor, Desa Beji ,Kecamatan Pandanarum", "lokasi": "Desa Beji ,Kecamatan Pandanarum", "waktu": "Jumat, 07 Oktober 2022", "dampak": "1 rumah terancam\nBapak sarno umur 43 anggota keluarga 4 jiwa.\n\nTidak ada korban jiwa dalam kejadian ini, namun kerugian di taksir mencapai -+ Rp. 25.000.000,-\n\nData kerusakan : \n1. Talud penahan rumah longsor.\n2. Tembok dan lantai retak", "tahun": "2022"}, "geometry": {"type": "Point", "coordinates": [109.610084, -7.253297]}}, {"type": "Feature", "properties": {"title": "Tanah Longsor, Gumelem Kulon Kec.Susukan", "lokasi": "Gumelem Kulon Kec.Susukan", "waktu": "Jumat, 07 Oktober 2022", "dampak": "INFO AWAL", "tahun": "2022"}, "geometry": {"type": "Point", "coordinates": [109.410199, -7.535598]}}, {"type": "Feature", "properties": {"title": "Tanah Longsor, Desa sinduaji Kec.Pandanarum", "lokasi": "Desa sinduaji Kec.Pandanarum", "waktu": "Jumat, 07 Oktober 2022", "dampak": "- tebing samping rumah setinggi 10m dan lebar 5m longsor menimpa rumah di bawahnya\n - 1 Rumah Terancam Atas nama Pak Muji (4 Jiwa)\n - 1 Rumah mengalami rusak ringan Atas nama Pak Mistoyo (4 Jiwa)\n - 1 rumah terancam atas nama Pak Hadi Remi (5 Jiwa)", "tahun": "2022"}, "geometry": {"type": "Point", "coordinates": [109.587019, -7.288177]}}, {"type": "Feature", "properties": {"title": "Tanah Longsor, Desa Kalitlaga Kecamatan Pagentan", "lokasi": "Desa Kalitlaga Kecamatan Pagentan", "waktu": "Sabtu, 08 Oktober 2022", "dampak": "- 1 ruas jalan desa rusak dan tidak bisa dilewati KR 4\n- Kebun milik warga kurang lebih 3 (tiga) hektare mengalami longsor dan rusak parah, mengakibatkan pohon albasia dan pohon salak yang menjadi urat nadi ekonomi warga sudah tidak dapat dipanen.", "tahun": "2022"}, "geometry": {"type": "Point", "coordinates": [109.794848, -7.307729]}}, {"type": "Feature", "properties": {"title": "Tanah Longsor, Desa Mlaya Kec. Punggelan", "lokasi": "Desa Mlaya \nKec. Punggelan,", "waktu": "Senin, 10 Oktober 2022", "dampak": "- Badan jalan kab tertutup total material tanah.", "tahun": "2022"}, "geometry": {"type": "Point", "coordinates": [109.640995, -7.303631]}}, {"type": "Feature", "properties": {"title": "Tanah Longsor Desa Kalitengah, Kec. Purwanegara", "lokasi": "Desa Kalitengah, Kec. Purwanegara", "waktu": "Sabtu, 8 Oktober 2022", "dampak": "- 1 Rumah rusak sedang a.n Bapak Sarno\n- 1 Rumah terancam a.n Bapak Hartoyo", "tahun": "2022"}, "geometry": {"type": "Point", "coordinates": [109.5515107, -7.5023278]}}, {"type": "Feature", "properties": {"title": "Tanah Longsor, Desa Tlahab, Kec. Pejawaran", "lokasi": "Desa Tlahab \nKec. Pejawaran", "waktu": "Senin, 10 Oktober 2022", "dampak": "Dinding/Tembok dapur jebol dan merusak Kompor serta sebagai perabot alat masak dengan nilai kerusakan lebih kurang 5 juta rupiah", "tahun": "2022"}, "geometry": {"type": "Point", "coordinates": [109.793443, -7.255895]}}, {"type": "Feature", "properties": {"title": "Tanah Longsor Desa Lawen Kec Pandanarum", "lokasi": "Desa Lawen Kec. Pandanarum", "waktu": "Selasa, 11 Oktober 2022", "dampak": "4 Rumah Rusak Ringan\nket :\n1. Pak Sutono, (47 Th) 3 Jiwa, RT 03/03\n2. Pak Irwanto, (47 Th) 4 Jiwa, RT 03/3\n3. Pak Dahlan (55 Th) 6 jiwa. RT 03/03\n4. Bapak Sujarto , (47 Th) 3 Jiwa, RT 01/03", "tahun": "2022"}, "geometry": {"type": "Point", "coordinates": [109.570292, -7.234491]}}, {"type": "Feature", "properties": {"title": "Tanah Longsor Beji Banjarmangu", "lokasi": "Desa Beji Kec. Banjarmangu", "waktu": "Selasa, 11 Oktober 2022", "dampak": "1 Rumah terancam", "tahun": "2022"}, "geometry": {"type": "Point", "coordinates": [109.677997, -7.301303]}}, {"type": "Feature", "properties": {"title": "Tanah Longsor Desa Pesantren Kec. Wanayasa", "lokasi": "Desa Pesantren Kecamatan Wanayasa", "waktu": "Rabu, 12 Oktober 2022", "dampak": "2 rumah rusak ringan", "tahun": "2022"}, "geometry": {"type": "Point", "coordinates": [109.725015, -7.24176]}}, {"type": "Feature", "properties": {"title": "Tanah Longsor Desa Paweden Kec. Karangkobar", "lokasi": "Desa Paweden\nKec. Karangkobar", "waktu": "Senin, 10 Oktober 2022", "dampak": "1 Rumah milik Bpk Siswanto(2Jiwa)Terancam  Amblas .", "tahun": "2022"}, "geometry": {"type": "Point", "coordinates": [109.714167, -7.297333]}}, {"type": "Feature", "properties": {"title": "Tanah Longsor Desa Slatri Kec. Karangkobar", "lokasi": "Desa Slatri\nKec. Karangkobar", "waktu": "Desa Slatri\nKec. Karangkobar", "dampak": "1 Rumah Rusak a.n Bpk. Muslih\n2 Rumah terancam a.n\n\nRumah Bpk Muslih(5jiwa) roboh sehingga menimpa bagian dapur dan tempat ibadah. Dan mengancam 2 rumah yang berada di atas tebing yaitu milik Bpk Hartono(50thn) dan rumah milik Bpk Muh.hanifudin(3jiwa).", "tahun": "obar"}, "geometry": {"type": "Point", "coordinates": [109.7075, -7.284667]}}, {"type": "Feature", "properties": {"title": "Tanah Longsor Desa Pagerpelah Kec. Karangkobar", "lokasi": "Desa Pagerpelah\nKec. Karangkobar", "waktu": "Senin, 10 Oktober 2022", "dampak": "2 Rumah Rusak Berat\na.n \n- Ny. Cemples (1 jiwa) kondisi ambruk\n- rumah kosong kondisi hampir ambruk\n\n2 Rumah terancam\na.n \n- Marhami (2 jiwa) kondisi terancam bagian pondasi\n- Suratin (3 Jiwa) kondisi terancam atapnya", "tahun": "2022"}, "geometry": {"type": "Point", "coordinates": [109.6991667, -7.2883333]}}, {"type": "Feature", "properties": {"title": "Tanah Longsor Desa Pagerpelah Kec. Karangkobar", "lokasi": "Desa pagerpelah \nKec.karangkobar", "waktu": "Senin, 10 Oktober 2022", "dampak": "Akses jalan semakin sempit", "tahun": "2022"}, "geometry": {"type": "Point", "coordinates": [109.7005, -7.2901667]}}, {"type": "Feature", "properties": {"title": "Tanah Longsor Desa Sipedang Banjarmangu", "lokasi": "Desa Sipedang\nKec. Banjarmangu", "waktu": "Senin, 10 Oktober 2022", "dampak": "Satu unit rumah a.n: Slamet ( 5 jiwa ) terancan", "tahun": "2022"}, "geometry": {"type": "Point", "coordinates": [109.661001, -7.320185]}}, {"type": "Feature", "properties": {"title": "Tanah Longsor Desa Metawana Kec. Sumberan", "lokasi": "Desa Metawana Kec. Sumberan", "waktu": "Senin, 10 Oktober 2022", "dampak": "1 Rumah rusak sedang\na.n\nBp. Aridho (27) tahun / 3 jiwa                                         - Kerusakan Dapur dan Kamar mandi non permanen \n- Kompor dan alat perabiot masak \n- Alat dan perlengkapan mandi / Hygen Kit \n- Total nilai kerusakan +- 3 juta rupiah\n- Tebing jalan terancam longsor susulan", "tahun": "2022"}, "geometry": {"type": "Point", "coordinates": [109.793617, -7.315495]}}, {"type": "Feature", "properties": {"title": "Tanah Longsor Desa Sinduaji Kec. Pandanarum", "lokasi": "Desa Sinduaji, Kec. Pandanarum", "waktu": "Senin, 10 Oktober 2022", "dampak": "- Dinding/Tembok dapur jebol sehingga tidak dapat digunakan.", "tahun": "2022"}, "geometry": {"type": "Point", "coordinates": [109.5874052, -7.2905609]}}, {"type": "Feature", "properties": {"title": "Tanah Longsor Argasoka Kec. Banjarnegara", "lokasi": "Argasoka Banjarnegara", "waktu": "Minggu, 09 Oktober 2022", "dampak": "- akses jalan ke Rumah Mengalami Penurunan kurang Lebih 1 Meter\n- tembok Rumah Mengalami Retak Retak \n- Mengancam Akses Jalan", "tahun": "2022"}, "geometry": {"type": "Point", "coordinates": [109.696905, -7.414585]}}, {"type": "Feature", "properties": {"title": "Tanah Longsor Desa Prendengan Kec. Banjarmangu", "lokasi": "Desa Prendengan\nKec. Banjarmangu", "waktu": "Senin, 10 Oktober 2022", "dampak": "Mengancam rumah milik Bpk Aris Sunandar dengan jarak antara longsoran dengan rumah -+ 1 m", "tahun": "2022"}, "geometry": {"type": "Point", "coordinates": [109.6931667, -7.3011667]}}, {"type": "Feature", "properties": {"title": "Tanah Longsor Desa Prendengan Kec. Banjarmangu", "lokasi": "Desa Prendengan\nKec. Banjarmangu", "waktu": "Senin, 10 Oktober 2022", "dampak": "Berdampak pada rumah Bu Surtina bagian dinding kamar mandi jebol dan mengancam rumah Bpk Supono terancam longsor yang berjarak -+1 m", "tahun": "2022"}, "geometry": {"type": "Point", "coordinates": [109.6936667, -7.3001667]}}, {"type": "Feature", "properties": {"title": "Tanah Longsor Desa Kebutuhduwur Kec. Pagedongan", "lokasi": "Desa Kebutuhduwur Kec. Pagedongan", "waktu": "Kamis, 13 Oktober 2022", "dampak": "INFO AWAL", "tahun": "2022"}, "geometry": {"type": "Point", "coordinates": [109.692513, -7.458554]}}, {"type": "Feature", "properties": {"title": "Tanah Longsor Desa Plumbungan Kec. Pagentan", "lokasi": "Desa Plumbungan Kecamatan Pagentan", "waktu": "Senin, 17 Oktober 2022", "dampak": "1 ruas jalan kabupaten tertutup longsor\n1 rumah terancam", "tahun": "2022"}, "geometry": {"type": "Point", "coordinates": [109.7897222, -7.2886111]}}, {"type": "Feature", "properties": {"title": "Tanah Longsor Desa Sidengok Kec. Pejawaran", "lokasi": "Desa Sidengok Kec Pejawaran", "waktu": "Sabtu,15 Oktober 2022", "dampak": "- Akses jalan Beji Sidengok terputus amblas sedalam +- 8 meter panjang +-250 meter dan jalur Beji Batur sementara dialihkan melalui ruas Beji - Gembol Kec. Pejawaran dan jarak TKP longsor ke pemukiman +-130 meter", "tahun": "2022"}, "geometry": {"type": "Point", "coordinates": [109.837102, -7.237651]}}, {"type": "Feature", "properties": {"title": "Tanah Longsor Desa Bantar Kec. Wanayasa", "lokasi": "Desa Bantar Kec Wanayasa", "waktu": "Minggu, 16 Oktober 2022", "dampak": "1. Akes jalan Bantar-Suwidak tidak bisa di lalui kendaraan roda empat dan hanya bisa di lalui kendaraan roda dua atau jalan kaki namun harus ekstra hati-hati\nKerusakan jalan bervariasi hingga kedalaman amblasan jalan mencapai 50 cm sepanjang 100 meter\n\n2. Togor dan kabel jaringan listrik bergeser/ tertarik kencang sehingga menyebabkan putus jaringan listrik ( mati lampu pada perumahan tiga dusun )\n\n3. Gerakan tanah berpotensi meluas ke pemukiman warga dusun Alian Desa Suwidak", "tahun": "2022"}, "geometry": {"type": "Point", "coordinates": [109.739198, -7.308847]}}, {"type": "Feature", "properties": {"title": "Tanah Longsor Desa Jembangan Kec. Punggelan", "lokasi": "Desa Jembangan\nKec. Punggelan,", "waktu": "Sabtu, 15 Oktober 2022", "dampak": "- 2 ( dua ) Rumah mengalami kerusakan a.n:\n1. RUDI S ( 5 jiwa ) Tembok belakang rumah jebol terbawa longsoran.\n2. SANWARDI ( 7 jiwa ) tembok jebol terkena material tanah longsor.", "tahun": "2022"}, "geometry": {"type": "Point", "coordinates": [109.57969, -7.312009]}}, {"type": "Feature", "properties": {"title": "Tanah Longsor Desa Pagentan Kec. Pagentan", "lokasi": "Desa Pagentan  Kecamatan Pagentan.", "waktu": "Minggu, 16 Oktober 2022", "dampak": "1 rumah terancam", "tahun": "2022"}, "geometry": {"type": "Point", "coordinates": [109.808838, -7.3025872]}}, {"type": "Feature", "properties": {"title": "Tanah Longsor Desa Karangsari Kec. Pejawaran", "lokasi": "Desa Karangsari Kec Pejawaran", "waktu": "Sabtu, 15 Oktober 2022", "dampak": "a. Rodik 38 th / 6 jiwa\nRumah rusak ringan bagian belakang \nb. Soenarmono 84 th / 6 jiwa \nRumah rusak ringan bagian dapur", "tahun": "2022"}, "geometry": {"type": "Point", "coordinates": [109.779215, -7.254151]}}, {"type": "Feature", "properties": {"title": "Tanah Longsor Desa Biting Kec. Pejawaran", "lokasi": "Desa Biting Kec. Pejawaran", "waktu": "Sabtu, 15 Oktober 2022", "dampak": "a. Tebing longsor rt 9/2 menutup jalan kecil menuju rumah warga dan belakang rumah bp.marsito rusak ringan.\nb. Tebing longsor rt 5/1 mengakibatkan kandang milik bp.yasmudi rusak berat dan hewan kambing sejumlah 4 belum bisa dievakuasi dikarenakan tebing sangat tinggi.\nc.tanah longsor di Rt 04/01 menimpa saluran irigasi belakang rumah ibu piyah.\nKerugian -+ Rp 10.000.000", "tahun": "2022"}, "geometry": {"type": "Point", "coordinates": [109.784172, -7.25261]}}, {"type": "Feature", "properties": {"title": "Tanah Longsor Desa Sidengok Kec. Pejawaran", "lokasi": "Desa Sidengok Kec. Pejawaran", "waktu": "Sabtu, 15 Oktober 2022", "dampak": "2 rumah Rusak ringan\na.n\n- Nedi 33 th / 5 jiwa, longsor menimpa rumah bagian samping/ dapur\n- Wahno 39 th / 3, Tebing belakang rumah longsor menimpa kamar mandi", "tahun": "2022"}, "geometry": {"type": "Point", "coordinates": [109.827128, -7.235244]}}, {"type": "Feature", "properties": {"title": "Tanah Longsor Desa Ratamba Kec. Pejawaran", "lokasi": "Desa Ratamba", "waktu": "sabtu, 15 Oktober 2022", "dampak": "1 Rumah Terancam\na.n Mahini Ny. 60 th / 2 jiwa", "tahun": "2022"}, "geometry": {"type": "Point", "coordinates": [109.818991, -7.229216]}}, {"type": "Feature", "properties": {"title": "Tanah Longsor Desa Kebutuhduwur Kec. Pagedongan", "lokasi": "Desa Kebutuhduwur Kecamatan Pagedongan", "waktu": "Selasa, 18 Oktober 2022", "dampak": "- Jalan alternatif jalur kabupaten dari Kabupaten banjarnegara, Kec. Pagedongan menuju arah Desa Sebara Kec. Sadang, Kab. Kebumen, tertutup material longsor.\n- perkiraan material longsor 540an kubik. \n- perkiraan panjang material longsor : 30m, tinggi rata2 : 3 m, lebar : 6 m.", "tahun": "2022"}, "geometry": {"type": "Point", "coordinates": [109.720355, -7.476668]}}, {"type": "Feature", "properties": {"title": "Tanah Longsor Desa Dermayasa Kec.Pejawaran", "lokasi": "Desa Dermayasa Kec.Pejawaran", "waktu": "Senin, 28 November 2022", "dampak": "1 rmah terancam", "tahun": "2022"}, "geometry": {"type": "Point", "coordinates": [109.809755, -7.269037]}}, {"type": "Feature", "properties": {"title": "Tanah Longsor Desa Gumelem Kulon Kec. Susukan", "lokasi": "Desa Gumelem Kulon Kec. Susukan", "waktu": "Minggu, 27 November 2022", "dampak": "- Dapur milik Bapak Choerun ( 1 KK 6 jiwa ) ukuran 5x6 mengalami rusak ringan\n- Data pemilik rumah:\nChoerun ( Kepala Keluarga/ L/48 th) \nJasinem ( istri /P/41th) \nAlif Firmansyahrian (anak/L/22 th) \nBayu Rizal Efendi (anak/L/19 th) \nSepti Agustina (menantu/P/20 th) \nTaufik Wisnu Nugroho (cucu/L/ 3 bulan)", "tahun": "2022"}, "geometry": {"type": "Point", "coordinates": [109.8049148, -7.1931973]}}, {"type": "Feature", "properties": {"title": "Tanah Longsor Desa Sidengok Kecamatan Pejawaran", "lokasi": "Desa Sidengok Kecamatan Pejawaran", "waktu": "Minggu, 27 November 2022", "dampak": "- Rumah bagian dapur dan kandang kambing dengan ukuran 8x4 meter milik Bapak Sudiro (49 th/1kk/ 5 jiwa) roboh dikarenakan tiang/saka penyangga bangunan semi permanen yang tepat di tepi tebing terbawa longsor.", "tahun": "2022"}, "geometry": {"type": "Point", "coordinates": [109.8367676, -7.232503]}}, {"type": "Feature", "properties": {"title": "Tanah Longsor Desa Rakitan Kec. Madukara", "lokasi": "Desa Rakitan Kec. Madukara", "waktu": "Sabtu, 03 Desember 2022", "dampak": "1 Bangunan SD Rusak\nket :\n- Tembok bagian belakang sekolah amblas dan roboh\n- Keramik bagian dapur dan kamarmandi Retak - retak.\n\n1 rumah terancam\nKet :\n- Rumah bagian belakang, 2 kamar tidur dan 1 kamar mandi mengalami retak - retak terancam longsor", "tahun": "2022"}, "geometry": {"type": "Point", "coordinates": [109.704999, -7.359681]}}, {"type": "Feature", "properties": {"title": "Tanah Longsor, Desa Mantrianom Kec Bawang", "lokasi": "Desa Mantrianom Kec Bawang", "waktu": "Rabu, 04 Januari 2023", "dampak": "1 Talud Longsor menutup saluran pembuangan air", "tahun": "2023"}, "geometry": {"type": "Point", "coordinates": [109.627563, -7.400495]}}, {"type": "Feature", "properties": {"title": "Tanah Longsor Desa Mantrianom Kec. Bawang", "lokasi": "Desa Mantrianom Kecamatan Bawang", "waktu": "Rabu, 04 Januari 2023", "dampak": "Dampak dari kejadian tersebut yaitu mengakibatkan tertutupnya akses jalan desa", "tahun": "2023"}, "geometry": {"type": "Point", "coordinates": [109.622421, -7.401327]}}, {"type": "Feature", "properties": {"title": "Tanah Longsor Desa Mantrianom Kec.Bawang", "lokasi": "Desa Mantrianom, Kecamatan Bawang", "waktu": "Rabu, 04 Januari 2023", "dampak": "Dampak dari kejadian tersebut yaitu mengakibatkan pengendara roda 4 tidak bisa melewati jalan tersebut dan harus melewati jalur alternatif lainnya.", "tahun": "2023"}, "geometry": {"type": "Point", "coordinates": [109.618073, -7.403489]}}, {"type": "Feature", "properties": {"title": "Tanah Longsor Desa Gumingsir Kec.Pagentan", "lokasi": "Desa Gumingsir Kec.Pagentan", "waktu": "Kamis, 5 Januari 2023", "dampak": "-Untuk Sementara KR 4 belum bisa melintas.\n-Akses Jalan Warga Masyarakat Terganggu", "tahun": "2023"}, "geometry": {"type": "Point", "coordinates": [109.7805881, -7.3276464]}}, {"type": "Feature", "properties": {"title": "Tanah Longsor Aribaya Pagentan", "lokasi": "Desa Aribaya\nKecamatan Pagentan", "waktu": "Sabtu, 14 Januari 2023", "dampak": "NIHIL", "tahun": "2023"}, "geometry": {"type": "Point", "coordinates": [109.767043, -7.349346]}}, {"type": "Feature", "properties": {"title": "Tanah Longsor Desa Jembangan Kec.Punggelan", "lokasi": "Jembangan Kec. Punggelan", "waktu": "Selasa 24 Januari 2023", "dampak": "Pada malam hari tiba tiba talud dan dapur longsor sehingga sebagian rumah rusak sedang dan bagian dapur terbawa longsor, 1 Rumah mengalami kerusakan pada bagian dapur", "tahun": "2023"}, "geometry": {"type": "Point", "coordinates": [109.5826096, -7.3109778]}}, {"type": "Feature", "properties": {"title": "Tanah Longsor Desa Salamerta Kec. Mandiraja", "lokasi": "Saluran irigasi induk kalisapi hm 27\nDesa Salamerta Kec. Mandiraja", "waktu": "Jum'at, 27Januari 2023.", "dampak": "Mengancam bangunan Sekolah MI Ma'arif Salamerta\n- Menyempitnya saluran induk irigasi Kali Sapi hm 27", "tahun": "023."}, "geometry": {"type": "Point", "coordinates": [109.467721, -7.493231]}}, {"type": "Feature", "properties": {"title": "Tanah Longsor Desa Karekan Kec Pagentan", "lokasi": "Karekan\nKecamatan Pagentan", "waktu": "Selasa\nTanggal: 31 Januari 2023", "dampak": "material longsor.menimpa rumah bagian belakang bapak partomo", "tahun": "2023"}, "geometry": {"type": "Point", "coordinates": [109.784185, -7.278336]}}, {"type": "Feature", "properties": {"title": "Tanah Longsor Desa Plorengan Kec.Kalibening", "lokasi": "Desa plorengan RT 1 RW 1\nDesa plorengan\nKecamatan kalibening", "waktu": "kamis\n3 februari 2023", "dampak": "Ruang kelas 6 SDPlorangan bagian belakang mengalami kerusakan tertimpa material longsor.\nTidak ada korban jiwa", "tahun": "2023"}, "geometry": {"type": "Point", "coordinates": [109.664083305556, -7.20219711111111]}}, {"type": "Feature", "properties": {"title": "Tanah Longsor Desa Krandegan Kec.Banjarnegara", "lokasi": "Kelurahan Krandegan \nKec.Banjarnegara", "waktu": "Senin: 06 Februari 2023", "dampak": "Material longsor menutupi saluran irigasi dan menyebabkan aliran terbendung", "tahun": "2023"}, "geometry": {"type": "Point", "coordinates": [109.6984865, -7.3926913]}}, {"type": "Feature", "properties": {"title": "Tanah Longsor Desa Twelagiri Kec.Pagedongan", "lokasi": "Twelagiri Kecamatan Pagedongan", "waktu": "Kamis 09 Februari 2022", "dampak": "- 1 Unit Rumah Milik Bpk.erwin Pada Bagian Dapur dan kamar mandi Ambruk \n- Mengancam Bagian Dapur Rumah Milik ibu Ma'i \n- Material Bangunan Longsoran Menutup Saluran irigasi", "tahun": "2022"}, "geometry": {"type": "Point", "coordinates": [109.6803642, -7.4140077]}}, {"type": "Feature", "properties": {"title": "TANAH LONGSOR", "lokasi": "RT 004/001\nDesa. Biting\nKec. Pejawaran\nKab. Banjarnegara", "waktu": "Hari : Rabu\nTgl : 15 Februari 2023", "dampak": "Menutup saluran irigasi dan 2 kolam ikan milik warga", "tahun": "2023"}, "geometry": {"type": "Point", "coordinates": [109.785027805556, -7.25313888888889]}}, {"type": "Feature", "properties": {"title": "TANAH LONGSOR/PERGERAKAN TANAH", "lokasi": "Desa Sidengok\nKec. Pejawaran\nKab. Banjarnegara", "waktu": "Hari : Kamis\nTanggal : 16 Februari 2023", "dampak": "- Lahan pertanian mengalami retak\n- Infrastruktur : Jalan dan drainase mengalami kerusakan\n- 1 rumah terancam milik Sdr. Lukman Hanif", "tahun": "2023"}, "geometry": {"type": "Point", "coordinates": [109.8360833, -7.2360225]}}, {"type": "Feature", "properties": {"title": "TANAH LONGSOR SARWODADI PEJAWARAN", "lokasi": "Desa Sarwodadi Kec. Pejawaran Kab.Banjarnegara", "waktu": "Senin, 20 Februari 2023", "dampak": "- Longsor pada lahan pertanian warga yang mengenai sumber air dan mengakibatkan terisolir 9 KK dan 7 rumah warga", "tahun": "2023"}, "geometry": {"type": "Point", "coordinates": [109.7776667, -7.2445833]}}, {"type": "Feature", "properties": {"title": "Tanah Longsor Desa Metawana\nKecamatan Pagentan", "lokasi": "Desa Metawana\nKecamatan Pagentan", "waktu": "Kamis, 23 Februari 2023", "dampak": "- Rumah bagian dapur Bapak Sunarto 76 tahun mengalami amblas dan retakan bagian lantai rumah.\n- Rumah Bapak Kus retak\n- Bengkel milik Bapak Sugeng mengalami retak.\n- Tanah perkebunan salak milik warga mengalami kerusakan yang parah kurang lebih 4 Hektare dan berdampak pada keberlangsungan ekonomi.", "tahun": "2023"}, "geometry": {"type": "Point", "coordinates": [109.7945863, -7.319268]}}, {"type": "Feature", "properties": {"title": "Tanah Longsor LEBAKWANGI", "lokasi": "Desa Lebakwangi Kec. Pagedongan", "waktu": "Hari/Tanggal : Rabu, 01 Maret 2023", "dampak": "- 1 Unit Bangunan Rumah Semi Permanen Rusak Berat Pada Bagian kamar dan Ruang Tamu\n- Ruas Jalan Desa Tertutup Material Longsor\n- Saluran Pamsimas Jebol", "tahun": "2023"}, "geometry": {"type": "Point", "coordinates": [109.6552078, -7.4634043]}}, {"type": "Feature", "properties": {"title": "Tanah Longsor Desa Plumbungan\nKecamatan Pagentan", "lokasi": "Desa Plumbungan\nKecamatan Pagentan", "waktu": "Hari: Jumat, 10 Maret 2023", "dampak": "menyebabkan talud Rumah milik Bapak Wahid Syaifudin dan Bapak Bardan mengalami longsor dan menimpa bagian dapur milik Bapak Slamet Kus yang berada di bawahnya.", "tahun": "2023"}, "geometry": {"type": "Point", "coordinates": [109.800027, -7.306182]}}, {"type": "Feature", "properties": {"title": "Talud rumah longsor Dusun Sirandu RT 4 RW 3\nDesa Plumbungan\nKecamatan Pagentan", "lokasi": "Desa Plumbungan\nKecamatan Pagentan", "waktu": "Hari: Jumat, 10 Maret 2023", "dampak": "talud Rumah dan DAK rumah milik Bapak Wardoyo (63 Tahun) 6 Jiwa amblas, menimpa kadang kambing, kamar mandi dan dapur.", "tahun": "2023"}, "geometry": {"type": "Point", "coordinates": [109.7903611, -7.29025]}}, {"type": "Feature", "properties": {"title": "tanah longsor desa aribaya", "lokasi": "Desa Kalitlaga,Kecamatan Pagentan", "waktu": "Hari: Senin 13 Maret 2023", "dampak": "Mengakibatkan dinding Rumah Bapak Arief dan juga Rumah Bapak Mugiarjo mengalami rusak ringan.", "tahun": "2023"}, "geometry": {"type": "Point", "coordinates": [109.7997778, -7.3055]}}, {"type": "Feature", "properties": {"title": "Tanah longsor binorong", "lokasi": "Desa Binorong Kec. Bawang", "waktu": "Sabtu 18 Maret 2023", "dampak": "- Matrial longsoran menutup badan jalan Desa ruas jalan Desa Binorong - Desa Kutayasa.\n - Mengancam 1 (satu) unit rumah An Ahmad Sholeh, Umur 54 Th,", "tahun": "2023"}, "geometry": {"type": "Point", "coordinates": [109.6083933, -7.4068163]}}, {"type": "Feature", "properties": {"title": "Tanah Longsor Desa Desa Pagedongan Kec.Pagedongan", "lokasi": "Desa Pagedongan Kec.Pagedongan", "waktu": "Minggu, 19 Maret 2023", "dampak": "- 1 Unit Bangunan Rumah Semi Permanen Milik BPK.Salim Rusak Pada Bagian Dapur Dan Tembok kamar mandi retak serta pondasi bagian belakang Rumah Menggantung\n- Ruas Jalan Desa Tertutup Material Longsor", "tahun": "2023"}, "geometry": {"type": "Point", "coordinates": [109.706397, -7.444113]}}, {"type": "Feature", "properties": {"title": "Tanah Longsor Desa Tlagawera\nKec. Banjarnegara", "lokasi": "Desa Tlagawera\nKec. Banjarnegara", "waktu": "Sabtu, 18 Maret 2023", "dampak": "- 1 Unit Bangunan Rumah Semi Permanen Milik Bpk.Marwito Rusak Pada Bagian Dapur Dan Kamar mandi\n- 1 orang Mengalami luka Ringan An.Bpk Haryono (63th) Akibat Tertimpa Material longsoran saat membetulkan pipa Air.(korban sudah membaik)", "tahun": "2023"}, "geometry": {"type": "Point", "coordinates": [109.714237, -7.412678]}}, {"type": "Feature", "properties": {"title": "Tanah Longsor Karangtengah, Kec. Banjarnegara", "lokasi": "Karangtengah, Kec. Banjarnegara", "waktu": "Senin, 20 Maret 2023", "dampak": "- 1 ( satu ) unit rumah 2 KK/ 5 jiwa a.n : Ny. Manisah terancam.", "tahun": "2023"}, "geometry": {"type": "Point", "coordinates": [109.682613, -7.4100801]}}, {"type": "Feature", "properties": {"title": "Tanah Longsor Desa Lebakwangi\nKec Pagedongan", "lokasi": "Desa Lebakwangi\nKec Pagedongan", "waktu": "Senin, 20 Maret 2023", "dampak": "- 2 ( dua ) unit rumah 2 KK/ 7 jiwa a.n : \n1. Mukhlas 1 KK / 3 jiwa\nRusak pada bagian dinding jebol.\n2. Hanifudin ( 1 KK / 4 jiwa ) \nTerancam.", "tahun": "2023"}, "geometry": {"type": "Point", "coordinates": [109.650686, -7.45367]}}, {"type": "Feature", "properties": {"title": "Tanah Longsor Desa Lebakwangi\nKec Pagedongan", "lokasi": "Desa Lebakwangi\nKec Pagedongan", "waktu": "Senin, 20 Maret 2023", "dampak": "- Akses jln kab penghubung Desa Lebakwangi ke Desa Majelengka tertutup total oleh pohon tumbang serta material longsor sepanjang kisaran 600 meter.\nPenanganan selesai pukul 18:30 Wib, rencana kerja bakti dilanjut pada besok hari.( Selasa 21 Maret 2023 )", "tahun": "2023"}, "geometry": {"type": "Point", "coordinates": [109.6503081, -7.4537465]}}, {"type": "Feature", "properties": {"title": "Tanah longsor lebakwangi", "lokasi": "Dsn Sidawangi Rt 02 Rw 04\nDesa Lebakwangi\nKec Pagedongan\nKab. Banjarnegara, Jawa Tengah", "waktu": "Hari : Selasa\nTgl : 21 Maret 2023\n Pukul : 17.00 Wib", "dampak": "- Jalan penghubung antar desa tertutup material longsor\n- Akses Jalan tidak bisa dilewati kendaraan roda 4", "tahun": " Wib"}, "geometry": {"type": "Point", "coordinates": [109.6449976, -7.458942]}}, {"type": "Feature", "properties": {"title": "Tanah Longsor  Kelurahan Wangon", "lokasi": "Kelurahan Wangon Kec.Banjarnegara", "waktu": "Rabu, 22 Maret 2023", "dampak": "mengancam 3 Rumah Warga An.Bu Manislam,ibu Lia Dan BPK Tarno Terancam", "tahun": "2023"}, "geometry": {"type": "Point", "coordinates": [109.6781617, -7.4068957]}}, {"type": "Feature", "properties": {"title": "TANAH LONGSOR ARGASOKA", "lokasi": "Kel. Argasoka Kec. Banjarnegara", "waktu": "Sabtu, 18 Maret 2023", "dampak": "2 Rumah Warga An.Bu Mukini (8 jiwa) Dan Bp. Parjo (6 jiwa) Terancam", "tahun": "2023"}, "geometry": {"type": "Point", "coordinates": [109.7020151, -7.4129064]}}, {"type": "Feature", "properties": {"title": "Tanah Longsor Desa Sawal Kec. Sigaluh Kab. Banjarnegara", "lokasi": "Desa Sawal Kec. Sigaluh Kab. Banjarnegara", "waktu": "Kamis, 23 Maret 2023", "dampak": "1 Rumah mengalami merusakan bagian dapur. Rumah milik Bpak Bambang Dusun Duren Sawit RT 01 RW 04 Desa Sawal Kec. Sigaluh Kab. Banjarnegara.", "tahun": "2023"}, "geometry": {"type": "Point", "coordinates": [109.784268, -7.4326773]}}, {"type": "Feature", "properties": {"title": "Tanah Longsor Dukuh Wanasari RT 01 RW 01 Argasoka", "lokasi": "Kelurahan argasoka kec banajarnegara", "waktu": "Hari : Jumat\nTanggal : 24 Maret 2023", "dampak": "1 rumah bagian kamar mandi mengalami keruskan serta mengancam rumah dengan pemilik a.n Bapak Misihad (3 Jiwa).", "tahun": "2023"}, "geometry": {"type": "Point", "coordinates": [109.6955278, -7.4098056]}}, {"type": "Feature", "properties": {"title": "Tanah/ Talud Longsor Desa Cendana", "lokasi": "Desa Cendana Kec. Banjarnegara", "waktu": "Kamis, 23 Maret 2023", "dampak": "Infrastruktur:\n1. Talud Bronjong panjang 20 meter tinggi 6 meter ambrol (RB)\n\nRumah :\n1. Rumah A.n Bapak Turip 74 THN (3Jiwa)\nMengalami kerusakan pada bagian belakang rumah (dapur, kamar mandi dan gudang) beberapa perabot dan pupuk simpanan ikut terbawa arus sungai.\n2. Rumah Bapak Mistun 40 (4 jiwa)\nPondasi belakang rumah rusak, dan mengancam bangunan kamar mandi dan dapurnya.", "tahun": "2023"}, "geometry": {"type": "Point", "coordinates": [109.7374782, -7.4129674]}}, {"type": "Feature", "properties": {"title": "Tanah longsor slatri", "lokasi": "jln raya provinsi turut desa slatri kec Karangkobar.", "waktu": "Kamis 30 Maret 2023", "dampak": "-Matrial longsor menutup setengaj badan jalan", "tahun": "2023"}, "geometry": {"type": "Point", "coordinates": [109.7086931, -7.2844602]}}, {"type": "Feature", "properties": {"title": "tanah longsor krakal", "lokasi": "jln raya provinsi turut desa sampang kec Karangkobar.", "waktu": "Kamis 30 Maret 2023", "dampak": "-Matrial longsor menutup setengah badan jalan.", "tahun": "2023"}, "geometry": {"type": "Point", "coordinates": [109.7158334, -7.2788131]}}, {"type": "Feature", "properties": {"title": "Tanah longsor ngambal", "lokasi": "Desa Ambal Kecamatan Karangkobar", "waktu": "Kamis tgl 30/3/2023", "dampak": "1. Rumah Ibu Binem ( KK, 72 Th, 4 Jiwa) \nKerusakan Pada unit dapur dan kandang ternak\n2. Rumah Ibu Waginem ( Bukan domisili Dusun Klesem) \nRumah kosong sedang dalam proses pembangunan, mengalami rusak pada dinding rumah yang mengalami pecah dinding. \n3. Rumah Bpk. Dwi Prasetyo ( KK 23 Th/4 Jiwa) \nKerusakan pada kamar mandi, dinding jebol", "tahun": "2023"}, "geometry": {"type": "Point", "coordinates": [109.7155172, -7.2689891]}}, {"type": "Feature", "properties": {"title": "Tanah longsor gumelem kulon", "lokasi": "Gumelem Kulon\nKec. Susukan", "waktu": "kamis tgl .30 Maret 2023", "dampak": "Tembok Rumah atas sanpardi sirun", "tahun": "2023"}, "geometry": {"type": "Point", "coordinates": [109.4080374, -7.5280737]}}, {"type": "Feature", "properties": {"title": "Tanah Longsor mlaya", "lokasi": "Desa Mlaya Kec.Punggelan", "waktu": "Kamis\nTgl : 30 Maret 2023", "dampak": "menutup akses jalan ke rumah warga dan mengancam 3 Rumah Warga.", "tahun": "2023"}, "geometry": {"type": "Point", "coordinates": [109.6409738, -7.3035177]}}, {"type": "Feature", "properties": {"title": "Tanah Longsor desa Mlya dsn kaliwadas", "lokasi": "desa Mlya kec.punggelan", "waktu": "Hari : Kamis\nTgl : 30 Maret 2023", "dampak": "menutup jalan", "tahun": "2023"}, "geometry": {"type": "Point", "coordinates": [109.6298056, -7.30025]}}, {"type": "Feature", "properties": {"title": "Tanah Longsor   Tanjungtirta", "lokasi": "Tanjungtirta Kec. punggelan.", "waktu": "Minggu, 2 April 2023", "dampak": "- akses jalan desa tertutup material longsoran \n- pemukiman warga sekitar 40 KK terisolir\n- jaringan listrik terputus\n- jaringan air bersih terputus\n- beberapa pohon tanaman warga roboh", "tahun": "2023"}, "geometry": {"type": "Point", "coordinates": [109.640361, -7.340699]}}, {"type": "Feature", "properties": {"title": "TANAH LONGSOR DESA GUMELEM KULON", "lokasi": "Desa Gumelem Kulon\nKec Susukan\nKab Banjarnegara", "waktu": "Jumat 03 April 2023", "dampak": "Tembok pada bagian ruang kamar jebol", "tahun": "2023"}, "geometry": {"type": "Point", "coordinates": [109.4083436, -7.520107]}}, {"type": "Feature", "properties": {"title": "Tanah Longsor Glempang", "lokasi": "Desa Glempang  Rt 06/05\nKec Mandiraja", "waktu": "Kamis 13 April 2023", "dampak": "-Rumah milik bapak Kirno (48)Mengalami kerusakan pada bagian kamar tidur dan dapur.\n-Rumah milik bapak Gumin (46)Mengalami kerusakan pada bagian dapur.", "tahun": "2023"}, "geometry": {"type": "Point", "coordinates": [109.4736677, -7.51126]}}, {"type": "Feature", "properties": {"title": "TANAH LONGSOR DESA KARANGSARI PUNGGELAN", "lokasi": "Karang sambung RT 03/RW 03, Desa Karangsari, Kec. Punggelan.\nKab. Banjarnegara", "waktu": "Jumat, 5 Mei 2023", "dampak": "1 unit Rumah Milik Ibu Partinah Pada Bagian Tembok Dapur Jebol", "tahun": "2023"}, "geometry": {"type": "Point", "coordinates": [109.5698988, -7.3509732]}}, {"type": "Feature", "properties": {"title": "Tanah Longsor Kebutuh Jurang", "lokasi": "Desa Kebutuhjurang, Kecamatan Pagedongan", "waktu": "Minggu, 07 Mei 2023", "dampak": "- Talud pondasi panjang 25 meter tinggi 6 meter mushola Al -Hikmah Joyokusumo longsor.\n- 1 rumah milik a.n Mohammad Hanifudin (4 jiwa) Rusak Sedang. Jebol tembok ruang tamu dan kamar", "tahun": "2023"}, "geometry": {"type": "Point", "coordinates": [109.6745434, -7.4890921]}}, {"type": "Feature", "properties": {"title": "Tanah longsor paseh banjarmangu", "lokasi": "esa Paseh RT. 004 RW. 002, Kecamatan Banjarmangu", "waktu": "Minggu, 07 Mei 2023", "dampak": "- Dapur warga an. Ribut yang merupakan bangunan tambahan dibawah bangunan utama rumah roboh terbawa longsor dan longsor mengancam rumah utama", "tahun": "2023"}, "geometry": {"type": "Point", "coordinates": [109.6641149, -7.3402065]}}, {"type": "Feature", "properties": {"title": "Tanah Longsor Lebakwangi Pagedongan", "lokasi": "Desa Lebakwangi Kec. Pagedongan", "waktu": "Minggu, 07 Mei 2023", "dampak": "Lokasi 1.\n- Hujan Deras yang mengguyur wilayah kecamatan pagedongan Dan Sekitarnya Pada Siang hari Sampai Malam hari mengakibatkan terjadinya kembali Pergerakan Tanah yang sebelumnya terjadi Pada Tahun 2022 mengalami pergerakan susulan yang mengakibatkan rumah milik bapak Mutakim mengalami kerusakan yang cukup parah dibagian dapur hingga ambles sedalam -+ 1m.\n- Kemudian rumah milik bapak Jefri mengalami susulan tanah bergerak yang mengakibatkan rumah bagian belakang ambles -+50cm.\n- kemudian rumah milik ibu Eni mengalami kerusakan dibagian belakang akibat pergerakan tanah susulan.\n- kemudian rumah milik bapak khalik mengalami kerusakan dibagian belakang rumah yang mengakibatkan ambles sedalam -+30 cm.\n- Mushola Al Qodar mengalami kerusakan dibagian depan dan samping. \nLokasi 2.\n- Hujan Deras yang mengguyur wilayah kecamatan pagedongan Dan Sekitarnya Pada Sore Sampai Malam hari mengakibatkan terjadi nya Pergerakan tanah di belakang Rumah bapak Latif yang mengakibatkan bagian belakang rumah ambles sedalam -+ 1m.\n- Rumah milik bapak keri mengalami pergerakan tanah yang mengakibatkan kerusakan dibagian dapur.\n- Rumah milik Pak Budi Santosa mengalami pergerakan tenah yang mengakibatkan bagian belakang rumah mengalami retak retak.\n- Rumah pak Admin mengalami pergerakan tanah yang mengakibatkan retak retak.\n- Rumah milik pak Wahyono bagian belakang tertimpa tanah longsor dengan ketinggian -+15m dan panjang -+20m.\n- Rumah milik pak Yusuf mengalami tanah bergerak yang mengakibatkan tebing setinggi -+15m dan Lebar -+20m longsong menimpa rumah milik bpk Wahyono. \n\nLokasi 3\n - Rumah milik nenek Wiji dan saudara indra mengalami longsor dibagian belakang dengan ketinggian tebing -+7m dan lebar -+4m.\n- Rumah milik pak Ifanto mengalami longsor dengan ketinggian tebing -+7m dan lebar -+ 5m yang mengenai bagian samping rumah.\n\nLokasi 4\n- Rumah milik pak Mudimin mengalami pergerakan tanah yang mengakibatkan kerusakan pada belakang dan samping rumah yang cukup parah.\n- Rumah milik ibu Sarniah mengalami pergerakan tanah yang mengalami kerusakan sedang dibagian depan dan samping.\n\nLokasi 5\n- Rumah milik pak sobir mengalami longsor dibagian belakang.\n\nLokasi 6\n- Rumah milik Bu sulastri mengalami longsor bagian depan dengan ketinggian tebing setinggi -+5m dan lebar -+5m.\n\nLokasi 7\n-Rumah milik pak Sukaryo mengalami kerusakan dibagian depan akibat tanah longsor.", "tahun": "2023"}, "geometry": {"type": "Point", "coordinates": [109.658253, -7.462226]}}, {"type": "Feature", "properties": {"title": "Tanah longsor Desa Duren pagedongan", "lokasi": "Desa Duren, Kecamatan Pagedongan", "waktu": "Minggu, 07 Mei 2023", "dampak": "Lokasi 1. \n1 Rumah Rusak Ringan \na.n Ari Setioaji (2 Jiwa) \nKerusakan : Tanah Bagian Bawah Pondasi Longsor\n4 Rumah Terancam\n\tA.n \t1. Siswanto dan Mistar (2 KK 6 Jiwa)\n\t\t2. Sukir (5 Jiwa)\n\t\t3. Ny. Musin 5 Jiwa\n\nLokasi 2\n1 Rumah Rusak Sedang \na.n Zuldianto 4 Jiwa\nKerusakan : Rumah retak-retak dan lantai terangkat, beberapa bagian struktur mulai ada tanda kerusakan\n1 Rumah Rusak Ringan \n\tA.n Haryanto (1 Jiwa)\n\nLokasi 3\n1 Rumah Rusak Ringan \na.n Riyanti (5 Jiwa)\nKerusakan : Rumah retak-retak \n\nLokasi 4\n2 Rumah Rusak Sedang \nA.n \t1. Suparno (3 Jiwa)\n\t\t2. Parwito (4 Jiwa)\nKerusakan : Rumah retak-retak dan lantai terangkat, beberapa bagian struktur mulai ada tanda kerusakan\n\nLokasi 5\n1 Rumah Rusak Sedang \nA.n Watiman 3 jiwa\nKerusakan : Dinding dan lantai Rumah retak lebar dan lantai terangkat bagian belakang rumah longsor bertahap sejak 1-2 bulan terakhir.\n\nLokasi 6\n1 Rumah Rusak Sedang \na.n Agus Setioro 5 Jiwa\nKerusakan : Rumah retak-retak dan lantai terangkat, beberapa bagian struktur mulai ada tanda kerusakan\n4 Rumah Rusak Ringan\n\tA.n \t1. Ralman (4 Jiwa)\n\t\t2. Sutoyo dan Aji (2 KK 7 Jiwa)\n\t\t3. Tumiran (2 Jiwa)\n4. Harsono (2 Jiwa)\n\nKet tambahan : \n- Potensi kerusakan lebih parah bisa terjadi apabila hujan intensitas tinggi dengan durasi lama kembali terjadi.\n- 2 KK diluar data tersebut juga telah melakukan relokasi mandiri pada tahun 2022", "tahun": "2023"}, "geometry": {"type": "Point", "coordinates": [109.654164, -7.481152]}}, {"type": "Feature", "properties": {"title": "TANAH LONGSOR PRENDENGAN JALAN KAB.", "lokasi": "Jalan Penghubung desa Sijeruk ke desa Prendengan (Jalan Kabupaten).", "waktu": "Minggu 07 mei 2023 pkl", "dampak": "Saat ini akses penghubung dua desa Lumpuh total tertutup matrial longsor.", "tahun": " pkl"}, "geometry": {"type": "Point", "coordinates": [109.7040634, -7.3155768]}}, {"type": "Feature", "properties": {"title": "Tanah Longsor Dusun Bogoan RT 05 RW 02 Desa Rakitan Kecamatan madukara Kab. Banjarnegara", "lokasi": "Desa Rakitan Kecamatan madukara Kab. Banjarnegara", "waktu": "Jum' at ,8 Juli 2023", "dampak": "Mengalami rekahan di beberapa tembok", "tahun": "2023"}, "geometry": {"type": "Point", "coordinates": [109.702823, -7.359155]}}, {"type": "Feature", "properties": {"title": "Tanah longsor purwasana", "lokasi": "Desa Purwasana Rt 02/01 kec.Punggelan", "waktu": "Minggu 03 Desember 2023", "dampak": "kerusakan pada Bagian tembok 8x2 meter Jebol.", "tahun": "2023"}, "geometry": {"type": "Point", "coordinates": [109.5956876, -7.3250162]}}, {"type": "Feature", "properties": {"title": "Tanah longsor desa jembangan", "lokasi": "jembangan ,punggelan", "waktu": "Minggu 03 desember 2023", "dampak": "rumah bagian belakang sehingga roboh. an   bapak\n.Suyatno Mistun.", "tahun": "2023"}, "geometry": {"type": "Point", "coordinates": [109.5872635, -7.3107681]}}, {"type": "Feature", "properties": {"title": "Tanah longsor biting", "lokasi": "desa biting kec pejawaran", "waktu": "Minggu, 3 desember 2023", "dampak": "Mengakibatkan saka rumah menggantung dan tanah longsor menimpa empang", "tahun": "2023"}, "geometry": {"type": "Point", "coordinates": [109.7850496, -7.2530877]}}, {"type": "Feature", "properties": {"title": "02 Tanah Longsor Pekandangan Banjarmangu", "lokasi": "Pekandangan Banjarmangu", "waktu": "03 Januari 2024", "dampak": "Beberapa rumah terancam longsor", "tahun": "2024"}, "geometry": {"type": "Point", "coordinates": [109.6782349, -7.3191909]}}, {"type": "Feature", "properties": {"title": "04 Tanah longsor Aribaya", "lokasi": "Aribaya\nKecamatan Pagentan", "waktu": "Jumat Tgl : 05 januari 2024", "dampak": "rumah warga retak dan amblas. AN;  nurdiyanto narwan, ny binem dan wartono", "tahun": "2024"}, "geometry": {"type": "Point", "coordinates": [109.753826, -7.3349702]}}, {"type": "Feature", "properties": {"title": "05 Tanah longsor sawal sigaluh", "lokasi": "Sawal Kec. Sigaluh", "waktu": ": Sabtu 6 januari 2024", "dampak": "1 Rumah mengalami kerusakan bagian dapur. Rumah milik Bpak Suroso Duren Sawit RT 01 RW 04", "tahun": "2024"}, "geometry": {"type": "Point", "coordinates": [109.7844104, -7.4329937]}}, {"type": "Feature", "properties": {"title": "07 Tanah Longsor   Karangtengah", "lokasi": "Karangtengah \nKec.Banjarnegara", "waktu": "Sabtu \nTgl     :  6 Januari 2024", "dampak": "Pondasi rumah milik bapak Markuat Terancam Tergerus Aliran Sungai", "tahun": "2024"}, "geometry": {"type": "Point", "coordinates": [109.6826599, -7.4074587]}}, {"type": "Feature", "properties": {"title": "08  Tanah longsor  Argasoka (tepi jalan Kabupaten)", "lokasi": "Argasoka", "waktu": "Sabtu \nTgl     :  6 Januari 2024", "dampak": "Tanah menutup jalan", "tahun": "2024"}, "geometry": {"type": "Point", "coordinates": [109.6970666, -7.4143706]}}, {"type": "Feature", "properties": {"title": "09 Tanah longsor JOLANG BANDINGAN", "lokasi": "Desa Bandingan kec Rakit", "waktu": "Sabtu 06 Januar", "dampak": "Mengancam rumah Warga\nMenimbun kolam ikan", "tahun": "nuar"}, "geometry": {"type": "Point", "coordinates": [109.5345558, -7.4163145]}}, {"type": "Feature", "properties": {"title": "13 tanah longsor jembangan", "lokasi": "", "waktu": "", "dampak": "", "tahun": ""}, "geometry": {"type": "Point", "coordinates": [109.5867266, -7.3110099]}}, {"type": "Feature", "properties": {"title": "14 tanah longsor punggelan", "lokasi": "", "waktu": "", "dampak": "", "tahun": ""}, "geometry": {"type": "Point", "coordinates": [109.5823003, -7.3511866]}}, {"type": "Feature", "properties": {"title": "16 Tanah longsor Sijeruk", "lokasi": "Sijeruk", "waktu": "Kamis 11 Januari 2024", "dampak": "- Talud penahan bangunan amblas -+ 2 m\n- Rumah warga mengalami kerusakan.    1. AN. Salami 80Thn /5 jiwa ( Rusak pada bagian Dapur dan blandar patah.)\n2. AN. Suwandi 57 thn / 3 jiwa (Rusak pada bagian kamar tidur)", "tahun": "2024"}, "geometry": {"type": "Point", "coordinates": [109.7081281, -7.3214007]}}, {"type": "Feature", "properties": {"title": "17 Tanah Longsor Gumpang", "lokasi": "Tlaga Kec. Punggelan.", "waktu": "Senin, 1 Januari 2024", "dampak": "1. Rumah Bpk Wasmin (39th)\nSartinah (28)\nBagus (12)\nAbraham (1,5 th)\n================= Mengungsi 1 KK 4 Jiwa \n\n2. Rumah Bpk Dasno (40)\nSuyati (35)\nImam (21)\nAmin (12)\nAan (8)\n\n3. Rumah Bpk Warjo (55)\nSumiati (47)\nBarno (30)\nAji (27)\n\n4. Rumah Bpk Harjo (64)\nSuwatmi (55)\nTeguh (30)", "tahun": "2024"}, "geometry": {"type": "Point", "coordinates": [109.6509149, -7.3044556]}}, {"type": "Feature", "properties": {"title": "MIMID", "lokasi": "Kec. Punggelan Kab. Banjarnegara", "waktu": "Sabtu \nTgl     :  16 Mei 2026", "dampak": "menutup akses jalan penghubung ke arah desa Jembangan.", "tahun": "2026"}, "geometry": {"type": "Point", "coordinates": [109.697067, -7.414371]}}]}