{"type":"FeatureCollection","features":[{"id":"0","type":"Feature","properties":{"DN":1,"Keterangan":"Rendah"},"geometry":{"type":"Polygon","coordinates":[[[109.637274,-7.184865],[109.637274,-7.185135],[109.637005,-7.185135],[109.637005,-7.185404],[109.636735,-7.185404],[109.636735,-7.185674],[109.636466,-7.185674],[109.636466,-7.185943],[109.636196,-7.185943],[109.636196,-7.186213],[109.635927,-7.186213],[109.635927,-7.186482],[109.635657,-7.186482],[109.635657,-7.186751],[109.635388,-7.186751],[109.635388,-7.187021],[109.635118,-7.187021],[109.635118,-7.188907],[109.634849,-7.188907],[109.634849,-7.192141],[109.635118,-7.192141],[109.635118,-7.193758],[109.635388,-7.193758],[109.635388,-7.195375],[109.635657,-7.195375],[109.635657,-7.196453],[109.635388,-7.196453],[109.635388,-7.197531],[109.635118,-7.197531],[109.635118,-7.19834],[109.634849,-7.19834],[109.634849,-7.199418],[109.634579,-7.199418],[109.634579,-7.200496],[109.63431,-7.200496],[109.63431,-7.200765],[109.633771,-7.200765],[109.633771,-7.201035],[109.632693,-7.201035],[109.632693,-7.201304],[109.631884,-7.201304],[109.631884,-7.201574],[109.630806,-7.201574],[109.630806,-7.201843],[109.629998,-7.201843],[109.629998,-7.20346],[109.629728,-7.20346],[109.629728,-7.205077],[109.629998,-7.205077],[109.629998,-7.205347],[109.630267,-7.205347],[109.630267,-7.205616],[109.630806,-7.205616],[109.630806,-7.205886],[109.631345,-7.205886],[109.631345,-7.206155],[109.631615,-7.206155],[109.631615,-7.206425],[109.632154,-7.206425],[109.632154,-7.206694],[109.632423,-7.206694],[109.632423,-7.206963],[109.632962,-7.206963],[109.632962,-7.207233],[109.633501,-7.207233],[109.633501,-7.207502],[109.633771,-7.207502],[109.633771,-7.207772],[109.63404,-7.207772],[109.63404,-7.208041],[109.634579,-7.208041],[109.634579,-7.208311],[109.634849,-7.208311],[109.634849,-7.20858],[109.635388,-7.20858],[109.635388,-7.20885],[109.635657,-7.20885],[109.635657,-7.209119],[109.635927,-7.209119],[109.635927,-7.209389],[109.636196,-7.209389],[109.636196,-7.209928],[109.636466,-7.209928],[109.636466,-7.210467],[109.636735,-7.210467],[109.636735,-7.211006],[109.637005,-7.211006],[109.637005,-7.211814],[109.637274,-7.211814],[109.637274,-7.212353],[109.637544,-7.212353],[109.637544,-7.212892],[109.637813,-7.212892],[109.637813,-7.213431],[109.638083,-7.213431],[109.638083,-7.21397],[109.638352,-7.21397],[109.638352,-7.214779],[109.638622,-7.214779],[109.638622,-7.215318],[109.638891,-7.215318],[109.638891,-7.215857],[109.639161,-7.215857],[109.639161,-7.216126],[109.63943,-7.216126],[109.63943,-7.216665],[109.6397,-7.216665],[109.6397,-7.217204],[109.639969,-7.217204],[109.639969,-7.217474],[109.640239,-7.217474],[109.640239,-7.218013],[109.640508,-7.218013],[109.640508,-7.218282],[109.640777,-7.218282],[109.640777,-7.218821],[109.641047,-7.218821],[109.641047,-7.219091],[109.641316,-7.219091],[109.641316,-7.21963],[109.641586,-7.21963],[109.641586,-7.220169],[109.641855,-7.220169],[109.641855,-7.220438],[109.642664,-7.220438],[109.642664,-7.220708],[109.643472,-7.220708],[109.643472,-7.220977],[109.644281,-7.220977],[109.644281,-7.221247],[109.645089,-7.221247],[109.645089,-7.221516],[109.645628,-7.221516],[109.645628,-7.221786],[109.646437,-7.221786],[109.646437,-7.222055],[109.646706,-7.222055],[109.646706,-7.221786],[109.646976,-7.221786],[109.646976,-7.221516],[109.647515,-7.221516],[109.647515,-7.221247],[109.647784,-7.221247],[109.647784,-7.220977],[109.648323,-7.220977],[109.648323,-7.220708],[109.648593,-7.220708],[109.648593,-7.220438],[109.649132,-7.220438],[109.649132,-7.220169],[109.649401,-7.220169],[109.649401,-7.219899],[109.64994,-7.219899],[109.64994,-7.21963],[109.65021,-7.21963],[109.65021,-7.21936],[109.650479,-7.21936],[109.650479,-7.219091],[109.651018,-7.219091],[109.651018,-7.218821],[109.651288,-7.218821],[109.651288,-7.218552],[109.651557,-7.218552],[109.651557,-7.218282],[109.651827,-7.218282],[109.651827,-7.218013],[109.652366,-7.218013],[109.652366,-7.217743],[109.652905,-7.217743],[109.652905,-7.217474],[109.653174,-7.217474],[109.653174,-7.217204],[109.653444,-7.217204],[109.653444,-7.216935],[109.653713,-7.216935],[109.653713,-7.216665],[109.653983,-7.216665],[109.653983,-7.216396],[109.654252,-7.216396],[109.654252,-7.216126],[109.654522,-7.216126],[109.654522,-7.215857],[109.655061,-7.215857],[109.655061,-7.215587],[109.6556,-7.215587],[109.6556,-7.215318],[109.656139,-7.215318],[109.656139,-7.215048],[109.656678,-7.215048],[109.656678,-7.214779],[109.657217,-7.214779],[109.657217,-7.214509],[109.657756,-7.214509],[109.657756,-7.21424],[109.66072,-7.21424],[109.66072,-7.21397],[109.661798,-7.21397],[109.661798,-7.213701],[109.662606,-7.213701],[109.662606,-7.213431],[109.663415,-7.213431],[109.663415,-7.213162],[109.664493,-7.213162],[109.664493,-7.212892],[109.665301,-7.212892],[109.665301,-7.212623],[109.666379,-7.212623],[109.666379,-7.212353],[109.666918,-7.212353],[109.666918,-7.212084],[109.667188,-7.212084],[109.667188,-7.211814],[109.667727,-7.211814],[109.667727,-7.211545],[109.667996,-7.211545],[109.667996,-7.211275],[109.668266,-7.211275],[109.668266,-7.211006],[109.668805,-7.211006],[109.668805,-7.210736],[109.669074,-7.210736],[109.669074,-7.210467],[109.669344,-7.210467],[109.669344,-7.210197],[109.669883,-7.210197],[109.669883,-7.209928],[109.670152,-7.209928],[109.670152,-7.20858],[109.670422,-7.20858],[109.670422,-7.207502],[109.670691,-7.207502],[109.670691,-7.205886],[109.670961,-7.205886],[109.670961,-7.204808],[109.670691,-7.204808],[109.670691,-7.203999],[109.670422,-7.203999],[109.670422,-7.203191],[109.670152,-7.203191],[109.670152,-7.202382],[109.669883,-7.202382],[109.669883,-7.201304],[109.669344,-7.201304],[109.669344,-7.201574],[109.668535,-7.201574],[109.668535,-7.201843],[109.667727,-7.201843],[109.667727,-7.202113],[109.666918,-7.202113],[109.666918,-7.202382],[109.666649,-7.202382],[109.666649,-7.202652],[109.666379,-7.202652],[109.666379,-7.203191],[109.66611,-7.203191],[109.66611,-7.20346],[109.66584,-7.20346],[109.66584,-7.203999],[109.665571,-7.203999],[109.665571,-7.204269],[109.665301,-7.204269],[109.665301,-7.204808],[109.665032,-7.204808],[109.665032,-7.205077],[109.664762,-7.205077],[109.664762,-7.205616],[109.664493,-7.205616],[109.664493,-7.205886],[109.664223,-7.205886],[109.664223,-7.206425],[109.663954,-7.206425],[109.663954,-7.206694],[109.663684,-7.206694],[109.663684,-7.207233],[109.663415,-7.207233],[109.663415,-7.207502],[109.657756,-7.207502],[109.657756,-7.207233],[109.657486,-7.207233],[109.657486,-7.206963],[109.657217,-7.206963],[109.657217,-7.206425],[109.656947,-7.206425],[109.656947,-7.206155],[109.656678,-7.206155],[109.656678,-7.205886],[109.656408,-7.205886],[109.656408,-7.205347],[109.656139,-7.205347],[109.656139,-7.205077],[109.655869,-7.205077],[109.655869,-7.204808],[109.6556,-7.204808],[109.6556,-7.204269],[109.65533,-7.204269],[109.65533,-7.20346],[109.6556,-7.20346],[109.6556,-7.202382],[109.655869,-7.202382],[109.655869,-7.201574],[109.656139,-7.201574],[109.656139,-7.200765],[109.656408,-7.200765],[109.656408,-7.200226],[109.656947,-7.200226],[109.656947,-7.199957],[109.657756,-7.199957],[109.657756,-7.199687],[109.658295,-7.199687],[109.658295,-7.199418],[109.658834,-7.199418],[109.658834,-7.199148],[109.659373,-7.199148],[109.659373,-7.198879],[109.659642,-7.198879],[109.659642,-7.198609],[109.659912,-7.198609],[109.659912,-7.19834],[109.660181,-7.19834],[109.660181,-7.19807],[109.660451,-7.19807],[109.660451,-7.197531],[109.66072,-7.197531],[109.66072,-7.197262],[109.660989,-7.197262],[109.660989,-7.196992],[109.661259,-7.196992],[109.661259,-7.196723],[109.661528,-7.196723],[109.661528,-7.196453],[109.661798,-7.196453],[109.661798,-7.196184],[109.662067,-7.196184],[109.662067,-7.194297],[109.662337,-7.194297],[109.662337,-7.191602],[109.661259,-7.191602],[109.661259,-7.191333],[109.660451,-7.191333],[109.660451,-7.191063],[109.659642,-7.191063],[109.659642,-7.190794],[109.659103,-7.190794],[109.659103,-7.191063],[109.658834,-7.191063],[109.658834,-7.191602],[109.658564,-7.191602],[109.658564,-7.191872],[109.658295,-7.191872],[109.658295,-7.192141],[109.658025,-7.192141],[109.658025,-7.192411],[109.657486,-7.192411],[109.657486,-7.192141],[109.657217,-7.192141],[109.657217,-7.191872],[109.656947,-7.191872],[109.656947,-7.191602],[109.656678,-7.191602],[109.656678,-7.191063],[109.656408,-7.191063],[109.656408,-7.190794],[109.656139,-7.190794],[109.656139,-7.190524],[109.655869,-7.190524],[109.655869,-7.191063],[109.6556,-7.191063],[109.6556,-7.191333],[109.65533,-7.191333],[109.65533,-7.191602],[109.655061,-7.191602],[109.655061,-7.192141],[109.654791,-7.192141],[109.654791,-7.192411],[109.654252,-7.192411],[109.654252,-7.19268],[109.653983,-7.19268],[109.653983,-7.19295],[109.653713,-7.19295],[109.653713,-7.193219],[109.653444,-7.193219],[109.653444,-7.193489],[109.653174,-7.193489],[109.653174,-7.193758],[109.652905,-7.193758],[109.652905,-7.194028],[109.652635,-7.194028],[109.652635,-7.194297],[109.652366,-7.194297],[109.652366,-7.194567],[109.651827,-7.194567],[109.651827,-7.194836],[109.651557,-7.194836],[109.651557,-7.195106],[109.651288,-7.195106],[109.651288,-7.195375],[109.651018,-7.195375],[109.651018,-7.195645],[109.650749,-7.195645],[109.650749,-7.194028],[109.650479,-7.194028],[109.650479,-7.19268],[109.65021,-7.19268],[109.65021,-7.191872],[109.64994,-7.191872],[109.64994,-7.191602],[109.649401,-7.191602],[109.649401,-7.191333],[109.649132,-7.191333],[109.649132,-7.191063],[109.648593,-7.191063],[109.648593,-7.190794],[109.648323,-7.190794],[109.648323,-7.190524],[109.648054,-7.190524],[109.648054,-7.190255],[109.647784,-7.190255],[109.647784,-7.190524],[109.647515,-7.190524],[109.647515,-7.190794],[109.647245,-7.190794],[109.647245,-7.191063],[109.646976,-7.191063],[109.646976,-7.191333],[109.646706,-7.191333],[109.646706,-7.191602],[109.646437,-7.191602],[109.646437,-7.191872],[109.646167,-7.191872],[109.646167,-7.192141],[109.645898,-7.192141],[109.645898,-7.192411],[109.645628,-7.192411],[109.645628,-7.19268],[109.645359,-7.19268],[109.645359,-7.19295],[109.64455,-7.19295],[109.64455,-7.193219],[109.644011,-7.193219],[109.644011,-7.193489],[109.643472,-7.193489],[109.643472,-7.193758],[109.642664,-7.193758],[109.642664,-7.193219],[109.642394,-7.193219],[109.642394,-7.19268],[109.642125,-7.19268],[109.642125,-7.192141],[109.641855,-7.192141],[109.641855,-7.191602],[109.641586,-7.191602],[109.641586,-7.189446],[109.641855,-7.189446],[109.641855,-7.18729],[109.642125,-7.18729],[109.642125,-7.186482],[109.641316,-7.186482],[109.641316,-7.186213],[109.640777,-7.186213],[109.640777,-7.185943],[109.640239,-7.185943],[109.640239,-7.185674],[109.63943,-7.185674],[109.63943,-7.185404],[109.638891,-7.185404],[109.638891,-7.185135],[109.638083,-7.185135],[109.638083,-7.184865],[109.637274,-7.184865]]]}},{"id":"1","type":"Feature","properties":{"DN":1,"Keterangan":"Rendah"},"geometry":{"type":"Polygon","coordinates":[[[109.72432,-7.224481],[109.72432,-7.22475],[109.722973,-7.22475],[109.722973,-7.22502],[109.721625,-7.22502],[109.721625,-7.225289],[109.720548,-7.225289],[109.720548,-7.225828],[109.720817,-7.225828],[109.720817,-7.226098],[109.721087,-7.226098],[109.721087,-7.226367],[109.721356,-7.226367],[109.721356,-7.226637],[109.721625,-7.226637],[109.721625,-7.226906],[109.721895,-7.226906],[109.721895,-7.227176],[109.722164,-7.227176],[109.722164,-7.227445],[109.722434,-7.227445],[109.722434,-7.227714],[109.722703,-7.227714],[109.722703,-7.227984],[109.722973,-7.227984],[109.722973,-7.228253],[109.723242,-7.228253],[109.723242,-7.228523],[109.723512,-7.228523],[109.723512,-7.228792],[109.723781,-7.228792],[109.723781,-7.229331],[109.723512,-7.229331],[109.723512,-7.230679],[109.723242,-7.230679],[109.723242,-7.231218],[109.723512,-7.231218],[109.723512,-7.231487],[109.723781,-7.231487],[109.723781,-7.231757],[109.724051,-7.231757],[109.724051,-7.232026],[109.72432,-7.232026],[109.72432,-7.232296],[109.72459,-7.232296],[109.72459,-7.232565],[109.724859,-7.232565],[109.724859,-7.232835],[109.725129,-7.232835],[109.725129,-7.233104],[109.725937,-7.233104],[109.725937,-7.233374],[109.727554,-7.233374],[109.727554,-7.233643],[109.727824,-7.233643],[109.727824,-7.233913],[109.728363,-7.233913],[109.728363,-7.234182],[109.728632,-7.234182],[109.728632,-7.234452],[109.729171,-7.234452],[109.729171,-7.234721],[109.729441,-7.234721],[109.729441,-7.234991],[109.72998,-7.234991],[109.72998,-7.23526],[109.730519,-7.23526],[109.730519,-7.23553],[109.730788,-7.23553],[109.730788,-7.235799],[109.733753,-7.235799],[109.733753,-7.236069],[109.738604,-7.236069],[109.738604,-7.236338],[109.744532,-7.236338],[109.744532,-7.236069],[109.745341,-7.236069],[109.745341,-7.235799],[109.746149,-7.235799],[109.746149,-7.23553],[109.747227,-7.23553],[109.747227,-7.23526],[109.748036,-7.23526],[109.748036,-7.234991],[109.748844,-7.234991],[109.748844,-7.234721],[109.749653,-7.234721],[109.749653,-7.234452],[109.750192,-7.234452],[109.750192,-7.234182],[109.750731,-7.234182],[109.750731,-7.233913],[109.75127,-7.233913],[109.75127,-7.233643],[109.751809,-7.233643],[109.751809,-7.233374],[109.752348,-7.233374],[109.752348,-7.233104],[109.752078,-7.233104],[109.752078,-7.232835],[109.751809,-7.232835],[109.751809,-7.232565],[109.751539,-7.232565],[109.751539,-7.232296],[109.75127,-7.232296],[109.75127,-7.232026],[109.750731,-7.232026],[109.750731,-7.231757],[109.750461,-7.231757],[109.750461,-7.231487],[109.750192,-7.231487],[109.750192,-7.231218],[109.749922,-7.231218],[109.749922,-7.230948],[109.749653,-7.230948],[109.749653,-7.230679],[109.749383,-7.230679],[109.749383,-7.230409],[109.748844,-7.230409],[109.748844,-7.23014],[109.748575,-7.23014],[109.748575,-7.22987],[109.748305,-7.22987],[109.748305,-7.229601],[109.748036,-7.229601],[109.748036,-7.229331],[109.747766,-7.229331],[109.747766,-7.229062],[109.747497,-7.229062],[109.747497,-7.228792],[109.746958,-7.228792],[109.746958,-7.228523],[109.746688,-7.228523],[109.746688,-7.228253],[109.738334,-7.228253],[109.738334,-7.227984],[109.736987,-7.227984],[109.736987,-7.227714],[109.735639,-7.227714],[109.735639,-7.227445],[109.734022,-7.227445],[109.734022,-7.227176],[109.732944,-7.227176],[109.732944,-7.226906],[109.732405,-7.226906],[109.732405,-7.226637],[109.731866,-7.226637],[109.731866,-7.226367],[109.731327,-7.226367],[109.731327,-7.226098],[109.730788,-7.226098],[109.730788,-7.225828],[109.730249,-7.225828],[109.730249,-7.225559],[109.72971,-7.225559],[109.72971,-7.225289],[109.729171,-7.225289],[109.729171,-7.22502],[109.728632,-7.22502],[109.728632,-7.22475],[109.728093,-7.22475],[109.728093,-7.224481],[109.72432,-7.224481]]]}},{"id":"2","type":"Feature","properties":{"DN":2,"Keterangan":"Sedang"},"geometry":{"type":"Polygon","coordinates":[[[109.701952,-7.358688],[109.701952,-7.358958],[109.702222,-7.358958],[109.702222,-7.358688],[109.701952,-7.358688]]]}},{"id":"3","type":"Feature","properties":{"DN":2,"Keterangan":"Sedang"},"geometry":{"type":"Polygon","coordinates":[[[109.702222,-7.358958],[109.702222,-7.359497],[109.702491,-7.359497],[109.702491,-7.358958],[109.702222,-7.358958]]]}},{"id":"4","type":"Feature","properties":{"DN":2,"Keterangan":"Sedang"},"geometry":{"type":"Polygon","coordinates":[[[109.682279,-7.35222],[109.682279,-7.35249],[109.680663,-7.35249],[109.680663,-7.352759],[109.679585,-7.352759],[109.679585,-7.353029],[109.679315,-7.353029],[109.679315,-7.353298],[109.679046,-7.353298],[109.679046,-7.353568],[109.678507,-7.353568],[109.678507,-7.353837],[109.678237,-7.353837],[109.678237,-7.354107],[109.677968,-7.354107],[109.677968,-7.354376],[109.677429,-7.354376],[109.677429,-7.354646],[109.677159,-7.354646],[109.677159,-7.354915],[109.67689,-7.354915],[109.67689,-7.355185],[109.676351,-7.355185],[109.676351,-7.355454],[109.675812,-7.355454],[109.675812,-7.355724],[109.675003,-7.355724],[109.675003,-7.355993],[109.674195,-7.355993],[109.674195,-7.356263],[109.673656,-7.356263],[109.673656,-7.356532],[109.672847,-7.356532],[109.672847,-7.356802],[109.670691,-7.356802],[109.670691,-7.357071],[109.666649,-7.357071],[109.666649,-7.357341],[109.664762,-7.357341],[109.664762,-7.35761],[109.664223,-7.35761],[109.664223,-7.35788],[109.663684,-7.35788],[109.663684,-7.358149],[109.663145,-7.358149],[109.663145,-7.358419],[109.662337,-7.358419],[109.662337,-7.358688],[109.661798,-7.358688],[109.661798,-7.358958],[109.661259,-7.358958],[109.661259,-7.359227],[109.66072,-7.359227],[109.66072,-7.359497],[109.659912,-7.359497],[109.659912,-7.359766],[109.659373,-7.359766],[109.659373,-7.360036],[109.658834,-7.360036],[109.658834,-7.360305],[109.658295,-7.360305],[109.658295,-7.360575],[109.657486,-7.360575],[109.657486,-7.360844],[109.656947,-7.360844],[109.656947,-7.361114],[109.656408,-7.361114],[109.656408,-7.361383],[109.655869,-7.361383],[109.655869,-7.361653],[109.65533,-7.361653],[109.65533,-7.361383],[109.654522,-7.361383],[109.654522,-7.361114],[109.653983,-7.361114],[109.653983,-7.360844],[109.653444,-7.360844],[109.653444,-7.360575],[109.652905,-7.360575],[109.652905,-7.360305],[109.652366,-7.360305],[109.652366,-7.359766],[109.651827,-7.359766],[109.651827,-7.358958],[109.651557,-7.358958],[109.651557,-7.358419],[109.651288,-7.358419],[109.651288,-7.35761],[109.651018,-7.35761],[109.651018,-7.357071],[109.650749,-7.357071],[109.650749,-7.356263],[109.650479,-7.356263],[109.650479,-7.355724],[109.65021,-7.355724],[109.65021,-7.355185],[109.64994,-7.355185],[109.64994,-7.354915],[109.649671,-7.354915],[109.649671,-7.354646],[109.649401,-7.354646],[109.649401,-7.354376],[109.649132,-7.354376],[109.649132,-7.353837],[109.648862,-7.353837],[109.648862,-7.353568],[109.648593,-7.353568],[109.648593,-7.353298],[109.643742,-7.353298],[109.643742,-7.353568],[109.641586,-7.353568],[109.641586,-7.353837],[109.641316,-7.353837],[109.641316,-7.354107],[109.640777,-7.354107],[109.640777,-7.354376],[109.640239,-7.354376],[109.640239,-7.354646],[109.6397,-7.354646],[109.6397,-7.354915],[109.63943,-7.354915],[109.63943,-7.355185],[109.638891,-7.355185],[109.638891,-7.355454],[109.638352,-7.355454],[109.638352,-7.355724],[109.637813,-7.355724],[109.637813,-7.355993],[109.637544,-7.355993],[109.637544,-7.356263],[109.637005,-7.356263],[109.637005,-7.356532],[109.636735,-7.356532],[109.636735,-7.356802],[109.636196,-7.356802],[109.636196,-7.357071],[109.635927,-7.357071],[109.635927,-7.357341],[109.635388,-7.357341],[109.635388,-7.35761],[109.635118,-7.35761],[109.635118,-7.35788],[109.634579,-7.35788],[109.634579,-7.358149],[109.63404,-7.358149],[109.63404,-7.358419],[109.633771,-7.358419],[109.633771,-7.358688],[109.633232,-7.358688],[109.633232,-7.358958],[109.632962,-7.358958],[109.632962,-7.359227],[109.632423,-7.359227],[109.632423,-7.359497],[109.632154,-7.359497],[109.632154,-7.359766],[109.631615,-7.359766],[109.631615,-7.360036],[109.631076,-7.360036],[109.631076,-7.360305],[109.630537,-7.360305],[109.630537,-7.360575],[109.629998,-7.360575],[109.629998,-7.360844],[109.629459,-7.360844],[109.629459,-7.361114],[109.62892,-7.361114],[109.62892,-7.361383],[109.628381,-7.361383],[109.628381,-7.361653],[109.627842,-7.361653],[109.627842,-7.361922],[109.627303,-7.361922],[109.627303,-7.362192],[109.626494,-7.362192],[109.626494,-7.362461],[109.625955,-7.362461],[109.625955,-7.362731],[109.625416,-7.362731],[109.625416,-7.363],[109.624877,-7.363],[109.624877,-7.36327],[109.624338,-7.36327],[109.624338,-7.363539],[109.623799,-7.363539],[109.623799,-7.363809],[109.622991,-7.363809],[109.622991,-7.364078],[109.621913,-7.364078],[109.621913,-7.364348],[109.620835,-7.364348],[109.620835,-7.364617],[109.619757,-7.364617],[109.619757,-7.364887],[109.618679,-7.364887],[109.618679,-7.365156],[109.617601,-7.365156],[109.617601,-7.365426],[109.616523,-7.365426],[109.616523,-7.365695],[109.615176,-7.365695],[109.615176,-7.365965],[109.614098,-7.365965],[109.614098,-7.366234],[109.61302,-7.366234],[109.61302,-7.366504],[109.611942,-7.366504],[109.611942,-7.366773],[109.611133,-7.366773],[109.611133,-7.367043],[109.610325,-7.367043],[109.610325,-7.367312],[109.609516,-7.367312],[109.609516,-7.367582],[109.608708,-7.367582],[109.608708,-7.367851],[109.607899,-7.367851],[109.607899,-7.368121],[109.60736,-7.368121],[109.60736,-7.36839],[109.606552,-7.36839],[109.606552,-7.36866],[109.605743,-7.36866],[109.605743,-7.368929],[109.605204,-7.368929],[109.605204,-7.369198],[109.604396,-7.369198],[109.604396,-7.369468],[109.603857,-7.369468],[109.603857,-7.369737],[109.603048,-7.369737],[109.603048,-7.370007],[109.602509,-7.370007],[109.602509,-7.370276],[109.601701,-7.370276],[109.601701,-7.370546],[109.601162,-7.370546],[109.601162,-7.370815],[109.600353,-7.370815],[109.600353,-7.371085],[109.599815,-7.371085],[109.599815,-7.371354],[109.599276,-7.371354],[109.599276,-7.371624],[109.598467,-7.371624],[109.598467,-7.371893],[109.598198,-7.371893],[109.598198,-7.372702],[109.597928,-7.372702],[109.597928,-7.372971],[109.597659,-7.372971],[109.597659,-7.373241],[109.597389,-7.373241],[109.597389,-7.37378],[109.59712,-7.37378],[109.59712,-7.374049],[109.59685,-7.374049],[109.59685,-7.374319],[109.596581,-7.374319],[109.596581,-7.374588],[109.596311,-7.374588],[109.596311,-7.374858],[109.596042,-7.374858],[109.596042,-7.375397],[109.595772,-7.375397],[109.595772,-7.375666],[109.595503,-7.375666],[109.595503,-7.375936],[109.595233,-7.375936],[109.595233,-7.377014],[109.594964,-7.377014],[109.594964,-7.379439],[109.594694,-7.379439],[109.594694,-7.380787],[109.594425,-7.380787],[109.594425,-7.381595],[109.594155,-7.381595],[109.594155,-7.382134],[109.593886,-7.382134],[109.593886,-7.382673],[109.593616,-7.382673],[109.593616,-7.383212],[109.593347,-7.383212],[109.593347,-7.384021],[109.593077,-7.384021],[109.593077,-7.38456],[109.592808,-7.38456],[109.592808,-7.385099],[109.592538,-7.385099],[109.592538,-7.385638],[109.591999,-7.385638],[109.591999,-7.385907],[109.59146,-7.385907],[109.59146,-7.386177],[109.590921,-7.386177],[109.590921,-7.386446],[109.590652,-7.386446],[109.590652,-7.386716],[109.590113,-7.386716],[109.590113,-7.386985],[109.589574,-7.386985],[109.589574,-7.387255],[109.589035,-7.387255],[109.589035,-7.387524],[109.588765,-7.387524],[109.588765,-7.387794],[109.588496,-7.387794],[109.588496,-7.388333],[109.588226,-7.388333],[109.588226,-7.388872],[109.587957,-7.388872],[109.587957,-7.38941],[109.587687,-7.38941],[109.587687,-7.38968],[109.587418,-7.38968],[109.587418,-7.389949],[109.587148,-7.389949],[109.587148,-7.390219],[109.586879,-7.390219],[109.586879,-7.390488],[109.586609,-7.390488],[109.586609,-7.391027],[109.58634,-7.391027],[109.58634,-7.391297],[109.58607,-7.391297],[109.58607,-7.391566],[109.585801,-7.391566],[109.585801,-7.391836],[109.584992,-7.391836],[109.584992,-7.391566],[109.584453,-7.391566],[109.584453,-7.391297],[109.583914,-7.391297],[109.583914,-7.391027],[109.583106,-7.391027],[109.583106,-7.390758],[109.582567,-7.390758],[109.582567,-7.390488],[109.582028,-7.390488],[109.582028,-7.390219],[109.581489,-7.390219],[109.581489,-7.389949],[109.58095,-7.389949],[109.58095,-7.38968],[109.580141,-7.38968],[109.580141,-7.38941],[109.577447,-7.38941],[109.577447,-7.389141],[109.573943,-7.389141],[109.573943,-7.38941],[109.573135,-7.38941],[109.573135,-7.38968],[109.572326,-7.38968],[109.572326,-7.389949],[109.571518,-7.389949],[109.571518,-7.390219],[109.570709,-7.390219],[109.570709,-7.390488],[109.57017,-7.390488],[109.57017,-7.390758],[109.569362,-7.390758],[109.569362,-7.391027],[109.568553,-7.391027],[109.568553,-7.391297],[109.567745,-7.391297],[109.567745,-7.391566],[109.566936,-7.391566],[109.566936,-7.391836],[109.566128,-7.391836],[109.566128,-7.392105],[109.565589,-7.392105],[109.565589,-7.392375],[109.56478,-7.392375],[109.56478,-7.392644],[109.563972,-7.392644],[109.563972,-7.392914],[109.563163,-7.392914],[109.563163,-7.393183],[109.562894,-7.393183],[109.562894,-7.393453],[109.562624,-7.393453],[109.562624,-7.393722],[109.562355,-7.393722],[109.562355,-7.393992],[109.561816,-7.393992],[109.561816,-7.394261],[109.561546,-7.394261],[109.561546,-7.394531],[109.561277,-7.394531],[109.561277,-7.3948],[109.561007,-7.3948],[109.561007,-7.39507],[109.560738,-7.39507],[109.560738,-7.395339],[109.560199,-7.395339],[109.560199,-7.395609],[109.559929,-7.395609],[109.559929,-7.395878],[109.55966,-7.395878],[109.55966,-7.396148],[109.559391,-7.396148],[109.559391,-7.396417],[109.558852,-7.396417],[109.558852,-7.396687],[109.559121,-7.396687],[109.559121,-7.397495],[109.559391,-7.397495],[109.559391,-7.398034],[109.55966,-7.398034],[109.55966,-7.398843],[109.559929,-7.398843],[109.559929,-7.399382],[109.560199,-7.399382],[109.560199,-7.399921],[109.560468,-7.399921],[109.560468,-7.40046],[109.560738,-7.40046],[109.560738,-7.400729],[109.561007,-7.400729],[109.561007,-7.400999],[109.561546,-7.400999],[109.561546,-7.401268],[109.562085,-7.401268],[109.562085,-7.401538],[109.562624,-7.401538],[109.562624,-7.401807],[109.562894,-7.401807],[109.562894,-7.402077],[109.563433,-7.402077],[109.563433,-7.402346],[109.563972,-7.402346],[109.563972,-7.402616],[109.564511,-7.402616],[109.564511,-7.402885],[109.56478,-7.402885],[109.56478,-7.403155],[109.565319,-7.403155],[109.565319,-7.403424],[109.568014,-7.403424],[109.568014,-7.403694],[109.570709,-7.403694],[109.570709,-7.403963],[109.573674,-7.403963],[109.573674,-7.403694],[109.575021,-7.403694],[109.575021,-7.403424],[109.576099,-7.403424],[109.576099,-7.403155],[109.577177,-7.403155],[109.577177,-7.402885],[109.578255,-7.402885],[109.578255,-7.402616],[109.579333,-7.402616],[109.579333,-7.402346],[109.580411,-7.402346],[109.580411,-7.402077],[109.581489,-7.402077],[109.581489,-7.401807],[109.582028,-7.401807],[109.582028,-7.401538],[109.582567,-7.401538],[109.582567,-7.401268],[109.583106,-7.401268],[109.583106,-7.400999],[109.583375,-7.400999],[109.583375,-7.400729],[109.583914,-7.400729],[109.583914,-7.40046],[109.584453,-7.40046],[109.584453,-7.40019],[109.584992,-7.40019],[109.584992,-7.399921],[109.585531,-7.399921],[109.585531,-7.399651],[109.585801,-7.399651],[109.585801,-7.399382],[109.58634,-7.399382],[109.58634,-7.399112],[109.587418,-7.399112],[109.587418,-7.398843],[109.587957,-7.398843],[109.587957,-7.398573],[109.588496,-7.398573],[109.588496,-7.398304],[109.588765,-7.398304],[109.588765,-7.398034],[109.589304,-7.398034],[109.589304,-7.397765],[109.589843,-7.397765],[109.589843,-7.397495],[109.590382,-7.397495],[109.590382,-7.397226],[109.590921,-7.397226],[109.590921,-7.396956],[109.59146,-7.396956],[109.59146,-7.396687],[109.591999,-7.396687],[109.591999,-7.396417],[109.592538,-7.396417],[109.592538,-7.396148],[109.593077,-7.396148],[109.593077,-7.395878],[109.593616,-7.395878],[109.593616,-7.395609],[109.594155,-7.395609],[109.594155,-7.395339],[109.594694,-7.395339],[109.594694,-7.39507],[109.595233,-7.39507],[109.595233,-7.3948],[109.595772,-7.3948],[109.595772,-7.394531],[109.596311,-7.394531],[109.596311,-7.394261],[109.59685,-7.394261],[109.59685,-7.393992],[109.59712,-7.393992],[109.59712,-7.39507],[109.597389,-7.39507],[109.597389,-7.396687],[109.597659,-7.396687],[109.597659,-7.398304],[109.597928,-7.398304],[109.597928,-7.398573],[109.597659,-7.398573],[109.597659,-7.399112],[109.59712,-7.399112],[109.59712,-7.399651],[109.59685,-7.399651],[109.59685,-7.40019],[109.596581,-7.40019],[109.596581,-7.40046],[109.596311,-7.40046],[109.596311,-7.400999],[109.596042,-7.400999],[109.596042,-7.401538],[109.595772,-7.401538],[109.595772,-7.401807],[109.595233,-7.401807],[109.595233,-7.402077],[109.594964,-7.402077],[109.594964,-7.402346],[109.594425,-7.402346],[109.594425,-7.402616],[109.594155,-7.402616],[109.594155,-7.402885],[109.593616,-7.402885],[109.593616,-7.403155],[109.593347,-7.403155],[109.593347,-7.403424],[109.592808,-7.403424],[109.592808,-7.403694],[109.592538,-7.403694],[109.592538,-7.403963],[109.592269,-7.403963],[109.592269,-7.404233],[109.59173,-7.404233],[109.59173,-7.404502],[109.59146,-7.404502],[109.59146,-7.404772],[109.590921,-7.404772],[109.590921,-7.405041],[109.590382,-7.405041],[109.590382,-7.405311],[109.589843,-7.405311],[109.589843,-7.40558],[109.589304,-7.40558],[109.589304,-7.40585],[109.588765,-7.40585],[109.588765,-7.406119],[109.587687,-7.406119],[109.587687,-7.406389],[109.58634,-7.406389],[109.58634,-7.406658],[109.584992,-7.406658],[109.584992,-7.406928],[109.584723,-7.406928],[109.584723,-7.407197],[109.584184,-7.407197],[109.584184,-7.407467],[109.583645,-7.407467],[109.583645,-7.407736],[109.583106,-7.407736],[109.583106,-7.408006],[109.582567,-7.408006],[109.582567,-7.408275],[109.582028,-7.408275],[109.582028,-7.408545],[109.581758,-7.408545],[109.581758,-7.408814],[109.581219,-7.408814],[109.581219,-7.409084],[109.58068,-7.409084],[109.58068,-7.409353],[109.580141,-7.409353],[109.580141,-7.409623],[109.579872,-7.409623],[109.579872,-7.409892],[109.576638,-7.409892],[109.576638,-7.410161],[109.576369,-7.410161],[109.576369,-7.410431],[109.57583,-7.410431],[109.57583,-7.4107],[109.575291,-7.4107],[109.575291,-7.41097],[109.574752,-7.41097],[109.574752,-7.411239],[109.574482,-7.411239],[109.574482,-7.411509],[109.573943,-7.411509],[109.573943,-7.411778],[109.573674,-7.411778],[109.573674,-7.412048],[109.573135,-7.412048],[109.573135,-7.412317],[109.572865,-7.412317],[109.572865,-7.412587],[109.572596,-7.412587],[109.572596,-7.412856],[109.572326,-7.412856],[109.572326,-7.413126],[109.572057,-7.413126],[109.572057,-7.413395],[109.571787,-7.413395],[109.571787,-7.413665],[109.571518,-7.413665],[109.571518,-7.413934],[109.571248,-7.413934],[109.571248,-7.414204],[109.570979,-7.414204],[109.570979,-7.414473],[109.57044,-7.414473],[109.57044,-7.414743],[109.57017,-7.414743],[109.57017,-7.415012],[109.569901,-7.415012],[109.569901,-7.415282],[109.569631,-7.415282],[109.569631,-7.415551],[109.569362,-7.415551],[109.569362,-7.415821],[109.568823,-7.415821],[109.568823,-7.41609],[109.568553,-7.41609],[109.568553,-7.41636],[109.568284,-7.41636],[109.568284,-7.416629],[109.568014,-7.416629],[109.568014,-7.416899],[109.567745,-7.416899],[109.567745,-7.417168],[109.567206,-7.417168],[109.567206,-7.417438],[109.566936,-7.417438],[109.566936,-7.417707],[109.566667,-7.417707],[109.566667,-7.417977],[109.566397,-7.417977],[109.566397,-7.418246],[109.566128,-7.418246],[109.566128,-7.418516],[109.565589,-7.418516],[109.565589,-7.418785],[109.565319,-7.418785],[109.565319,-7.419055],[109.56505,-7.419055],[109.56505,-7.419324],[109.56478,-7.419324],[109.56478,-7.419594],[109.564241,-7.419594],[109.564241,-7.419863],[109.562624,-7.419863],[109.562624,-7.420133],[109.561007,-7.420133],[109.561007,-7.420402],[109.559391,-7.420402],[109.559391,-7.420672],[109.554809,-7.420672],[109.554809,-7.420402],[109.54915,-7.420402],[109.54915,-7.420133],[109.545377,-7.420133],[109.545377,-7.419863],[109.541604,-7.419863],[109.541604,-7.419594],[109.540256,-7.419594],[109.540256,-7.419324],[109.539448,-7.419324],[109.539448,-7.419055],[109.538909,-7.419055],[109.538909,-7.418785],[109.538101,-7.418785],[109.538101,-7.418516],[109.537292,-7.418516],[109.537292,-7.418246],[109.536484,-7.418246],[109.536484,-7.417977],[109.535945,-7.417977],[109.535945,-7.417707],[109.535136,-7.417707],[109.535136,-7.417438],[109.534328,-7.417438],[109.534328,-7.417168],[109.533789,-7.417168],[109.533789,-7.416899],[109.53298,-7.416899],[109.53298,-7.416629],[109.532172,-7.416629],[109.532172,-7.41636],[109.531363,-7.41636],[109.531363,-7.41609],[109.530824,-7.41609],[109.530824,-7.415821],[109.530016,-7.415821],[109.530016,-7.415551],[109.529207,-7.415551],[109.529207,-7.415282],[109.528668,-7.415282],[109.528668,-7.415012],[109.528129,-7.415012],[109.528129,-7.414743],[109.52786,-7.414743],[109.52786,-7.414473],[109.527321,-7.414473],[109.527321,-7.414204],[109.526782,-7.414204],[109.526782,-7.413934],[109.526512,-7.413934],[109.526512,-7.413665],[109.525973,-7.413665],[109.525973,-7.413395],[109.525434,-7.413395],[109.525434,-7.413126],[109.525165,-7.413126],[109.525165,-7.412856],[109.524626,-7.412856],[109.524626,-7.412587],[109.524087,-7.412587],[109.524087,-7.412317],[109.523548,-7.412317],[109.523548,-7.412048],[109.523009,-7.412048],[109.523009,-7.411778],[109.52247,-7.411778],[109.52247,-7.411509],[109.521931,-7.411509],[109.521931,-7.411239],[109.520853,-7.411239],[109.520853,-7.411509],[109.520044,-7.411509],[109.520044,-7.411778],[109.519236,-7.411778],[109.519236,-7.411509],[109.518158,-7.411509],[109.518158,-7.411778],[109.517889,-7.411778],[109.517889,-7.412048],[109.517619,-7.412048],[109.517619,-7.412317],[109.51735,-7.412317],[109.51735,-7.412587],[109.516002,-7.412587],[109.516002,-7.412317],[109.515463,-7.412317],[109.515463,-7.412048],[109.515194,-7.412048],[109.515194,-7.411509],[109.514924,-7.411509],[109.514924,-7.411239],[109.514655,-7.411239],[109.514655,-7.41097],[109.513307,-7.41097],[109.513307,-7.411509],[109.513038,-7.411509],[109.513038,-7.411778],[109.512768,-7.411778],[109.512768,-7.412048],[109.51196,-7.412048],[109.51196,-7.412317],[109.511421,-7.412317],[109.511421,-7.412587],[109.510612,-7.412587],[109.510612,-7.412048],[109.510343,-7.412048],[109.510343,-7.411509],[109.510073,-7.411509],[109.510073,-7.411239],[109.509534,-7.411239],[109.509534,-7.411509],[109.509265,-7.411509],[109.509265,-7.411778],[109.508995,-7.411778],[109.508995,-7.412048],[109.508187,-7.412048],[109.508187,-7.41097],[109.507917,-7.41097],[109.507917,-7.410431],[109.507648,-7.410431],[109.507648,-7.410161],[109.507378,-7.410161],[109.507378,-7.409892],[109.504414,-7.409892],[109.504414,-7.410161],[109.504144,-7.410161],[109.504144,-7.410431],[109.503875,-7.410431],[109.503875,-7.4107],[109.503605,-7.4107],[109.503605,-7.411239],[109.503336,-7.411239],[109.503336,-7.411778],[109.503605,-7.411778],[109.503605,-7.412317],[109.503875,-7.412317],[109.503875,-7.412856],[109.504144,-7.412856],[109.504144,-7.413395],[109.504414,-7.413395],[109.504414,-7.413665],[109.504683,-7.413665],[109.504683,-7.413934],[109.504953,-7.413934],[109.504953,-7.414204],[109.505222,-7.414204],[109.505222,-7.414473],[109.505492,-7.414473],[109.505492,-7.414743],[109.505761,-7.414743],[109.505761,-7.415012],[109.506031,-7.415012],[109.506031,-7.415282],[109.5063,-7.415282],[109.5063,-7.415551],[109.50657,-7.415551],[109.50657,-7.415821],[109.506839,-7.415821],[109.506839,-7.41609],[109.507109,-7.41609],[109.507109,-7.41636],[109.507378,-7.41636],[109.507378,-7.416899],[109.507648,-7.416899],[109.507648,-7.417168],[109.507917,-7.417168],[109.507917,-7.417707],[109.508187,-7.417707],[109.508187,-7.418516],[109.508456,-7.418516],[109.508456,-7.419863],[109.508187,-7.419863],[109.508187,-7.420402],[109.507917,-7.420402],[109.507917,-7.420672],[109.507648,-7.420672],[109.507648,-7.420941],[109.507109,-7.420941],[109.507109,-7.421211],[109.506839,-7.421211],[109.506839,-7.42148],[109.50657,-7.42148],[109.50657,-7.422019],[109.5063,-7.422019],[109.5063,-7.422289],[109.506031,-7.422289],[109.506031,-7.423097],[109.505761,-7.423097],[109.505761,-7.425792],[109.506031,-7.425792],[109.506031,-7.426331],[109.5063,-7.426331],[109.5063,-7.426601],[109.50657,-7.426601],[109.50657,-7.42687],[109.506839,-7.42687],[109.506839,-7.431721],[109.50657,-7.431721],[109.50657,-7.434416],[109.506839,-7.434416],[109.506839,-7.435494],[109.507109,-7.435494],[109.507109,-7.436033],[109.507378,-7.436033],[109.507378,-7.436841],[109.507648,-7.436841],[109.507648,-7.43765],[109.507917,-7.43765],[109.507917,-7.438458],[109.508187,-7.438458],[109.508187,-7.438728],[109.508456,-7.438728],[109.508456,-7.439806],[109.508187,-7.439806],[109.508187,-7.441423],[109.507917,-7.441423],[109.507917,-7.447082],[109.507648,-7.447082],[109.507648,-7.447891],[109.507109,-7.447891],[109.507109,-7.447621],[109.5063,-7.447621],[109.5063,-7.447891],[109.506031,-7.447891],[109.506031,-7.448699],[109.5063,-7.448699],[109.5063,-7.448969],[109.506031,-7.448969],[109.506031,-7.449508],[109.505761,-7.449508],[109.505761,-7.449777],[109.505492,-7.449777],[109.505492,-7.450047],[109.504683,-7.450047],[109.504683,-7.449777],[109.504414,-7.449777],[109.504414,-7.449238],[109.504144,-7.449238],[109.504144,-7.448969],[109.503875,-7.448969],[109.503875,-7.448699],[109.503605,-7.448699],[109.503605,-7.44843],[109.503336,-7.44843],[109.503336,-7.44816],[109.501719,-7.44816],[109.501719,-7.44843],[109.50091,-7.44843],[109.50091,-7.448699],[109.500371,-7.448699],[109.500371,-7.448969],[109.500102,-7.448969],[109.500102,-7.449238],[109.499563,-7.449238],[109.499563,-7.449508],[109.499024,-7.449508],[109.499024,-7.449238],[109.498754,-7.449238],[109.498754,-7.448699],[109.498485,-7.448699],[109.498485,-7.447891],[109.498216,-7.447891],[109.498216,-7.447621],[109.497946,-7.447621],[109.497946,-7.447352],[109.497677,-7.447352],[109.497677,-7.447082],[109.497407,-7.447082],[109.497407,-7.446813],[109.49606,-7.446813],[109.49606,-7.447082],[109.49579,-7.447082],[109.49579,-7.447621],[109.495521,-7.447621],[109.495521,-7.44816],[109.495251,-7.44816],[109.495251,-7.44843],[109.494982,-7.44843],[109.494982,-7.448699],[109.494712,-7.448699],[109.494712,-7.448969],[109.494443,-7.448969],[109.494443,-7.449238],[109.494173,-7.449238],[109.494173,-7.449508],[109.493634,-7.449508],[109.493634,-7.449238],[109.493365,-7.449238],[109.493365,-7.448969],[109.493095,-7.448969],[109.493095,-7.448699],[109.492826,-7.448699],[109.492826,-7.44843],[109.492556,-7.44843],[109.492556,-7.447891],[109.492287,-7.447891],[109.492287,-7.447621],[109.492017,-7.447621],[109.492017,-7.447352],[109.491748,-7.447352],[109.491748,-7.447082],[109.491478,-7.447082],[109.491478,-7.446813],[109.491209,-7.446813],[109.491209,-7.446274],[109.490939,-7.446274],[109.490939,-7.445735],[109.49067,-7.445735],[109.49067,-7.444926],[109.4904,-7.444926],[109.4904,-7.444118],[109.490131,-7.444118],[109.490131,-7.443309],[109.489861,-7.443309],[109.489861,-7.44304],[109.489592,-7.44304],[109.489592,-7.44277],[109.489322,-7.44277],[109.489322,-7.442501],[109.489053,-7.442501],[109.489053,-7.442231],[109.487436,-7.442231],[109.487436,-7.444118],[109.487166,-7.444118],[109.487166,-7.444387],[109.486897,-7.444387],[109.486897,-7.444657],[109.486627,-7.444657],[109.486627,-7.444926],[109.486358,-7.444926],[109.486358,-7.445196],[109.485819,-7.445196],[109.485819,-7.445465],[109.48528,-7.445465],[109.48528,-7.445196],[109.48501,-7.445196],[109.48501,-7.444926],[109.484741,-7.444926],[109.484741,-7.444657],[109.484471,-7.444657],[109.484471,-7.443848],[109.484202,-7.443848],[109.484202,-7.443309],[109.483932,-7.443309],[109.483932,-7.44277],[109.483663,-7.44277],[109.483663,-7.442231],[109.483393,-7.442231],[109.483393,-7.441962],[109.483124,-7.441962],[109.483124,-7.441692],[109.482854,-7.441692],[109.482854,-7.441423],[109.482315,-7.441423],[109.482315,-7.441153],[109.480968,-7.441153],[109.480968,-7.441423],[109.480429,-7.441423],[109.480429,-7.441962],[109.480159,-7.441962],[109.480159,-7.442501],[109.480429,-7.442501],[109.480429,-7.44277],[109.480968,-7.44277],[109.480968,-7.44304],[109.481237,-7.44304],[109.481237,-7.443309],[109.481776,-7.443309],[109.481776,-7.443579],[109.482046,-7.443579],[109.482046,-7.444118],[109.481776,-7.444118],[109.481776,-7.444387],[109.481507,-7.444387],[109.481507,-7.444657],[109.481237,-7.444657],[109.481237,-7.444926],[109.480698,-7.444926],[109.480698,-7.445196],[109.480429,-7.445196],[109.480429,-7.445465],[109.47962,-7.445465],[109.47962,-7.445735],[109.477195,-7.445735],[109.477195,-7.445465],[109.476387,-7.445465],[109.476387,-7.445196],[109.476117,-7.445196],[109.476117,-7.444926],[109.475848,-7.444926],[109.475848,-7.444657],[109.475578,-7.444657],[109.475578,-7.444118],[109.475309,-7.444118],[109.475309,-7.44304],[109.475039,-7.44304],[109.475039,-7.441962],[109.47477,-7.441962],[109.47477,-7.441692],[109.472883,-7.441692],[109.472883,-7.441962],[109.472344,-7.441962],[109.472344,-7.442231],[109.472075,-7.442231],[109.472075,-7.44304],[109.471805,-7.44304],[109.471805,-7.444118],[109.472075,-7.444118],[109.472075,-7.444926],[109.472344,-7.444926],[109.472344,-7.445465],[109.472614,-7.445465],[109.472614,-7.446004],[109.472883,-7.446004],[109.472883,-7.446543],[109.473153,-7.446543],[109.473153,-7.44816],[109.472883,-7.44816],[109.472883,-7.44843],[109.472344,-7.44843],[109.472344,-7.448699],[109.471536,-7.448699],[109.471536,-7.448969],[109.469649,-7.448969],[109.469649,-7.448699],[109.46911,-7.448699],[109.46911,-7.44843],[109.468571,-7.44843],[109.468571,-7.44816],[109.468032,-7.44816],[109.468032,-7.447891],[109.467224,-7.447891],[109.467224,-7.447621],[109.466685,-7.447621],[109.466685,-7.447352],[109.466415,-7.447352],[109.466415,-7.447082],[109.466146,-7.447082],[109.466146,-7.446813],[109.465876,-7.446813],[109.465876,-7.446543],[109.465607,-7.446543],[109.465607,-7.446274],[109.465337,-7.446274],[109.465337,-7.446004],[109.464259,-7.446004],[109.464259,-7.446274],[109.46372,-7.446274],[109.46372,-7.446543],[109.462912,-7.446543],[109.462912,-7.446813],[109.462373,-7.446813],[109.462373,-7.447082],[109.462103,-7.447082],[109.462103,-7.447352],[109.461564,-7.447352],[109.461564,-7.449777],[109.461295,-7.449777],[109.461295,-7.450855],[109.461025,-7.450855],[109.461025,-7.451394],[109.460756,-7.451394],[109.460756,-7.451663],[109.460486,-7.451663],[109.460486,-7.451933],[109.460217,-7.451933],[109.460217,-7.452202],[109.459947,-7.452202],[109.459947,-7.452472],[109.459139,-7.452472],[109.459139,-7.452741],[109.455905,-7.452741],[109.455905,-7.452472],[109.455097,-7.452472],[109.455097,-7.452202],[109.454558,-7.452202],[109.454558,-7.451933],[109.454288,-7.451933],[109.454288,-7.451663],[109.454019,-7.451663],[109.454019,-7.451394],[109.453749,-7.451394],[109.453749,-7.451124],[109.45348,-7.451124],[109.45348,-7.449238],[109.45321,-7.449238],[109.45321,-7.447891],[109.452941,-7.447891],[109.452941,-7.447082],[109.452671,-7.447082],[109.452671,-7.446813],[109.451863,-7.446813],[109.451863,-7.446543],[109.449707,-7.446543],[109.449707,-7.446813],[109.449437,-7.446813],[109.449437,-7.447082],[109.449168,-7.447082],[109.449168,-7.447352],[109.448898,-7.447352],[109.448898,-7.447621],[109.448629,-7.447621],[109.448629,-7.44816],[109.448359,-7.44816],[109.448359,-7.44843],[109.44809,-7.44843],[109.44809,-7.448699],[109.44782,-7.448699],[109.44782,-7.448969],[109.447281,-7.448969],[109.447281,-7.449508],[109.447012,-7.449508],[109.447012,-7.449777],[109.446742,-7.449777],[109.446742,-7.451394],[109.447012,-7.451394],[109.447012,-7.451663],[109.447281,-7.451663],[109.447281,-7.451933],[109.447551,-7.451933],[109.447551,-7.452202],[109.44782,-7.452202],[109.44782,-7.452472],[109.44809,-7.452472],[109.44809,-7.452741],[109.448359,-7.452741],[109.448359,-7.453011],[109.448629,-7.453011],[109.448629,-7.454089],[109.448359,-7.454089],[109.448359,-7.454358],[109.44809,-7.454358],[109.44809,-7.454628],[109.44782,-7.454628],[109.44782,-7.455167],[109.447551,-7.455167],[109.447551,-7.455436],[109.447281,-7.455436],[109.447281,-7.455706],[109.445934,-7.455706],[109.445934,-7.455436],[109.445395,-7.455436],[109.445395,-7.455167],[109.444856,-7.455167],[109.444856,-7.454897],[109.444317,-7.454897],[109.444317,-7.454628],[109.444047,-7.454628],[109.444047,-7.454358],[109.443508,-7.454358],[109.443508,-7.454089],[109.440813,-7.454089],[109.440813,-7.453819],[109.440544,-7.453819],[109.440544,-7.45328],[109.440274,-7.45328],[109.440274,-7.44843],[109.439196,-7.44843],[109.439196,-7.448699],[109.438657,-7.448699],[109.438657,-7.448969],[109.438118,-7.448969],[109.438118,-7.449238],[109.43758,-7.449238],[109.43758,-7.449508],[109.43731,-7.449508],[109.43731,-7.449777],[109.436771,-7.449777],[109.436771,-7.450047],[109.436502,-7.450047],[109.436502,-7.450316],[109.436232,-7.450316],[109.436232,-7.450855],[109.435963,-7.450855],[109.435963,-7.451663],[109.436232,-7.451663],[109.436232,-7.451933],[109.436771,-7.451933],[109.436771,-7.452202],[109.43731,-7.452202],[109.43731,-7.452472],[109.43758,-7.452472],[109.43758,-7.452741],[109.437849,-7.452741],[109.437849,-7.45355],[109.43758,-7.45355],[109.43758,-7.454089],[109.43731,-7.454089],[109.43731,-7.454628],[109.437041,-7.454628],[109.437041,-7.455167],[109.436771,-7.455167],[109.436771,-7.455436],[109.436502,-7.455436],[109.436502,-7.455706],[109.436232,-7.455706],[109.436232,-7.455975],[109.435963,-7.455975],[109.435963,-7.456245],[109.435693,-7.456245],[109.435693,-7.456514],[109.435424,-7.456514],[109.435424,-7.456784],[109.434885,-7.456784],[109.434885,-7.457053],[109.434615,-7.457053],[109.434615,-7.457323],[109.434076,-7.457323],[109.434076,-7.457592],[109.433537,-7.457592],[109.433537,-7.457862],[109.432729,-7.457862],[109.432729,-7.458131],[109.432459,-7.458131],[109.432459,-7.458401],[109.43192,-7.458401],[109.43192,-7.45867],[109.431651,-7.45867],[109.431651,-7.45894],[109.431112,-7.45894],[109.431112,-7.459209],[109.430842,-7.459209],[109.430842,-7.459479],[109.430034,-7.459479],[109.430034,-7.459209],[109.429764,-7.459209],[109.429764,-7.45894],[109.429495,-7.45894],[109.429495,-7.45867],[109.429225,-7.45867],[109.429225,-7.457862],[109.428956,-7.457862],[109.428956,-7.457323],[109.428686,-7.457323],[109.428686,-7.456245],[109.428417,-7.456245],[109.428417,-7.455167],[109.428147,-7.455167],[109.428147,-7.454897],[109.427339,-7.454897],[109.427339,-7.454628],[109.427069,-7.454628],[109.427069,-7.454897],[109.42653,-7.454897],[109.42653,-7.455167],[109.425991,-7.455167],[109.425991,-7.455436],[109.425722,-7.455436],[109.425722,-7.456514],[109.425991,-7.456514],[109.425991,-7.456784],[109.426261,-7.456784],[109.426261,-7.457053],[109.4268,-7.457053],[109.4268,-7.457323],[109.427069,-7.457323],[109.427069,-7.457592],[109.427608,-7.457592],[109.427608,-7.45867],[109.427339,-7.45867],[109.427339,-7.45894],[109.427069,-7.45894],[109.427069,-7.459209],[109.425183,-7.459209],[109.425183,-7.45894],[109.424105,-7.45894],[109.424105,-7.45867],[109.423566,-7.45867],[109.423566,-7.45894],[109.423027,-7.45894],[109.423027,-7.459209],[109.422757,-7.459209],[109.422757,-7.459748],[109.423027,-7.459748],[109.423027,-7.460018],[109.423296,-7.460018],[109.423296,-7.460287],[109.423566,-7.460287],[109.423566,-7.460557],[109.423835,-7.460557],[109.423835,-7.463521],[109.424105,-7.463521],[109.424105,-7.46406],[109.424374,-7.46406],[109.424374,-7.465677],[109.424644,-7.465677],[109.424644,-7.467833],[109.424374,-7.467833],[109.424374,-7.468103],[109.424105,-7.468103],[109.424105,-7.468372],[109.423835,-7.468372],[109.423835,-7.468911],[109.423296,-7.468911],[109.423296,-7.469181],[109.423027,-7.469181],[109.423027,-7.46945],[109.422488,-7.46945],[109.422488,-7.46972],[109.421949,-7.46972],[109.421949,-7.469989],[109.42141,-7.469989],[109.42141,-7.470259],[109.420871,-7.470259],[109.420871,-7.470528],[109.420062,-7.470528],[109.420062,-7.470797],[109.419523,-7.470797],[109.419523,-7.471067],[109.418984,-7.471067],[109.418984,-7.471336],[109.418715,-7.471336],[109.418715,-7.471606],[109.418445,-7.471606],[109.418445,-7.472145],[109.418176,-7.472145],[109.418176,-7.472953],[109.418445,-7.472953],[109.418445,-7.473223],[109.418715,-7.473223],[109.418715,-7.473492],[109.418984,-7.473492],[109.418984,-7.473762],[109.419254,-7.473762],[109.419254,-7.474031],[109.419523,-7.474031],[109.419523,-7.47457],[109.419793,-7.47457],[109.419793,-7.47484],[109.420062,-7.47484],[109.420062,-7.476187],[109.419793,-7.476187],[109.419793,-7.477535],[109.419523,-7.477535],[109.419523,-7.478074],[109.419254,-7.478074],[109.419254,-7.478613],[109.418984,-7.478613],[109.418984,-7.478882],[109.418445,-7.478882],[109.418445,-7.479152],[109.417368,-7.479152],[109.417368,-7.478882],[109.414403,-7.478882],[109.414403,-7.478613],[109.413595,-7.478613],[109.413595,-7.478343],[109.412786,-7.478343],[109.412786,-7.478074],[109.412247,-7.478074],[109.412247,-7.477804],[109.411708,-7.477804],[109.411708,-7.477265],[109.411439,-7.477265],[109.411439,-7.476457],[109.411708,-7.476457],[109.411708,-7.475918],[109.411978,-7.475918],[109.411978,-7.475109],[109.412247,-7.475109],[109.412247,-7.474301],[109.412517,-7.474301],[109.412517,-7.473492],[109.412786,-7.473492],[109.412786,-7.472684],[109.413056,-7.472684],[109.413056,-7.471875],[109.413325,-7.471875],[109.413325,-7.471067],[109.413056,-7.471067],[109.413056,-7.470797],[109.412786,-7.470797],[109.412786,-7.470528],[109.411169,-7.470528],[109.411169,-7.470797],[109.41063,-7.470797],[109.41063,-7.471067],[109.410091,-7.471067],[109.410091,-7.471336],[109.409552,-7.471336],[109.409552,-7.471606],[109.409013,-7.471606],[109.409013,-7.471336],[109.407935,-7.471336],[109.407935,-7.471067],[109.407666,-7.471067],[109.407666,-7.470797],[109.407127,-7.470797],[109.407127,-7.470528],[109.406857,-7.470528],[109.406857,-7.470259],[109.406588,-7.470259],[109.406588,-7.469989],[109.406318,-7.469989],[109.406318,-7.46972],[109.405779,-7.46972],[109.405779,-7.46945],[109.40551,-7.46945],[109.40551,-7.469181],[109.40524,-7.469181],[109.40524,-7.468911],[109.404971,-7.468911],[109.404971,-7.468642],[109.404701,-7.468642],[109.404701,-7.468372],[109.404162,-7.468372],[109.404162,-7.468103],[109.403893,-7.468103],[109.403893,-7.467833],[109.403623,-7.467833],[109.403623,-7.467564],[109.403354,-7.467564],[109.403354,-7.467294],[109.400928,-7.467294],[109.400928,-7.467564],[109.400659,-7.467564],[109.400659,-7.468372],[109.400928,-7.468372],[109.400928,-7.468911],[109.401198,-7.468911],[109.401198,-7.469181],[109.401467,-7.469181],[109.401467,-7.46945],[109.401737,-7.46945],[109.401737,-7.46972],[109.402006,-7.46972],[109.402006,-7.470259],[109.402276,-7.470259],[109.402276,-7.470528],[109.402545,-7.470528],[109.402545,-7.470797],[109.402815,-7.470797],[109.402815,-7.471336],[109.403084,-7.471336],[109.403084,-7.471875],[109.403354,-7.471875],[109.403354,-7.472684],[109.403623,-7.472684],[109.403623,-7.473762],[109.403893,-7.473762],[109.403893,-7.474301],[109.403623,-7.474301],[109.403623,-7.475109],[109.403354,-7.475109],[109.403354,-7.475379],[109.403084,-7.475379],[109.403084,-7.475648],[109.402815,-7.475648],[109.402815,-7.475918],[109.401467,-7.475918],[109.401467,-7.475648],[109.400659,-7.475648],[109.400659,-7.475379],[109.39985,-7.475379],[109.39985,-7.475109],[109.399311,-7.475109],[109.399311,-7.47484],[109.398772,-7.47484],[109.398772,-7.47457],[109.397694,-7.47457],[109.397694,-7.474301],[109.394191,-7.474301],[109.394191,-7.47457],[109.393652,-7.47457],[109.393652,-7.47484],[109.393383,-7.47484],[109.393383,-7.475109],[109.393113,-7.475109],[109.393113,-7.475379],[109.392844,-7.475379],[109.392844,-7.475648],[109.392305,-7.475648],[109.392305,-7.475918],[109.391766,-7.475918],[109.391766,-7.476187],[109.390688,-7.476187],[109.390688,-7.476457],[109.389879,-7.476457],[109.389879,-7.476726],[109.388801,-7.476726],[109.388801,-7.476996],[109.387723,-7.476996],[109.387723,-7.477265],[109.386915,-7.477265],[109.386915,-7.477535],[109.386106,-7.477535],[109.386106,-7.477804],[109.385837,-7.477804],[109.385837,-7.478074],[109.385567,-7.478074],[109.385567,-7.478343],[109.385298,-7.478343],[109.385298,-7.478613],[109.385028,-7.478613],[109.385028,-7.478882],[109.384489,-7.478882],[109.384489,-7.479152],[109.38395,-7.479152],[109.38395,-7.479421],[109.383411,-7.479421],[109.383411,-7.479691],[109.382872,-7.479691],[109.382872,-7.47996],[109.382603,-7.47996],[109.382603,-7.48023],[109.382333,-7.48023],[109.382333,-7.480499],[109.382064,-7.480499],[109.382064,-7.480769],[109.381794,-7.480769],[109.381794,-7.481038],[109.381525,-7.481038],[109.381525,-7.482116],[109.381255,-7.482116],[109.381255,-7.482655],[109.380986,-7.482655],[109.380986,-7.482925],[109.380716,-7.482925],[109.380716,-7.482655],[109.380177,-7.482655],[109.380177,-7.482386],[109.379638,-7.482386],[109.379638,-7.482116],[109.379099,-7.482116],[109.379099,-7.481847],[109.37883,-7.481847],[109.37883,-7.481577],[109.378291,-7.481577],[109.378291,-7.481308],[109.378021,-7.481308],[109.378021,-7.481038],[109.377752,-7.481038],[109.377752,-7.480769],[109.377482,-7.480769],[109.377482,-7.480499],[109.377213,-7.480499],[109.377213,-7.48023],[109.376944,-7.48023],[109.376944,-7.47996],[109.376674,-7.47996],[109.376674,-7.479421],[109.376405,-7.479421],[109.376405,-7.478882],[109.375866,-7.478882],[109.375866,-7.478613],[109.375596,-7.478613],[109.375596,-7.478343],[109.375057,-7.478343],[109.375057,-7.478074],[109.374788,-7.478074],[109.374788,-7.477804],[109.373171,-7.477804],[109.373171,-7.478074],[109.372901,-7.478074],[109.372901,-7.478613],[109.372632,-7.478613],[109.372632,-7.47996],[109.372901,-7.47996],[109.372901,-7.481847],[109.373171,-7.481847],[109.373171,-7.482116],[109.372901,-7.482116],[109.372901,-7.483194],[109.372632,-7.483194],[109.372632,-7.483733],[109.372362,-7.483733],[109.372362,-7.484272],[109.372093,-7.484272],[109.372093,-7.484542],[109.371823,-7.484542],[109.371823,-7.484811],[109.371554,-7.484811],[109.371554,-7.485081],[109.371015,-7.485081],[109.371015,-7.48535],[109.370206,-7.48535],[109.370206,-7.48562],[109.368859,-7.48562],[109.368859,-7.485889],[109.366972,-7.485889],[109.366972,-7.486159],[109.366433,-7.486159],[109.366433,-7.486428],[109.365894,-7.486428],[109.365894,-7.486698],[109.365355,-7.486698],[109.365355,-7.486967],[109.364816,-7.486967],[109.364816,-7.487237],[109.363738,-7.487237],[109.363738,-7.486967],[109.363469,-7.486967],[109.363469,-7.486698],[109.363199,-7.486698],[109.363199,-7.486428],[109.36293,-7.486428],[109.36293,-7.486159],[109.36266,-7.486159],[109.36266,-7.485889],[109.362391,-7.485889],[109.362391,-7.48562],[109.361582,-7.48562],[109.361582,-7.486428],[109.361313,-7.486428],[109.361313,-7.486698],[109.361582,-7.486698],[109.361582,-7.487776],[109.361852,-7.487776],[109.361852,-7.488854],[109.362121,-7.488854],[109.362121,-7.488584],[109.363199,-7.488584],[109.363199,-7.489662],[109.363469,-7.489662],[109.363469,-7.489932],[109.363738,-7.489932],[109.363738,-7.490471],[109.363469,-7.490471],[109.363469,-7.491009],[109.363738,-7.491009],[109.363738,-7.491279],[109.364008,-7.491279],[109.364008,-7.493435],[109.363738,-7.493435],[109.363738,-7.493704],[109.363469,-7.493704],[109.363469,-7.493974],[109.363199,-7.493974],[109.363199,-7.494513],[109.36293,-7.494513],[109.36293,-7.494782],[109.363199,-7.494782],[109.363199,-7.495052],[109.363469,-7.495052],[109.363469,-7.494782],[109.364816,-7.494782],[109.364816,-7.495591],[109.364547,-7.495591],[109.364547,-7.49613],[109.365086,-7.49613],[109.365086,-7.496399],[109.365355,-7.496399],[109.365355,-7.496669],[109.365894,-7.496669],[109.365894,-7.497477],[109.365625,-7.497477],[109.365625,-7.497747],[109.365355,-7.497747],[109.365355,-7.498016],[109.365086,-7.498016],[109.365086,-7.498286],[109.365355,-7.498286],[109.365355,-7.499094],[109.364816,-7.499094],[109.364816,-7.499364],[109.36293,-7.499364],[109.36293,-7.499903],[109.36266,-7.499903],[109.36266,-7.500172],[109.36293,-7.500172],[109.36293,-7.500442],[109.363469,-7.500442],[109.363469,-7.500711],[109.364277,-7.500711],[109.364277,-7.500981],[109.364816,-7.500981],[109.364816,-7.50152],[109.365086,-7.50152],[109.365086,-7.502328],[109.364816,-7.502328],[109.364816,-7.503137],[109.365086,-7.503137],[109.365086,-7.503406],[109.365355,-7.503406],[109.365355,-7.503676],[109.365086,-7.503676],[109.365086,-7.503945],[109.364816,-7.503945],[109.364816,-7.504484],[109.365086,-7.504484],[109.365086,-7.504754],[109.364816,-7.504754],[109.364816,-7.505293],[109.364547,-7.505293],[109.364547,-7.505832],[109.364277,-7.505832],[109.364277,-7.506101],[109.364008,-7.506101],[109.364008,-7.50664],[109.364277,-7.50664],[109.364277,-7.507179],[109.365086,-7.507179],[109.365086,-7.508257],[109.364816,-7.508257],[109.364816,-7.508527],[109.365355,-7.508527],[109.365355,-7.508257],[109.365894,-7.508257],[109.365894,-7.507988],[109.366433,-7.507988],[109.366433,-7.507718],[109.367242,-7.507718],[109.367242,-7.507449],[109.368589,-7.507449],[109.368589,-7.507179],[109.369937,-7.507179],[109.369937,-7.50691],[109.371284,-7.50691],[109.371284,-7.50664],[109.372632,-7.50664],[109.372632,-7.506371],[109.373979,-7.506371],[109.373979,-7.506101],[109.375327,-7.506101],[109.375327,-7.505832],[109.376674,-7.505832],[109.376674,-7.505562],[109.378021,-7.505562],[109.378021,-7.505293],[109.379369,-7.505293],[109.379369,-7.505023],[109.382064,-7.505023],[109.382064,-7.504754],[109.385298,-7.504754],[109.385298,-7.504484],[109.388532,-7.504484],[109.388532,-7.504215],[109.392035,-7.504215],[109.392035,-7.503945],[109.396078,-7.503945],[109.396078,-7.503676],[109.400389,-7.503676],[109.400389,-7.503406],[109.402545,-7.503406],[109.402545,-7.503137],[109.404701,-7.503137],[109.404701,-7.502867],[109.406857,-7.502867],[109.406857,-7.502598],[109.409013,-7.502598],[109.409013,-7.502328],[109.410361,-7.502328],[109.410361,-7.502059],[109.4109,-7.502059],[109.4109,-7.501789],[109.411708,-7.501789],[109.411708,-7.50152],[109.412247,-7.50152],[109.412247,-7.50125],[109.413056,-7.50125],[109.413056,-7.500981],[109.413864,-7.500981],[109.413864,-7.500711],[109.414403,-7.500711],[109.414403,-7.500442],[109.415212,-7.500442],[109.415212,-7.500172],[109.415751,-7.500172],[109.415751,-7.499903],[109.416559,-7.499903],[109.416559,-7.499633],[109.417098,-7.499633],[109.417098,-7.499364],[109.417637,-7.499364],[109.417637,-7.499094],[109.418176,-7.499094],[109.418176,-7.498825],[109.418715,-7.498825],[109.418715,-7.498555],[109.419523,-7.498555],[109.419523,-7.498286],[109.420062,-7.498286],[109.420062,-7.498016],[109.420601,-7.498016],[109.420601,-7.497747],[109.42114,-7.497747],[109.42114,-7.497477],[109.421679,-7.497477],[109.421679,-7.497208],[109.422218,-7.497208],[109.422218,-7.496938],[109.422488,-7.496938],[109.422488,-7.496669],[109.422757,-7.496669],[109.422757,-7.496399],[109.423027,-7.496399],[109.423027,-7.49613],[109.423296,-7.49613],[109.423296,-7.49586],[109.423566,-7.49586],[109.423566,-7.495591],[109.423835,-7.495591],[109.423835,-7.495321],[109.424105,-7.495321],[109.424105,-7.495052],[109.424374,-7.495052],[109.424374,-7.494782],[109.424644,-7.494782],[109.424644,-7.494513],[109.424913,-7.494513],[109.424913,-7.494243],[109.425183,-7.494243],[109.425183,-7.493974],[109.425452,-7.493974],[109.425452,-7.493704],[109.425722,-7.493704],[109.425722,-7.493435],[109.425991,-7.493435],[109.425991,-7.493165],[109.426261,-7.493165],[109.426261,-7.492896],[109.428686,-7.492896],[109.428686,-7.492626],[109.431651,-7.492626],[109.431651,-7.492896],[109.432459,-7.492896],[109.432459,-7.493165],[109.433268,-7.493165],[109.433268,-7.493435],[109.433807,-7.493435],[109.433807,-7.493704],[109.434615,-7.493704],[109.434615,-7.493974],[109.43731,-7.493974],[109.43731,-7.494243],[109.439735,-7.494243],[109.439735,-7.494513],[109.442161,-7.494513],[109.442161,-7.494782],[109.444317,-7.494782],[109.444317,-7.494513],[109.444586,-7.494513],[109.444586,-7.494243],[109.445125,-7.494243],[109.445125,-7.493974],[109.445664,-7.493974],[109.445664,-7.493704],[109.445934,-7.493704],[109.445934,-7.493435],[109.446473,-7.493435],[109.446473,-7.493165],[109.447281,-7.493165],[109.447281,-7.492896],[109.45348,-7.492896],[109.45348,-7.492626],[109.454019,-7.492626],[109.454019,-7.492357],[109.454827,-7.492357],[109.454827,-7.492087],[109.455366,-7.492087],[109.455366,-7.491818],[109.456175,-7.491818],[109.456175,-7.492087],[109.459139,-7.492087],[109.459139,-7.492357],[109.459947,-7.492357],[109.459947,-7.492626],[109.460756,-7.492626],[109.460756,-7.492896],[109.461295,-7.492896],[109.461295,-7.493165],[109.461834,-7.493165],[109.461834,-7.493435],[109.462373,-7.493435],[109.462373,-7.493704],[109.463181,-7.493704],[109.463181,-7.493974],[109.46372,-7.493974],[109.46372,-7.494243],[109.464259,-7.494243],[109.464259,-7.494513],[109.464529,-7.494513],[109.464529,-7.494782],[109.465068,-7.494782],[109.465068,-7.495052],[109.465337,-7.495052],[109.465337,-7.495321],[109.465607,-7.495321],[109.465607,-7.495591],[109.466146,-7.495591],[109.466146,-7.49586],[109.468571,-7.49586],[109.468571,-7.49613],[109.470188,-7.49613],[109.470188,-7.49586],[109.470997,-7.49586],[109.470997,-7.495591],[109.471805,-7.495591],[109.471805,-7.495321],[109.473153,-7.495321],[109.473153,-7.495052],[109.47477,-7.495052],[109.47477,-7.494782],[109.476656,-7.494782],[109.476656,-7.494513],[109.478542,-7.494513],[109.478542,-7.493435],[109.478812,-7.493435],[109.478812,-7.492357],[109.479081,-7.492357],[109.479081,-7.491009],[109.479351,-7.491009],[109.479351,-7.490471],[109.479081,-7.490471],[109.479081,-7.489662],[109.478812,-7.489662],[109.478812,-7.489123],[109.478542,-7.489123],[109.478542,-7.488315],[109.478273,-7.488315],[109.478273,-7.487776],[109.478542,-7.487776],[109.478542,-7.487237],[109.478812,-7.487237],[109.478812,-7.486698],[109.479081,-7.486698],[109.479081,-7.486159],[109.479351,-7.486159],[109.479351,-7.485889],[109.47962,-7.485889],[109.47962,-7.48562],[109.47989,-7.48562],[109.47989,-7.48535],[109.480429,-7.48535],[109.480429,-7.485081],[109.480698,-7.485081],[109.480698,-7.484811],[109.481237,-7.484811],[109.481237,-7.484542],[109.481776,-7.484542],[109.481776,-7.484272],[109.482046,-7.484272],[109.482046,-7.47996],[109.481776,-7.47996],[109.481776,-7.479691],[109.480968,-7.479691],[109.480968,-7.479421],[109.480429,-7.479421],[109.480429,-7.479152],[109.47962,-7.479152],[109.47962,-7.478882],[109.479081,-7.478882],[109.479081,-7.478613],[109.478273,-7.478613],[109.478273,-7.478343],[109.477195,-7.478343],[109.477195,-7.478074],[109.476387,-7.478074],[109.476387,-7.477804],[109.475578,-7.477804],[109.475578,-7.477535],[109.47477,-7.477535],[109.47477,-7.477265],[109.4745,-7.477265],[109.4745,-7.476726],[109.474231,-7.476726],[109.474231,-7.476187],[109.473961,-7.476187],[109.473961,-7.475918],[109.473692,-7.475918],[109.473692,-7.475379],[109.473422,-7.475379],[109.473422,-7.475109],[109.473153,-7.475109],[109.473153,-7.474301],[109.473422,-7.474301],[109.473422,-7.474031],[109.473961,-7.474031],[109.473961,-7.473762],[109.474231,-7.473762],[109.474231,-7.473492],[109.4745,-7.473492],[109.4745,-7.473223],[109.47477,-7.473223],[109.47477,-7.472953],[109.475039,-7.472953],[109.475039,-7.472684],[109.475309,-7.472684],[109.475309,-7.472414],[109.475578,-7.472414],[109.475578,-7.472145],[109.475848,-7.472145],[109.475848,-7.471875],[109.476387,-7.471875],[109.476387,-7.471606],[109.476656,-7.471606],[109.476656,-7.471336],[109.476926,-7.471336],[109.476926,-7.471067],[109.477465,-7.471067],[109.477465,-7.470797],[109.478004,-7.470797],[109.478004,-7.470528],[109.478812,-7.470528],[109.478812,-7.470259],[109.47962,-7.470259],[109.47962,-7.469989],[109.480429,-7.469989],[109.480429,-7.46972],[109.481237,-7.46972],[109.481237,-7.46945],[109.481776,-7.46945],[109.481776,-7.469181],[109.482046,-7.469181],[109.482046,-7.468911],[109.482315,-7.468911],[109.482315,-7.468642],[109.482585,-7.468642],[109.482585,-7.468372],[109.482854,-7.468372],[109.482854,-7.468103],[109.483124,-7.468103],[109.483124,-7.467833],[109.483393,-7.467833],[109.483393,-7.467564],[109.483663,-7.467564],[109.483663,-7.467294],[109.483932,-7.467294],[109.483932,-7.467025],[109.484202,-7.467025],[109.484202,-7.466755],[109.484471,-7.466755],[109.484471,-7.466486],[109.484741,-7.466486],[109.484741,-7.466216],[109.48501,-7.466216],[109.48501,-7.465947],[109.485549,-7.465947],[109.485549,-7.465677],[109.485819,-7.465677],[109.485819,-7.465408],[109.486358,-7.465408],[109.486358,-7.465138],[109.486627,-7.465138],[109.486627,-7.464869],[109.486897,-7.464869],[109.486897,-7.464599],[109.487436,-7.464599],[109.487436,-7.46433],[109.489053,-7.46433],[109.489053,-7.46406],[109.491209,-7.46406],[109.491209,-7.463791],[109.495521,-7.463791],[109.495521,-7.463521],[109.49606,-7.463521],[109.49606,-7.463791],[109.497407,-7.463791],[109.497407,-7.46406],[109.498485,-7.46406],[109.498485,-7.46433],[109.499832,-7.46433],[109.499832,-7.464599],[109.50118,-7.464599],[109.50118,-7.464869],[109.502797,-7.464869],[109.502797,-7.465138],[109.504144,-7.465138],[109.504144,-7.465408],[109.505492,-7.465408],[109.505492,-7.465677],[109.506031,-7.465677],[109.506031,-7.465947],[109.50657,-7.465947],[109.50657,-7.466216],[109.507109,-7.466216],[109.507109,-7.466486],[109.507648,-7.466486],[109.507648,-7.466755],[109.508187,-7.466755],[109.508187,-7.467025],[109.508726,-7.467025],[109.508726,-7.467294],[109.509265,-7.467294],[109.509265,-7.467564],[109.509804,-7.467564],[109.509804,-7.467833],[109.510612,-7.467833],[109.510612,-7.467564],[109.511421,-7.467564],[109.511421,-7.467294],[109.512229,-7.467294],[109.512229,-7.467025],[109.513038,-7.467025],[109.513038,-7.466755],[109.513846,-7.466755],[109.513846,-7.466486],[109.514116,-7.466486],[109.514116,-7.466216],[109.514655,-7.466216],[109.514655,-7.465947],[109.515194,-7.465947],[109.515194,-7.465677],[109.515463,-7.465677],[109.515463,-7.465408],[109.516002,-7.465408],[109.516002,-7.465138],[109.516811,-7.465138],[109.516811,-7.464869],[109.517889,-7.464869],[109.517889,-7.464599],[109.518697,-7.464599],[109.518697,-7.46433],[109.519505,-7.46433],[109.519505,-7.46406],[109.520314,-7.46406],[109.520314,-7.463791],[109.523009,-7.463791],[109.523009,-7.46406],[109.524895,-7.46406],[109.524895,-7.46433],[109.526782,-7.46433],[109.526782,-7.464599],[109.528399,-7.464599],[109.528399,-7.464869],[109.529477,-7.464869],[109.529477,-7.465138],[109.530555,-7.465138],[109.530555,-7.465408],[109.531633,-7.465408],[109.531633,-7.465677],[109.532711,-7.465677],[109.532711,-7.465947],[109.533789,-7.465947],[109.533789,-7.466216],[109.535136,-7.466216],[109.535136,-7.466486],[109.535675,-7.466486],[109.535675,-7.466755],[109.536214,-7.466755],[109.536214,-7.467025],[109.536484,-7.467025],[109.536484,-7.467294],[109.536753,-7.467294],[109.536753,-7.467564],[109.537292,-7.467564],[109.537292,-7.467833],[109.537562,-7.467833],[109.537562,-7.468103],[109.537831,-7.468103],[109.537831,-7.468372],[109.538101,-7.468372],[109.538101,-7.468642],[109.53864,-7.468642],[109.53864,-7.468911],[109.541873,-7.468911],[109.541873,-7.468642],[109.542143,-7.468642],[109.542143,-7.468372],[109.542412,-7.468372],[109.542412,-7.468103],[109.542682,-7.468103],[109.542682,-7.467564],[109.542951,-7.467564],[109.542951,-7.467294],[109.543221,-7.467294],[109.543221,-7.467025],[109.54349,-7.467025],[109.54349,-7.466486],[109.54376,-7.466486],[109.54376,-7.466216],[109.544029,-7.466216],[109.544029,-7.465947],[109.544299,-7.465947],[109.544299,-7.465408],[109.544568,-7.465408],[109.544568,-7.465138],[109.544838,-7.465138],[109.544838,-7.464599],[109.545107,-7.464599],[109.545107,-7.46433],[109.545377,-7.46433],[109.545377,-7.46406],[109.545646,-7.46406],[109.545646,-7.463791],[109.545916,-7.463791],[109.545916,-7.463521],[109.546185,-7.463521],[109.546185,-7.463252],[109.546455,-7.463252],[109.546455,-7.462982],[109.546724,-7.462982],[109.546724,-7.462713],[109.546994,-7.462713],[109.546994,-7.462443],[109.547263,-7.462443],[109.547263,-7.462174],[109.548611,-7.462174],[109.548611,-7.461904],[109.550228,-7.461904],[109.550228,-7.461635],[109.551845,-7.461635],[109.551845,-7.461365],[109.553462,-7.461365],[109.553462,-7.461096],[109.554809,-7.461096],[109.554809,-7.460826],[109.555887,-7.460826],[109.555887,-7.460557],[109.556426,-7.460557],[109.556426,-7.460287],[109.556696,-7.460287],[109.556696,-7.460018],[109.557235,-7.460018],[109.557235,-7.459748],[109.557504,-7.459748],[109.557504,-7.459479],[109.558043,-7.459479],[109.558043,-7.459209],[109.558313,-7.459209],[109.558313,-7.45894],[109.558852,-7.45894],[109.558852,-7.45867],[109.559121,-7.45867],[109.559121,-7.458401],[109.55966,-7.458401],[109.55966,-7.458131],[109.559929,-7.458131],[109.559929,-7.457862],[109.560199,-7.457862],[109.560199,-7.457592],[109.560468,-7.457592],[109.560468,-7.457323],[109.561007,-7.457323],[109.561007,-7.457053],[109.561277,-7.457053],[109.561277,-7.456784],[109.561546,-7.456784],[109.561546,-7.456514],[109.561816,-7.456514],[109.561816,-7.456245],[109.562355,-7.456245],[109.562355,-7.455975],[109.562624,-7.455975],[109.562624,-7.455706],[109.562894,-7.455706],[109.562894,-7.455436],[109.563163,-7.455436],[109.563163,-7.455167],[109.563433,-7.455167],[109.563433,-7.454897],[109.563972,-7.454897],[109.563972,-7.454628],[109.564241,-7.454628],[109.564241,-7.454358],[109.564511,-7.454358],[109.564511,-7.454089],[109.56478,-7.454089],[109.56478,-7.453819],[109.56505,-7.453819],[109.56505,-7.45355],[109.565319,-7.45355],[109.565319,-7.45328],[109.565589,-7.45328],[109.565589,-7.453011],[109.566128,-7.453011],[109.566128,-7.452741],[109.566397,-7.452741],[109.566397,-7.452472],[109.566667,-7.452472],[109.566667,-7.452202],[109.566936,-7.452202],[109.566936,-7.451933],[109.567206,-7.451933],[109.567206,-7.451663],[109.567475,-7.451663],[109.567475,-7.451394],[109.567745,-7.451394],[109.567745,-7.451124],[109.568014,-7.451124],[109.568014,-7.450855],[109.568553,-7.450855],[109.568553,-7.450585],[109.568823,-7.450585],[109.568823,-7.450316],[109.569092,-7.450316],[109.569092,-7.450047],[109.569362,-7.450047],[109.569362,-7.449777],[109.569631,-7.449777],[109.569631,-7.449508],[109.569901,-7.449508],[109.569901,-7.449238],[109.57044,-7.449238],[109.57044,-7.448969],[109.570709,-7.448969],[109.570709,-7.448699],[109.571248,-7.448699],[109.571248,-7.44843],[109.571518,-7.44843],[109.571518,-7.44816],[109.572057,-7.44816],[109.572057,-7.447891],[109.572326,-7.447891],[109.572326,-7.447621],[109.572865,-7.447621],[109.572865,-7.447352],[109.573135,-7.447352],[109.573135,-7.447082],[109.573674,-7.447082],[109.573674,-7.446813],[109.573943,-7.446813],[109.573943,-7.446543],[109.574482,-7.446543],[109.574482,-7.446274],[109.574752,-7.446274],[109.574752,-7.446004],[109.575291,-7.446004],[109.575291,-7.445735],[109.57556,-7.445735],[109.57556,-7.445465],[109.576099,-7.445465],[109.576099,-7.445196],[109.576369,-7.445196],[109.576369,-7.444926],[109.576908,-7.444926],[109.576908,-7.444657],[109.577177,-7.444657],[109.577177,-7.444387],[109.577716,-7.444387],[109.577716,-7.444118],[109.577986,-7.444118],[109.577986,-7.443848],[109.578525,-7.443848],[109.578525,-7.443579],[109.579064,-7.443579],[109.579064,-7.443309],[109.579603,-7.443309],[109.579603,-7.44304],[109.580141,-7.44304],[109.580141,-7.44277],[109.58068,-7.44277],[109.58068,-7.442501],[109.581219,-7.442501],[109.581219,-7.442231],[109.581758,-7.442231],[109.581758,-7.441962],[109.582297,-7.441962],[109.582297,-7.441692],[109.582836,-7.441692],[109.582836,-7.441423],[109.583375,-7.441423],[109.583375,-7.441153],[109.583914,-7.441153],[109.583914,-7.440884],[109.584184,-7.440884],[109.584184,-7.440614],[109.584453,-7.440614],[109.584453,-7.440345],[109.584723,-7.440345],[109.584723,-7.440075],[109.584992,-7.440075],[109.584992,-7.439806],[109.585262,-7.439806],[109.585262,-7.439536],[109.585531,-7.439536],[109.585531,-7.439267],[109.585801,-7.439267],[109.585801,-7.438997],[109.58607,-7.438997],[109.58607,-7.438728],[109.58634,-7.438728],[109.58634,-7.438458],[109.586609,-7.438458],[109.586609,-7.438189],[109.586879,-7.438189],[109.586879,-7.437919],[109.587148,-7.437919],[109.587148,-7.43765],[109.587418,-7.43765],[109.587418,-7.43738],[109.587687,-7.43738],[109.587687,-7.437111],[109.587957,-7.437111],[109.587957,-7.436572],[109.588226,-7.436572],[109.588226,-7.436302],[109.588496,-7.436302],[109.588496,-7.435763],[109.588765,-7.435763],[109.588765,-7.435494],[109.589035,-7.435494],[109.589035,-7.434955],[109.589304,-7.434955],[109.589304,-7.434685],[109.589574,-7.434685],[109.589574,-7.434146],[109.589843,-7.434146],[109.589843,-7.433877],[109.590113,-7.433877],[109.590113,-7.433338],[109.590382,-7.433338],[109.590382,-7.433068],[109.590652,-7.433068],[109.590652,-7.432799],[109.590921,-7.432799],[109.590921,-7.43226],[109.591191,-7.43226],[109.591191,-7.43199],[109.59146,-7.43199],[109.59146,-7.431451],[109.59173,-7.431451],[109.59173,-7.430912],[109.591999,-7.430912],[109.591999,-7.430373],[109.592269,-7.430373],[109.592269,-7.430104],[109.592538,-7.430104],[109.592538,-7.429565],[109.592808,-7.429565],[109.592808,-7.429026],[109.593077,-7.429026],[109.593077,-7.428487],[109.593347,-7.428487],[109.593347,-7.428218],[109.593616,-7.428218],[109.593616,-7.427679],[109.593886,-7.427679],[109.593886,-7.42714],[109.594155,-7.42714],[109.594155,-7.426601],[109.594425,-7.426601],[109.594425,-7.426331],[109.594694,-7.426331],[109.594694,-7.426062],[109.594964,-7.426062],[109.594964,-7.425792],[109.595503,-7.425792],[109.595503,-7.425523],[109.595772,-7.425523],[109.595772,-7.425253],[109.596311,-7.425253],[109.596311,-7.424984],[109.596581,-7.424984],[109.596581,-7.424714],[109.59712,-7.424714],[109.59712,-7.424445],[109.597389,-7.424445],[109.597389,-7.424175],[109.597928,-7.424175],[109.597928,-7.423906],[109.598198,-7.423906],[109.598198,-7.423636],[109.598467,-7.423636],[109.598467,-7.423367],[109.598737,-7.423367],[109.598737,-7.423097],[109.599006,-7.423097],[109.599006,-7.422828],[109.599545,-7.422828],[109.599545,-7.422558],[109.599815,-7.422558],[109.599815,-7.422289],[109.600353,-7.422289],[109.600353,-7.422019],[109.600623,-7.422019],[109.600623,-7.42175],[109.601162,-7.42175],[109.601162,-7.42148],[109.601431,-7.42148],[109.601431,-7.421211],[109.60197,-7.421211],[109.60197,-7.420941],[109.60224,-7.420941],[109.60224,-7.420672],[109.602779,-7.420672],[109.602779,-7.420402],[109.603048,-7.420402],[109.603048,-7.420133],[109.603857,-7.420133],[109.603857,-7.419863],[109.604396,-7.419863],[109.604396,-7.419594],[109.605204,-7.419594],[109.605204,-7.419324],[109.606013,-7.419324],[109.606013,-7.419055],[109.606552,-7.419055],[109.606552,-7.418785],[109.60736,-7.418785],[109.60736,-7.418516],[109.608169,-7.418516],[109.608169,-7.418246],[109.608977,-7.418246],[109.608977,-7.417977],[109.609516,-7.417977],[109.609516,-7.417707],[109.609786,-7.417707],[109.609786,-7.417438],[109.610055,-7.417438],[109.610055,-7.417168],[109.610594,-7.417168],[109.610594,-7.416899],[109.610864,-7.416899],[109.610864,-7.416629],[109.611403,-7.416629],[109.611403,-7.41636],[109.611672,-7.41636],[109.611672,-7.41609],[109.611942,-7.41609],[109.611942,-7.415821],[109.612481,-7.415821],[109.612481,-7.415551],[109.61275,-7.415551],[109.61275,-7.415282],[109.61302,-7.415282],[109.61302,-7.415012],[109.613289,-7.415012],[109.613289,-7.414473],[109.613559,-7.414473],[109.613559,-7.413934],[109.613828,-7.413934],[109.613828,-7.413126],[109.614098,-7.413126],[109.614098,-7.412587],[109.614367,-7.412587],[109.614367,-7.411778],[109.614637,-7.411778],[109.614637,-7.411239],[109.614906,-7.411239],[109.614906,-7.4107],[109.615176,-7.4107],[109.615176,-7.410161],[109.615445,-7.410161],[109.615445,-7.409892],[109.615984,-7.409892],[109.615984,-7.409623],[109.616523,-7.409623],[109.616523,-7.409353],[109.616793,-7.409353],[109.616793,-7.409084],[109.617332,-7.409084],[109.617332,-7.408814],[109.617601,-7.408814],[109.617601,-7.408545],[109.61814,-7.408545],[109.61814,-7.408275],[109.618679,-7.408275],[109.618679,-7.408006],[109.619488,-7.408006],[109.619488,-7.407736],[109.620296,-7.407736],[109.620296,-7.407467],[109.620835,-7.407467],[109.620835,-7.407197],[109.621643,-7.407197],[109.621643,-7.406928],[109.622452,-7.406928],[109.622452,-7.406658],[109.622991,-7.406658],[109.622991,-7.406389],[109.623799,-7.406389],[109.623799,-7.406119],[109.624608,-7.406119],[109.624608,-7.40585],[109.625686,-7.40585],[109.625686,-7.40558],[109.628111,-7.40558],[109.628111,-7.405311],[109.630267,-7.405311],[109.630267,-7.405041],[109.632423,-7.405041],[109.632423,-7.404772],[109.633501,-7.404772],[109.633501,-7.404502],[109.63431,-7.404502],[109.63431,-7.404233],[109.635118,-7.404233],[109.635118,-7.403963],[109.636196,-7.403963],[109.636196,-7.403694],[109.637274,-7.403694],[109.637274,-7.403424],[109.638083,-7.403424],[109.638083,-7.403155],[109.639161,-7.403155],[109.639161,-7.402885],[109.640239,-7.402885],[109.640239,-7.402616],[109.641047,-7.402616],[109.641047,-7.402346],[109.642125,-7.402346],[109.642125,-7.402077],[109.643203,-7.402077],[109.643203,-7.401807],[109.644011,-7.401807],[109.644011,-7.401538],[109.645089,-7.401538],[109.645089,-7.401268],[109.646167,-7.401268],[109.646167,-7.400999],[109.648054,-7.400999],[109.648054,-7.401268],[109.649671,-7.401268],[109.649671,-7.401538],[109.651288,-7.401538],[109.651288,-7.401807],[109.652905,-7.401807],[109.652905,-7.402077],[109.653174,-7.402077],[109.653174,-7.402346],[109.653713,-7.402346],[109.653713,-7.402616],[109.654252,-7.402616],[109.654252,-7.402885],[109.654791,-7.402885],[109.654791,-7.403155],[109.655061,-7.403155],[109.655061,-7.403424],[109.6556,-7.403424],[109.6556,-7.403694],[109.656139,-7.403694],[109.656139,-7.403963],[109.656678,-7.403963],[109.656678,-7.404233],[109.656947,-7.404233],[109.656947,-7.404502],[109.657486,-7.404502],[109.657486,-7.404772],[109.658025,-7.404772],[109.658025,-7.405041],[109.658564,-7.405041],[109.658564,-7.405311],[109.658834,-7.405311],[109.658834,-7.40558],[109.659373,-7.40558],[109.659373,-7.40585],[109.659912,-7.40585],[109.659912,-7.406119],[109.660451,-7.406119],[109.660451,-7.406389],[109.66072,-7.406389],[109.66072,-7.406658],[109.661259,-7.406658],[109.661259,-7.406928],[109.661798,-7.406928],[109.661798,-7.407197],[109.662337,-7.407197],[109.662337,-7.407467],[109.662606,-7.407467],[109.662606,-7.407736],[109.663145,-7.407736],[109.663145,-7.408006],[109.663684,-7.408006],[109.663684,-7.408275],[109.663954,-7.408275],[109.663954,-7.408545],[109.664493,-7.408545],[109.664493,-7.408814],[109.665032,-7.408814],[109.665032,-7.409084],[109.665301,-7.409084],[109.665301,-7.409353],[109.66584,-7.409353],[109.66584,-7.409623],[109.666379,-7.409623],[109.666379,-7.409892],[109.667188,-7.409892],[109.667188,-7.410161],[109.668266,-7.410161],[109.668266,-7.410431],[109.669344,-7.410431],[109.669344,-7.4107],[109.670691,-7.4107],[109.670691,-7.41097],[109.671769,-7.41097],[109.671769,-7.411239],[109.673117,-7.411239],[109.673117,-7.41097],[109.673386,-7.41097],[109.673386,-7.4107],[109.673925,-7.4107],[109.673925,-7.410431],[109.674195,-7.410431],[109.674195,-7.410161],[109.674734,-7.410161],[109.674734,-7.409892],[109.675003,-7.409892],[109.675003,-7.409623],[109.675542,-7.409623],[109.675542,-7.409353],[109.676081,-7.409353],[109.676081,-7.409084],[109.676351,-7.409084],[109.676351,-7.408814],[109.67689,-7.408814],[109.67689,-7.408545],[109.677159,-7.408545],[109.677159,-7.408275],[109.677698,-7.408275],[109.677698,-7.408006],[109.677968,-7.408006],[109.677968,-7.407736],[109.678507,-7.407736],[109.678507,-7.407467],[109.679046,-7.407467],[109.679046,-7.407197],[109.679585,-7.407197],[109.679585,-7.406928],[109.679854,-7.406928],[109.679854,-7.406658],[109.680393,-7.406658],[109.680393,-7.406389],[109.680932,-7.406389],[109.680932,-7.406119],[109.681471,-7.406119],[109.681471,-7.40585],[109.68174,-7.40585],[109.68174,-7.40558],[109.682279,-7.40558],[109.682279,-7.405311],[109.682818,-7.405311],[109.682818,-7.405041],[109.683357,-7.405041],[109.683357,-7.404772],[109.683627,-7.404772],[109.683627,-7.404502],[109.683896,-7.404502],[109.683896,-7.404772],[109.685244,-7.404772],[109.685244,-7.405041],[109.686322,-7.405041],[109.686322,-7.405311],[109.687669,-7.405311],[109.687669,-7.40558],[109.688747,-7.40558],[109.688747,-7.40585],[109.690364,-7.40585],[109.690364,-7.406119],[109.691712,-7.406119],[109.691712,-7.406389],[109.693059,-7.406389],[109.693059,-7.406658],[109.694676,-7.406658],[109.694676,-7.406928],[109.695215,-7.406928],[109.695215,-7.406658],[109.695754,-7.406658],[109.695754,-7.406389],[109.696293,-7.406389],[109.696293,-7.406119],[109.696832,-7.406119],[109.696832,-7.40585],[109.697371,-7.40585],[109.697371,-7.40558],[109.697641,-7.40558],[109.697641,-7.405311],[109.69818,-7.405311],[109.69818,-7.405041],[109.698719,-7.405041],[109.698719,-7.404772],[109.699797,-7.404772],[109.699797,-7.404502],[109.701144,-7.404502],[109.701144,-7.404233],[109.702761,-7.404233],[109.702761,-7.403963],[109.704108,-7.403963],[109.704108,-7.403694],[109.704647,-7.403694],[109.704647,-7.403424],[109.705186,-7.403424],[109.705186,-7.403155],[109.705456,-7.403155],[109.705456,-7.402885],[109.705995,-7.402885],[109.705995,-7.402616],[109.706534,-7.402616],[109.706534,-7.402346],[109.707073,-7.402346],[109.707073,-7.402077],[109.707342,-7.402077],[109.707342,-7.401807],[109.707881,-7.401807],[109.707881,-7.401538],[109.70869,-7.401538],[109.70869,-7.401268],[109.709498,-7.401268],[109.709498,-7.400999],[109.710307,-7.400999],[109.710307,-7.400729],[109.711115,-7.400729],[109.711115,-7.40046],[109.712193,-7.40046],[109.712193,-7.40019],[109.713002,-7.40019],[109.713002,-7.399921],[109.715697,-7.399921],[109.715697,-7.399651],[109.715966,-7.399651],[109.715966,-7.399382],[109.716236,-7.399382],[109.716236,-7.399112],[109.717044,-7.399112],[109.717044,-7.398843],[109.717314,-7.398843],[109.717314,-7.398573],[109.717583,-7.398573],[109.717583,-7.398304],[109.71947,-7.398304],[109.71947,-7.398034],[109.720817,-7.398034],[109.720817,-7.397765],[109.721087,-7.397765],[109.721087,-7.397495],[109.721625,-7.397495],[109.721625,-7.397226],[109.721895,-7.397226],[109.721895,-7.396956],[109.722434,-7.396956],[109.722434,-7.396687],[109.722703,-7.396687],[109.722703,-7.396417],[109.722973,-7.396417],[109.722973,-7.396148],[109.723242,-7.396148],[109.723242,-7.395878],[109.723512,-7.395878],[109.723512,-7.395609],[109.723781,-7.395609],[109.723781,-7.395339],[109.724051,-7.395339],[109.724051,-7.39507],[109.72432,-7.39507],[109.72432,-7.3948],[109.72459,-7.3948],[109.72459,-7.394531],[109.725129,-7.394531],[109.725129,-7.394261],[109.727285,-7.394261],[109.727285,-7.393992],[109.729441,-7.393992],[109.729441,-7.393722],[109.731597,-7.393722],[109.731597,-7.393453],[109.732405,-7.393453],[109.732405,-7.393183],[109.733483,-7.393183],[109.733483,-7.392914],[109.734561,-7.392914],[109.734561,-7.392644],[109.73537,-7.392644],[109.73537,-7.392375],[109.736178,-7.392375],[109.736178,-7.392644],[109.738065,-7.392644],[109.738065,-7.392914],[109.739682,-7.392914],[109.739682,-7.393183],[109.741838,-7.393183],[109.741838,-7.393453],[109.744263,-7.393453],[109.744263,-7.393722],[109.746958,-7.393722],[109.746958,-7.393992],[109.749383,-7.393992],[109.749383,-7.394261],[109.751539,-7.394261],[109.751539,-7.394531],[109.761241,-7.394531],[109.761241,-7.3948],[109.765553,-7.3948],[109.765553,-7.39507],[109.767978,-7.39507],[109.767978,-7.394531],[109.768248,-7.394531],[109.768248,-7.393992],[109.768517,-7.393992],[109.768517,-7.393722],[109.768248,-7.393722],[109.768248,-7.393183],[109.767439,-7.393183],[109.767439,-7.392914],[109.764744,-7.392914],[109.764744,-7.393183],[109.763127,-7.393183],[109.763127,-7.392914],[109.762588,-7.392914],[109.762588,-7.392644],[109.76205,-7.392644],[109.76205,-7.392375],[109.761511,-7.392375],[109.761511,-7.392105],[109.760972,-7.392105],[109.760972,-7.391836],[109.760702,-7.391836],[109.760702,-7.391566],[109.760433,-7.391566],[109.760433,-7.391297],[109.760163,-7.391297],[109.760163,-7.390758],[109.759894,-7.390758],[109.759894,-7.390488],[109.759624,-7.390488],[109.759624,-7.390219],[109.759355,-7.390219],[109.759355,-7.38968],[109.759085,-7.38968],[109.759085,-7.38941],[109.758816,-7.38941],[109.758816,-7.389141],[109.758277,-7.389141],[109.758277,-7.388872],[109.754504,-7.388872],[109.754504,-7.389141],[109.753965,-7.389141],[109.753965,-7.38941],[109.753426,-7.38941],[109.753426,-7.38968],[109.752887,-7.38968],[109.752887,-7.389949],[109.752617,-7.389949],[109.752617,-7.390219],[109.752078,-7.390219],[109.752078,-7.390488],[109.751809,-7.390488],[109.751809,-7.390758],[109.750731,-7.390758],[109.750731,-7.390219],[109.751,-7.390219],[109.751,-7.38941],[109.75127,-7.38941],[109.75127,-7.388602],[109.751539,-7.388602],[109.751539,-7.388333],[109.751809,-7.388333],[109.751809,-7.388063],[109.752078,-7.388063],[109.752078,-7.387524],[109.752348,-7.387524],[109.752348,-7.387255],[109.752617,-7.387255],[109.752617,-7.386716],[109.752887,-7.386716],[109.752887,-7.386177],[109.753156,-7.386177],[109.753156,-7.38456],[109.753426,-7.38456],[109.753426,-7.384021],[109.754504,-7.384021],[109.754504,-7.38429],[109.755043,-7.38429],[109.755043,-7.38456],[109.755312,-7.38456],[109.755312,-7.385099],[109.755582,-7.385099],[109.755582,-7.385368],[109.755851,-7.385368],[109.755851,-7.385907],[109.75639,-7.385907],[109.75639,-7.385638],[109.757468,-7.385638],[109.757468,-7.385368],[109.758816,-7.385368],[109.758816,-7.385638],[109.759355,-7.385638],[109.759355,-7.385907],[109.759894,-7.385907],[109.759894,-7.386177],[109.760972,-7.386177],[109.760972,-7.385907],[109.761241,-7.385907],[109.761241,-7.385368],[109.761511,-7.385368],[109.761511,-7.384021],[109.761241,-7.384021],[109.761241,-7.383212],[109.760972,-7.383212],[109.760972,-7.382943],[109.761241,-7.382943],[109.761241,-7.382673],[109.761511,-7.382673],[109.761511,-7.382943],[109.762319,-7.382943],[109.762319,-7.383212],[109.763666,-7.383212],[109.763666,-7.382943],[109.763936,-7.382943],[109.763936,-7.382673],[109.764475,-7.382673],[109.764475,-7.379439],[109.764744,-7.379439],[109.764744,-7.3789],[109.765283,-7.3789],[109.765283,-7.378631],[109.765553,-7.378631],[109.765553,-7.378361],[109.765822,-7.378361],[109.765822,-7.378092],[109.766361,-7.378092],[109.766361,-7.377822],[109.766631,-7.377822],[109.766631,-7.377553],[109.766092,-7.377553],[109.766092,-7.377283],[109.765553,-7.377283],[109.765553,-7.377014],[109.764744,-7.377014],[109.764744,-7.376744],[109.764205,-7.376744],[109.764205,-7.376475],[109.763397,-7.376475],[109.763397,-7.376205],[109.762319,-7.376205],[109.762319,-7.375936],[109.760972,-7.375936],[109.760972,-7.375666],[109.759624,-7.375666],[109.759624,-7.375397],[109.758277,-7.375397],[109.758277,-7.375127],[109.756929,-7.375127],[109.756929,-7.374858],[109.755851,-7.374858],[109.755851,-7.374588],[109.747227,-7.374588],[109.747227,-7.374858],[109.743724,-7.374858],[109.743724,-7.374588],[109.732675,-7.374588],[109.732675,-7.374319],[109.729441,-7.374319],[109.729441,-7.374049],[109.726476,-7.374049],[109.726476,-7.37378],[109.723512,-7.37378],[109.723512,-7.37351],[109.720548,-7.37351],[109.720548,-7.373241],[109.719739,-7.373241],[109.719739,-7.372971],[109.7192,-7.372971],[109.7192,-7.372702],[109.718392,-7.372702],[109.718392,-7.372432],[109.717583,-7.372432],[109.717583,-7.372163],[109.717044,-7.372163],[109.717044,-7.371893],[109.716236,-7.371893],[109.716236,-7.371624],[109.715427,-7.371624],[109.715427,-7.371354],[109.714888,-7.371354],[109.714888,-7.371085],[109.71408,-7.371085],[109.71408,-7.370815],[109.713541,-7.370815],[109.713541,-7.370546],[109.713002,-7.370546],[109.713002,-7.370276],[109.712732,-7.370276],[109.712732,-7.370007],[109.712193,-7.370007],[109.712193,-7.369737],[109.711924,-7.369737],[109.711924,-7.369468],[109.711385,-7.369468],[109.711385,-7.369198],[109.711115,-7.369198],[109.711115,-7.368929],[109.710576,-7.368929],[109.710576,-7.36866],[109.710307,-7.36866],[109.710307,-7.36839],[109.709768,-7.36839],[109.709768,-7.368121],[109.709498,-7.368121],[109.709498,-7.367851],[109.708959,-7.367851],[109.708959,-7.367582],[109.70869,-7.367582],[109.70869,-7.367312],[109.708151,-7.367312],[109.708151,-7.367043],[109.707881,-7.367043],[109.707881,-7.366773],[109.707342,-7.366773],[109.707342,-7.366504],[109.707073,-7.366504],[109.707073,-7.366234],[109.706803,-7.366234],[109.706803,-7.365695],[109.706534,-7.365695],[109.706534,-7.364887],[109.706264,-7.364887],[109.706264,-7.364348],[109.705995,-7.364348],[109.705995,-7.363539],[109.705725,-7.363539],[109.705725,-7.363],[109.705456,-7.363],[109.705456,-7.362731],[109.705186,-7.362731],[109.705186,-7.362461],[109.704917,-7.362461],[109.704917,-7.362192],[109.704647,-7.362192],[109.704647,-7.361653],[109.704378,-7.361653],[109.704378,-7.361383],[109.704108,-7.361383],[109.704108,-7.361114],[109.703839,-7.361114],[109.703839,-7.360844],[109.703569,-7.360844],[109.703569,-7.360305],[109.7033,-7.360305],[109.7033,-7.360036],[109.70303,-7.360036],[109.70303,-7.359766],[109.702761,-7.359766],[109.702761,-7.359497],[109.702491,-7.359497],[109.702491,-7.360036],[109.702761,-7.360036],[109.702761,-7.360575],[109.70303,-7.360575],[109.70303,-7.361114],[109.7033,-7.361114],[109.7033,-7.361653],[109.703569,-7.361653],[109.703569,-7.362192],[109.703839,-7.362192],[109.703839,-7.362731],[109.704108,-7.362731],[109.704108,-7.36327],[109.704378,-7.36327],[109.704378,-7.363809],[109.704108,-7.363809],[109.704108,-7.364887],[109.703839,-7.364887],[109.703839,-7.365695],[109.703569,-7.365695],[109.703569,-7.366773],[109.7033,-7.366773],[109.7033,-7.367582],[109.70303,-7.367582],[109.70303,-7.368121],[109.702761,-7.368121],[109.702761,-7.36866],[109.702491,-7.36866],[109.702491,-7.368929],[109.702222,-7.368929],[109.702222,-7.369468],[109.701952,-7.369468],[109.701952,-7.369737],[109.701683,-7.369737],[109.701683,-7.370276],[109.701413,-7.370276],[109.701413,-7.370546],[109.701144,-7.370546],[109.701144,-7.371085],[109.700875,-7.371085],[109.700875,-7.371354],[109.700605,-7.371354],[109.700605,-7.371893],[109.700336,-7.371893],[109.700336,-7.372432],[109.700066,-7.372432],[109.700066,-7.372702],[109.699797,-7.372702],[109.699797,-7.372971],[109.699527,-7.372971],[109.699527,-7.37351],[109.699258,-7.37351],[109.699258,-7.37378],[109.698988,-7.37378],[109.698988,-7.374049],[109.698719,-7.374049],[109.698719,-7.374319],[109.698449,-7.374319],[109.698449,-7.374588],[109.69818,-7.374588],[109.69818,-7.375127],[109.69791,-7.375127],[109.69791,-7.375397],[109.697641,-7.375397],[109.697641,-7.375666],[109.697371,-7.375666],[109.697371,-7.375936],[109.697102,-7.375936],[109.697102,-7.376475],[109.696832,-7.376475],[109.696832,-7.377014],[109.696563,-7.377014],[109.696563,-7.377822],[109.696293,-7.377822],[109.696293,-7.378631],[109.696024,-7.378631],[109.696024,-7.379709],[109.695754,-7.379709],[109.695754,-7.380517],[109.695485,-7.380517],[109.695485,-7.381326],[109.695215,-7.381326],[109.695215,-7.382673],[109.694946,-7.382673],[109.694946,-7.38456],[109.694676,-7.38456],[109.694676,-7.386446],[109.694407,-7.386446],[109.694407,-7.386985],[109.694137,-7.386985],[109.694137,-7.387524],[109.693868,-7.387524],[109.693868,-7.388063],[109.693598,-7.388063],[109.693598,-7.388602],[109.693329,-7.388602],[109.693329,-7.388872],[109.693059,-7.388872],[109.693059,-7.38941],[109.69279,-7.38941],[109.69279,-7.389949],[109.69252,-7.389949],[109.69252,-7.390488],[109.692251,-7.390488],[109.692251,-7.390758],[109.691981,-7.390758],[109.691981,-7.391027],[109.691712,-7.391027],[109.691712,-7.391297],[109.691442,-7.391297],[109.691442,-7.391566],[109.691173,-7.391566],[109.691173,-7.391836],[109.690903,-7.391836],[109.690903,-7.392105],[109.690634,-7.392105],[109.690634,-7.392375],[109.689825,-7.392375],[109.689825,-7.392105],[109.688478,-7.392105],[109.688478,-7.391836],[109.687939,-7.391836],[109.687939,-7.391297],[109.687669,-7.391297],[109.687669,-7.391027],[109.6874,-7.391027],[109.6874,-7.390488],[109.68713,-7.390488],[109.68713,-7.389949],[109.686861,-7.389949],[109.686861,-7.38968],[109.686591,-7.38968],[109.686591,-7.389141],[109.686322,-7.389141],[109.686322,-7.388602],[109.686052,-7.388602],[109.686052,-7.388333],[109.685783,-7.388333],[109.685783,-7.387794],[109.685513,-7.387794],[109.685513,-7.387255],[109.685244,-7.387255],[109.685244,-7.386985],[109.684974,-7.386985],[109.684974,-7.386446],[109.684705,-7.386446],[109.684705,-7.382673],[109.684435,-7.382673],[109.684435,-7.379709],[109.684705,-7.379709],[109.684705,-7.37917],[109.684974,-7.37917],[109.684974,-7.378631],[109.685244,-7.378631],[109.685244,-7.378092],[109.685513,-7.378092],[109.685513,-7.377553],[109.685783,-7.377553],[109.685783,-7.377014],[109.686052,-7.377014],[109.686052,-7.376475],[109.686322,-7.376475],[109.686322,-7.375936],[109.686591,-7.375936],[109.686591,-7.375397],[109.686861,-7.375397],[109.686861,-7.374858],[109.68713,-7.374858],[109.68713,-7.374319],[109.6874,-7.374319],[109.6874,-7.37378],[109.687669,-7.37378],[109.687669,-7.373241],[109.687939,-7.373241],[109.687939,-7.372702],[109.688208,-7.372702],[109.688208,-7.372163],[109.688478,-7.372163],[109.688478,-7.371624],[109.688747,-7.371624],[109.688747,-7.371085],[109.689017,-7.371085],[109.689017,-7.370546],[109.689286,-7.370546],[109.689286,-7.370007],[109.689556,-7.370007],[109.689556,-7.369468],[109.689825,-7.369468],[109.689825,-7.368929],[109.690095,-7.368929],[109.690095,-7.36839],[109.690364,-7.36839],[109.690364,-7.367851],[109.690634,-7.367851],[109.690634,-7.367312],[109.690903,-7.367312],[109.690903,-7.366773],[109.691173,-7.366773],[109.691173,-7.366234],[109.691442,-7.366234],[109.691442,-7.365965],[109.691712,-7.365965],[109.691712,-7.365426],[109.691981,-7.365426],[109.691981,-7.364617],[109.692251,-7.364617],[109.692251,-7.364078],[109.69252,-7.364078],[109.69252,-7.36327],[109.69279,-7.36327],[109.69279,-7.362461],[109.693059,-7.362461],[109.693059,-7.361922],[109.693329,-7.361922],[109.693329,-7.361114],[109.693598,-7.361114],[109.693598,-7.360575],[109.693868,-7.360575],[109.693868,-7.359766],[109.694137,-7.359766],[109.694137,-7.359227],[109.694407,-7.359227],[109.694407,-7.358688],[109.694676,-7.358688],[109.694676,-7.358149],[109.694946,-7.358149],[109.694946,-7.35788],[109.695215,-7.35788],[109.695215,-7.35761],[109.695754,-7.35761],[109.695754,-7.357341],[109.696563,-7.357341],[109.696563,-7.357071],[109.697371,-7.357071],[109.697371,-7.356802],[109.69818,-7.356802],[109.69818,-7.356532],[109.69791,-7.356532],[109.69791,-7.356263],[109.697641,-7.356263],[109.697641,-7.355993],[109.697371,-7.355993],[109.697371,-7.355724],[109.697102,-7.355724],[109.697102,-7.355185],[109.696832,-7.355185],[109.696832,-7.354915],[109.696563,-7.354915],[109.696563,-7.354646],[109.696293,-7.354646],[109.696293,-7.354376],[109.695215,-7.354376],[109.695215,-7.354107],[109.693598,-7.354107],[109.693598,-7.353837],[109.691981,-7.353837],[109.691981,-7.353568],[109.690364,-7.353568],[109.690364,-7.353298],[109.689017,-7.353298],[109.689017,-7.353029],[109.687669,-7.353029],[109.687669,-7.352759],[109.686322,-7.352759],[109.686322,-7.35249],[109.684974,-7.35249],[109.684974,-7.35222],[109.682279,-7.35222]]]}}]}